{
  "type": "FeatureCollection",
  "features": [
    {
      "type": "Feature",
      "properties": {
        "name": "Arzheim",
        "city": "Landau in der Pfalz",
        "osm_id": 454769,
        "osm_type": "relation",
        "display": "Landau-Arzheim, Godramstein, Landau in der Pfalz, Rheinland-Pfalz, Deutschland"
      },
      "geometry": {
        "type": "Polygon",
        "coordinates": [
          [
            [
              8.0183046,
              49.1929683
            ],
            [
              8.0190618,
              49.1929005
            ],
            [
              8.0207912,
              49.1928549
            ],
            [
              8.0211668,
              49.1920199
            ],
            [
              8.024881,
              49.1919546
            ],
            [
              8.0264678,
              49.1918936
            ],
            [
              8.0276666,
              49.1918856
            ],
            [
              8.0292674,
              49.1918706
            ],
            [
              8.0299253,
              49.1917256
            ],
            [
              8.0324709,
              49.1923476
            ],
            [
              8.0331738,
              49.1924506
            ],
            [
              8.0362155,
              49.1922349
            ],
            [
              8.0363728,
              49.1922238
            ],
            [
              8.0364969,
              49.192215
            ],
            [
              8.0366666,
              49.1922226
            ],
            [
              8.0372016,
              49.1922467
            ],
            [
              8.0383733,
              49.1923106
            ],
            [
              8.0395191,
              49.1922248
            ],
            [
              8.0397121,
              49.1921658
            ],
            [
              8.0424458,
              49.1913626
            ],
            [
              8.0431146,
              49.1913122
            ],
            [
              8.0440411,
              49.1912503
            ],
            [
              8.0461772,
              49.1911075
            ],
            [
              8.0463569,
              49.1910955
            ],
            [
              8.0466558,
              49.1910755
            ],
            [
              8.0473631,
              49.191028
            ],
            [
              8.0492481,
              49.1909014
            ],
            [
              8.0502803,
              49.1909356
            ],
            [
              8.0517003,
              49.1910987
            ],
            [
              8.0539834,
              49.1914956
            ],
            [
              8.0545142,
              49.1915888
            ],
            [
              8.0556638,
              49.1917905
            ],
            [
              8.0558362,
              49.1907457
            ],
            [
              8.0573004,
              49.1904661
            ],
            [
              8.0572674,
              49.1901879
            ],
            [
              8.0568414,
              49.18915
            ],
            [
              8.0564942,
              49.1891123
            ],
            [
              8.056206,
              49.1888191
            ],
            [
              8.0559726,
              49.1883221
            ],
            [
              8.0559445,
              49.1875078
            ],
            [
              8.0560971,
              49.1872525
            ],
            [
              8.0564046,
              49.1868785
            ],
            [
              8.0564149,
              49.1867272
            ],
            [
              8.056439,
              49.186476
            ],
            [
              8.0564608,
              49.186072
            ],
            [
              8.0564655,
              49.1859861
            ],
            [
              8.0589055,
              49.1861602
            ],
            [
              8.0589841,
              49.1861698
            ],
            [
              8.0595428,
              49.1862381
            ],
            [
              8.060272,
              49.1863273
            ],
            [
              8.0632175,
              49.1864873
            ],
            [
              8.0661251,
              49.1865063
            ],
            [
              8.0705505,
              49.1863233
            ],
            [
              8.0771895,
              49.1872902
            ],
            [
              8.0770444,
              49.1892323
            ],
            [
              8.0797461,
              49.1891316
            ],
            [
              8.0801539,
              49.1891406
            ],
            [
              8.0829877,
              49.1891501
            ],
            [
              8.0830226,
              49.1894323
            ],
            [
              8.0842049,
              49.1894698
            ],
            [
              8.0857001,
              49.1895504
            ],
            [
              8.0856138,
              49.1900063
            ],
            [
              8.0869756,
              49.1903623
            ],
            [
              8.086251,
              49.193017
            ],
            [
              8.0861976,
              49.1932245
            ],
            [
              8.0868643,
              49.1934352
            ],
            [
              8.0864927,
              49.1948634
            ],
            [
              8.085826,
              49.1947725
            ],
            [
              8.0853725,
              49.1947205
            ],
            [
              8.0853425,
              49.1948323
            ],
            [
              8.0825234,
              49.1945089
            ],
            [
              8.0824696,
              49.1947088
            ],
            [
              8.0813231,
              49.1945771
            ],
            [
              8.0809966,
              49.1957907
            ],
            [
              8.0847668,
              49.1962238
            ],
            [
              8.0846939,
              49.1964949
            ],
            [
              8.0852935,
              49.1965638
            ],
            [
              8.0869471,
              49.1968399
            ],
            [
              8.0869534,
              49.1972866
            ],
            [
              8.0881285,
              49.1974173
            ],
            [
              8.0880091,
              49.1997799
            ],
            [
              8.088437,
              49.1997505
            ],
            [
              8.0892963,
              49.1990917
            ],
            [
              8.0900238,
              49.1995087
            ],
            [
              8.0915339,
              49.1987488
            ],
            [
              8.0917634,
              49.1993611
            ],
            [
              8.0924718,
              49.1992863
            ],
            [
              8.0925272,
              49.1992805
            ],
            [
              8.0928188,
              49.199259
            ],
            [
              8.0940544,
              49.2001377
            ],
            [
              8.0912713,
              49.203099
            ],
            [
              8.0882969,
              49.2030465
            ],
            [
              8.0861265,
              49.2018034
            ],
            [
              8.0816247,
              49.2036243
            ],
            [
              8.0795883,
              49.2035893
            ],
            [
              8.0780609,
              49.2025388
            ],
            [
              8.076078,
              49.2037643
            ],
            [
              8.0653012,
              49.2036614
            ],
            [
              8.0651912,
              49.2035014
            ],
            [
              8.0649722,
              49.2033104
            ],
            [
              8.0646413,
              49.2031504
            ],
            [
              8.0629415,
              49.2029135
            ],
            [
              8.0627438,
              49.2034646
            ],
            [
              8.0614137,
              49.2031844
            ],
            [
              8.059318,
              49.2028715
            ],
            [
              8.0578382,
              49.2025515
            ],
            [
              8.0564474,
              49.2025175
            ],
            [
              8.0559835,
              49.2025325
            ],
            [
              8.0551656,
              49.2026845
            ],
            [
              8.0545457,
              49.2027845
            ],
            [
              8.0536398,
              49.2027995
            ],
            [
              8.0503263,
              49.2025555
            ],
            [
              8.0490407,
              49.2023769
            ],
            [
              8.0476567,
              49.2018385
            ],
            [
              8.0468418,
              49.2015216
            ],
            [
              8.0462249,
              49.2013426
            ],
            [
              8.045363,
              49.2012236
            ],
            [
              8.0445461,
              49.2010486
            ],
            [
              8.0437502,
              49.2009566
            ],
            [
              8.0420278,
              49.2008696
            ],
            [
              8.04254,
              49.2002093
            ],
            [
              8.0429105,
              49.2002438
            ],
            [
              8.0434813,
              49.1993243
            ],
            [
              8.0434851,
              49.1983223
            ],
            [
              8.0434776,
              49.197371
            ],
            [
              8.0434773,
              49.197329
            ],
            [
              8.0424015,
              49.1971341
            ],
            [
              8.0417016,
              49.1968981
            ],
            [
              8.0410207,
              49.1967911
            ],
            [
              8.0402708,
              49.1968331
            ],
            [
              8.0398288,
              49.1969741
            ],
            [
              8.0393879,
              49.1970281
            ],
            [
              8.0380911,
              49.1969591
            ],
            [
              8.0371662,
              49.1967421
            ],
            [
              8.0329288,
              49.1961122
            ],
            [
              8.0327778,
              49.1958642
            ],
            [
              8.0326889,
              49.1943234
            ],
            [
              8.0305982,
              49.1942124
            ],
            [
              8.0306961,
              49.1951203
            ],
            [
              8.0297703,
              49.1951163
            ],
            [
              8.0287584,
              49.1951963
            ],
            [
              8.0278325,
              49.1953302
            ],
            [
              8.0281325,
              49.1959102
            ],
            [
              8.0278245,
              49.1959822
            ],
            [
              8.0270297,
              49.1960632
            ],
            [
              8.0261508,
              49.1960432
            ],
            [
              8.0221184,
              49.1961501
            ],
            [
              8.0214794,
              49.1961311
            ],
            [
              8.0205846,
              49.1957382
            ],
            [
              8.0200556,
              49.1957612
            ],
            [
              8.0191518,
              49.1959292
            ],
            [
              8.0186268,
              49.1956732
            ],
            [
              8.0184734,
              49.1955187
            ],
            [
              8.0187513,
              49.1939541
            ],
            [
              8.0183046,
              49.1929683
            ]
          ]
        ]
      }
    },
    {
      "type": "Feature",
      "properties": {
        "name": "Dammheim",
        "city": "Landau in der Pfalz",
        "osm_id": 454775,
        "osm_type": "relation",
        "display": "Landau-Dammheim, Landau in der Pfalz, Rheinland-Pfalz, Deutschland"
      },
      "geometry": {
        "type": "Polygon",
        "coordinates": [
          [
            [
              8.1337708,
              49.2122091
            ],
            [
              8.134278,
              49.2119221
            ],
            [
              8.1351774,
              49.2119475
            ],
            [
              8.1392182,
              49.2120617
            ],
            [
              8.1441115,
              49.2122833
            ],
            [
              8.1454319,
              49.2109643
            ],
            [
              8.1466893,
              49.209674
            ],
            [
              8.1473775,
              49.2086402
            ],
            [
              8.1476957,
              49.2079002
            ],
            [
              8.1516172,
              49.2082077
            ],
            [
              8.1560051,
              49.208973
            ],
            [
              8.1568877,
              49.2090133
            ],
            [
              8.1560354,
              49.213143
            ],
            [
              8.1560192,
              49.2132245
            ],
            [
              8.1559504,
              49.2134614
            ],
            [
              8.1569777,
              49.2137036
            ],
            [
              8.1572905,
              49.2137111
            ],
            [
              8.1583833,
              49.213739
            ],
            [
              8.1592517,
              49.2137255
            ],
            [
              8.1596931,
              49.2137446
            ],
            [
              8.1605733,
              49.2138613
            ],
            [
              8.1584308,
              49.2206992
            ],
            [
              8.1583245,
              49.2206893
            ],
            [
              8.1577901,
              49.2223788
            ],
            [
              8.1579516,
              49.2224056
            ],
            [
              8.1573887,
              49.2242197
            ],
            [
              8.1569526,
              49.2243605
            ],
            [
              8.1567745,
              49.2248215
            ],
            [
              8.1565241,
              49.2252574
            ],
            [
              8.1564145,
              49.2256231
            ],
            [
              8.1562058,
              49.2261063
            ],
            [
              8.1561872,
              49.2262415
            ],
            [
              8.1559501,
              49.2268317
            ],
            [
              8.155797,
              49.2275705
            ],
            [
              8.1537954,
              49.2274039
            ],
            [
              8.1523807,
              49.2274999
            ],
            [
              8.1515128,
              49.2276369
            ],
            [
              8.1517381,
              49.2286941
            ],
            [
              8.150322,
              49.2288267
            ],
            [
              8.1498218,
              49.2288405
            ],
            [
              8.1496067,
              49.2288735
            ],
            [
              8.1493216,
              49.2289469
            ],
            [
              8.149054,
              49.2289946
            ],
            [
              8.1473181,
              49.2291565
            ],
            [
              8.1472007,
              49.2291765
            ],
            [
              8.1453538,
              49.229045
            ],
            [
              8.1453243,
              49.2287753
            ],
            [
              8.1445192,
              49.2288108
            ],
            [
              8.1444913,
              49.2288017
            ],
            [
              8.1436189,
              49.2288267
            ],
            [
              8.1406746,
              49.228834
            ],
            [
              8.1406064,
              49.2270507
            ],
            [
              8.1385246,
              49.2270489
            ],
            [
              8.1370688,
              49.2236039
            ],
            [
              8.1368041,
              49.22222
            ],
            [
              8.1372193,
              49.2218808
            ],
            [
              8.134865,
              49.221859
            ],
            [
              8.1342823,
              49.2202918
            ],
            [
              8.1337708,
              49.2122091
            ]
          ]
        ]
      }
    },
    {
      "type": "Feature",
      "properties": {
        "name": "Godramstein",
        "city": "Landau in der Pfalz",
        "osm_id": 454768,
        "osm_type": "relation",
        "display": "Landau-Godramstein, Godramstein, Landau in der Pfalz, Rheinland-Pfalz, Deutschland"
      },
      "geometry": {
        "type": "Polygon",
        "coordinates": [
          [
            [
              8.0573872,
              49.2173868
            ],
            [
              8.0577932,
              49.2164639
            ],
            [
              8.0584561,
              49.2164679
            ],
            [
              8.0591928,
              49.2145752
            ],
            [
              8.0597209,
              49.2133721
            ],
            [
              8.0601235,
              49.211541
            ],
            [
              8.060218,
              49.2107321
            ],
            [
              8.0603318,
              49.2104476
            ],
            [
              8.0604948,
              49.2088728
            ],
            [
              8.0605598,
              49.2084568
            ],
            [
              8.061572,
              49.2085512
            ],
            [
              8.0616411,
              49.207692
            ],
            [
              8.0628165,
              49.2078269
            ],
            [
              8.0628165,
              49.2077469
            ],
            [
              8.0628225,
              49.2076329
            ],
            [
              8.0629406,
              49.2066393
            ],
            [
              8.0634213,
              49.2067158
            ],
            [
              8.063564,
              49.2060308
            ],
            [
              8.0642961,
              49.2060835
            ],
            [
              8.064982,
              49.2061111
            ],
            [
              8.0652082,
              49.2053022
            ],
            [
              8.0653012,
              49.2036614
            ],
            [
              8.076078,
              49.2037643
            ],
            [
              8.0780609,
              49.2025388
            ],
            [
              8.0795883,
              49.2035893
            ],
            [
              8.0816247,
              49.2036243
            ],
            [
              8.0861265,
              49.2018034
            ],
            [
              8.0882969,
              49.2030465
            ],
            [
              8.0912713,
              49.203099
            ],
            [
              8.0928307,
              49.2050289
            ],
            [
              8.0937964,
              49.2046012
            ],
            [
              8.0955909,
              49.2043189
            ],
            [
              8.0971505,
              49.206515
            ],
            [
              8.0990098,
              49.2060613
            ],
            [
              8.0996486,
              49.207618
            ],
            [
              8.0998107,
              49.2103163
            ],
            [
              8.1004655,
              49.210336
            ],
            [
              8.1004621,
              49.2145215
            ],
            [
              8.0990688,
              49.216892
            ],
            [
              8.0946811,
              49.2175012
            ],
            [
              8.0945085,
              49.21816
            ],
            [
              8.0944899,
              49.2187752
            ],
            [
              8.0944504,
              49.2193349
            ],
            [
              8.094552,
              49.2230959
            ],
            [
              8.0859791,
              49.2286322
            ],
            [
              8.0859351,
              49.22863
            ],
            [
              8.0858816,
              49.2286322
            ],
            [
              8.0845726,
              49.2285836
            ],
            [
              8.08403,
              49.2285721
            ],
            [
              8.0824552,
              49.2285127
            ],
            [
              8.0815761,
              49.2284802
            ],
            [
              8.0797704,
              49.2284738
            ],
            [
              8.0796823,
              49.229075
            ],
            [
              8.0796224,
              49.229715
            ],
            [
              8.0770118,
              49.2297161
            ],
            [
              8.0769769,
              49.2300392
            ],
            [
              8.0744407,
              49.2299267
            ],
            [
              8.0744057,
              49.2284346
            ],
            [
              8.0744087,
              49.2281976
            ],
            [
              8.0750127,
              49.2279577
            ],
            [
              8.0749227,
              49.2274237
            ],
            [
              8.0720531,
              49.2275037
            ],
            [
              8.072725,
              49.2263928
            ],
            [
              8.0708933,
              49.2259389
            ],
            [
              8.0683136,
              49.2253899
            ],
            [
              8.0649981,
              49.224574
            ],
            [
              8.0649126,
              49.2240794
            ],
            [
              8.0647911,
              49.2233762
            ],
            [
              8.0643712,
              49.2233452
            ],
            [
              8.0633094,
              49.2233872
            ],
            [
              8.0629544,
              49.2234712
            ],
            [
              8.0626444,
              49.2236161
            ],
            [
              8.0623775,
              49.2239331
            ],
            [
              8.0621115,
              49.2239441
            ],
            [
              8.0617676,
              49.2227882
            ],
            [
              8.0603758,
              49.2227392
            ],
            [
              8.0604218,
              49.2223653
            ],
            [
              8.0579724,
              49.222032
            ],
            [
              8.0579644,
              49.2215981
            ],
            [
              8.0580337,
              49.2206054
            ],
            [
              8.0577871,
              49.2205051
            ],
            [
              8.0580727,
              49.2195594
            ],
            [
              8.0582076,
              49.2192746
            ],
            [
              8.0582514,
              49.2191822
            ],
            [
              8.0587286,
              49.2184256
            ],
            [
              8.0587822,
              49.2183407
            ],
            [
              8.0575132,
              49.2183867
            ],
            [
              8.0581161,
              49.2174628
            ],
            [
              8.0573872,
              49.2173868
            ]
          ]
        ]
      }
    },
    {
      "type": "Feature",
      "properties": {
        "name": "Nußdorf",
        "city": "Landau in der Pfalz",
        "osm_id": 454776,
        "osm_type": "relation",
        "display": "Landau-Nußdorf, Landau in der Pfalz, Rheinland-Pfalz, Deutschland"
      },
      "geometry": {
        "type": "Polygon",
        "coordinates": [
          [
            [
              8.0859791,
              49.2286322
            ],
            [
              8.094552,
              49.2230959
            ],
            [
              8.0944504,
              49.2193349
            ],
            [
              8.0944899,
              49.2187752
            ],
            [
              8.0945085,
              49.21816
            ],
            [
              8.0946811,
              49.2175012
            ],
            [
              8.0990688,
              49.216892
            ],
            [
              8.1004621,
              49.2145215
            ],
            [
              8.1004655,
              49.210336
            ],
            [
              8.1037942,
              49.2106586
            ],
            [
              8.1084008,
              49.2108811
            ],
            [
              8.1082563,
              49.2117512
            ],
            [
              8.112075,
              49.212389
            ],
            [
              8.1147028,
              49.212679
            ],
            [
              8.1202811,
              49.2132353
            ],
            [
              8.120947,
              49.2133362
            ],
            [
              8.1214807,
              49.2134566
            ],
            [
              8.1225416,
              49.213696
            ],
            [
              8.1246887,
              49.2143404
            ],
            [
              8.1254315,
              49.2130102
            ],
            [
              8.1240258,
              49.2115432
            ],
            [
              8.1247568,
              49.2106156
            ],
            [
              8.1257667,
              49.2110528
            ],
            [
              8.1265011,
              49.2114569
            ],
            [
              8.1271096,
              49.2116379
            ],
            [
              8.1284132,
              49.2117674
            ],
            [
              8.1300116,
              49.2120521
            ],
            [
              8.1305121,
              49.2121731
            ],
            [
              8.1333284,
              49.2122846
            ],
            [
              8.1337708,
              49.2122091
            ],
            [
              8.1342823,
              49.2202918
            ],
            [
              8.134865,
              49.221859
            ],
            [
              8.1372193,
              49.2218808
            ],
            [
              8.1368041,
              49.22222
            ],
            [
              8.1370688,
              49.2236039
            ],
            [
              8.1385246,
              49.2270489
            ],
            [
              8.1364889,
              49.2272439
            ],
            [
              8.136095,
              49.2272859
            ],
            [
              8.135962,
              49.2273239
            ],
            [
              8.1348281,
              49.2276448
            ],
            [
              8.1338163,
              49.2277968
            ],
            [
              8.1337473,
              49.2280758
            ],
            [
              8.1329964,
              49.2279728
            ],
            [
              8.1324905,
              49.2278698
            ],
            [
              8.1322045,
              49.2277668
            ],
            [
              8.131692,
              49.2276974
            ],
            [
              8.1307977,
              49.2276219
            ],
            [
              8.1307187,
              49.2277508
            ],
            [
              8.1303473,
              49.2279595
            ],
            [
              8.1300303,
              49.2282305
            ],
            [
              8.1298694,
              49.2282804
            ],
            [
              8.1297085,
              49.2282761
            ],
            [
              8.1294604,
              49.2282121
            ],
            [
              8.1283916,
              49.2285362
            ],
            [
              8.1284662,
              49.2304924
            ],
            [
              8.1268937,
              49.2306533
            ],
            [
              8.1248994,
              49.2308404
            ],
            [
              8.1248726,
              49.2315349
            ],
            [
              8.1246626,
              49.2315069
            ],
            [
              8.1234346,
              49.2313024
            ],
            [
              8.1226429,
              49.2312784
            ],
            [
              8.1226429,
              49.2321533
            ],
            [
              8.1207901,
              49.2320313
            ],
            [
              8.1177836,
              49.2317603
            ],
            [
              8.1165907,
              49.2315854
            ],
            [
              8.1165437,
              49.2318293
            ],
            [
              8.1135862,
              49.2314594
            ],
            [
              8.1119964,
              49.2313254
            ],
            [
              8.1095917,
              49.2308564
            ],
            [
              8.1094799,
              49.232198
            ],
            [
              8.1073028,
              49.2320004
            ],
            [
              8.1066462,
              49.2319408
            ],
            [
              8.1063541,
              49.234058
            ],
            [
              8.1061282,
              49.2340041
            ],
            [
              8.1032926,
              49.2336411
            ],
            [
              8.1035076,
              49.2328607
            ],
            [
              8.1025777,
              49.2326422
            ],
            [
              8.1012319,
              49.2323442
            ],
            [
              8.0997271,
              49.2320503
            ],
            [
              8.0973945,
              49.2317388
            ],
            [
              8.0973972,
              49.2317224
            ],
            [
              8.0974915,
              49.2311554
            ],
            [
              8.0956777,
              49.2308259
            ],
            [
              8.0957087,
              49.2305414
            ],
            [
              8.0948883,
              49.230381
            ],
            [
              8.095241,
              49.2301132
            ],
            [
              8.0952842,
              49.230055
            ],
            [
              8.0951168,
              49.2299945
            ],
            [
              8.0921796,
              49.2292718
            ],
            [
              8.0919323,
              49.2292526
            ],
            [
              8.09013,
              49.2291636
            ],
            [
              8.090124,
              49.2296035
            ],
            [
              8.0898785,
              49.2296266
            ],
            [
              8.0890487,
              49.2297045
            ],
            [
              8.0877898,
              49.2297005
            ],
            [
              8.0873659,
              49.2300325
            ],
            [
              8.086574,
              49.2300645
            ],
            [
              8.0864796,
              49.2300716
            ],
            [
              8.0861341,
              49.2295191
            ],
            [
              8.0859791,
              49.2286322
            ]
          ]
        ]
      }
    },
    {
      "type": "Feature",
      "properties": {
        "name": "Queichheim",
        "city": "Landau in der Pfalz",
        "osm_id": 454773,
        "osm_type": "relation",
        "display": "Landau-Queichheim, Landau in der Pfalz, Rheinland-Pfalz, Deutschland"
      },
      "geometry": {
        "type": "Polygon",
        "coordinates": [
          [
            [
              8.1259513,
              49.1955746
            ],
            [
              8.1259942,
              49.1935845
            ],
            [
              8.1260535,
              49.1914781
            ],
            [
              8.1261156,
              49.1902338
            ],
            [
              8.1261852,
              49.1896863
            ],
            [
              8.1263531,
              49.1892393
            ],
            [
              8.1268527,
              49.1882856
            ],
            [
              8.1286207,
              49.1870833
            ],
            [
              8.1327813,
              49.1859055
            ],
            [
              8.1320488,
              49.1846287
            ],
            [
              8.1349787,
              49.1809904
            ],
            [
              8.1385466,
              49.1765593
            ],
            [
              8.1368916,
              49.1758322
            ],
            [
              8.13738,
              49.1746083
            ],
            [
              8.1390247,
              49.1739126
            ],
            [
              8.1396861,
              49.1736328
            ],
            [
              8.1402787,
              49.172686
            ],
            [
              8.1411045,
              49.172743
            ],
            [
              8.1433972,
              49.173193
            ],
            [
              8.1436822,
              49.173308
            ],
            [
              8.1437562,
              49.1734529
            ],
            [
              8.1438261,
              49.1735829
            ],
            [
              8.1438961,
              49.1737159
            ],
            [
              8.1473786,
              49.1744558
            ],
            [
              8.1495853,
              49.1745968
            ],
            [
              8.1498893,
              49.1746318
            ],
            [
              8.1500423,
              49.1746468
            ],
            [
              8.1507282,
              49.1747198
            ],
            [
              8.1509501,
              49.1747768
            ],
            [
              8.1510851,
              49.1748148
            ],
            [
              8.1511969,
              49.1748361
            ],
            [
              8.1538868,
              49.1759057
            ],
            [
              8.152956,
              49.177981
            ],
            [
              8.1530225,
              49.180078
            ],
            [
              8.1551667,
              49.1804691
            ],
            [
              8.1551334,
              49.1839784
            ],
            [
              8.1586405,
              49.1842608
            ],
            [
              8.1570781,
              49.1862706
            ],
            [
              8.1569617,
              49.1912242
            ],
            [
              8.158441,
              49.1912242
            ],
            [
              8.1593967,
              49.1941353
            ],
            [
              8.1637182,
              49.1942004
            ],
            [
              8.1643574,
              49.1951482
            ],
            [
              8.16417,
              49.1969406
            ],
            [
              8.1639675,
              49.197524
            ],
            [
              8.1613248,
              49.1968398
            ],
            [
              8.1604439,
              49.1981866
            ],
            [
              8.1577346,
              49.19823
            ],
            [
              8.1560226,
              49.2035082
            ],
            [
              8.1573431,
              49.2068052
            ],
            [
              8.1568877,
              49.2090133
            ],
            [
              8.1560051,
              49.208973
            ],
            [
              8.1516172,
              49.2082077
            ],
            [
              8.1517695,
              49.2070029
            ],
            [
              8.1520132,
              49.2070126
            ],
            [
              8.1520617,
              49.2063533
            ],
            [
              8.1497333,
              49.2062638
            ],
            [
              8.1496511,
              49.2059115
            ],
            [
              8.1479708,
              49.2058682
            ],
            [
              8.1480847,
              49.2033898
            ],
            [
              8.1483828,
              49.2002998
            ],
            [
              8.1473068,
              49.2002398
            ],
            [
              8.1464909,
              49.200398
            ],
            [
              8.1458039,
              49.2008835
            ],
            [
              8.1453128,
              49.2013157
            ],
            [
              8.1444746,
              49.2017806
            ],
            [
              8.1437253,
              49.2018546
            ],
            [
              8.1432362,
              49.2018785
            ],
            [
              8.1397716,
              49.2015477
            ],
            [
              8.1378675,
              49.2012079
            ],
            [
              8.1360404,
              49.2008333
            ],
            [
              8.1346837,
              49.2006233
            ],
            [
              8.1303047,
              49.2002031
            ],
            [
              8.1261684,
              49.1999079
            ],
            [
              8.1261506,
              49.1996709
            ],
            [
              8.1261562,
              49.1989915
            ],
            [
              8.1261242,
              49.1968616
            ],
            [
              8.1259513,
              49.1955746
            ]
          ]
        ]
      }
    },
    {
      "type": "Feature",
      "properties": {
        "name": "Wollmesheim",
        "city": "Landau in der Pfalz",
        "osm_id": 454770,
        "osm_type": "relation",
        "display": "Landau-Wollmesheim, Landau in der Pfalz, Rheinland-Pfalz, Deutschland"
      },
      "geometry": {
        "type": "Polygon",
        "coordinates": [
          [
            [
              8.0628197,
              49.1772483
            ],
            [
              8.0635246,
              49.1756955
            ],
            [
              8.0642025,
              49.1744447
            ],
            [
              8.0644344,
              49.1740747
            ],
            [
              8.0649844,
              49.1732088
            ],
            [
              8.0651013,
              49.1730218
            ],
            [
              8.066234,
              49.1731485
            ],
            [
              8.0674219,
              49.1729381
            ],
            [
              8.067889,
              49.1730494
            ],
            [
              8.0683062,
              49.1731535
            ],
            [
              8.070135,
              49.1735892
            ],
            [
              8.0720072,
              49.1739537
            ],
            [
              8.0733353,
              49.1742269
            ],
            [
              8.0741458,
              49.1744705
            ],
            [
              8.0747563,
              49.174654
            ],
            [
              8.075543,
              49.174876
            ],
            [
              8.0762138,
              49.1750653
            ],
            [
              8.0773712,
              49.1753964
            ],
            [
              8.077823,
              49.1755274
            ],
            [
              8.0791766,
              49.1758936
            ],
            [
              8.0803731,
              49.1761236
            ],
            [
              8.0815446,
              49.1762711
            ],
            [
              8.0818759,
              49.1763112
            ],
            [
              8.0821341,
              49.1763627
            ],
            [
              8.0822485,
              49.176433
            ],
            [
              8.082669,
              49.1763509
            ],
            [
              8.0841075,
              49.1764367
            ],
            [
              8.0854976,
              49.176454
            ],
            [
              8.0871395,
              49.1765542
            ],
            [
              8.0910601,
              49.1769729
            ],
            [
              8.0915173,
              49.1770218
            ],
            [
              8.0917841,
              49.1770815
            ],
            [
              8.0921328,
              49.177119
            ],
            [
              8.0932786,
              49.1772422
            ],
            [
              8.0958881,
              49.1775802
            ],
            [
              8.0970453,
              49.1777844
            ],
            [
              8.0993374,
              49.1784243
            ],
            [
              8.0999401,
              49.1785902
            ],
            [
              8.1012052,
              49.1788539
            ],
            [
              8.1023887,
              49.1791136
            ],
            [
              8.1024635,
              49.1776379
            ],
            [
              8.1077257,
              49.1775954
            ],
            [
              8.1082229,
              49.1775956
            ],
            [
              8.1083344,
              49.1797045
            ],
            [
              8.1046065,
              49.1793731
            ],
            [
              8.1036806,
              49.1807816
            ],
            [
              8.1048104,
              49.1812387
            ],
            [
              8.1062184,
              49.1815796
            ],
            [
              8.1073366,
              49.1818998
            ],
            [
              8.107483,
              49.1819618
            ],
            [
              8.1092118,
              49.1825773
            ],
            [
              8.1096681,
              49.1827438
            ],
            [
              8.1096755,
              49.1829173
            ],
            [
              8.1095313,
              49.1833278
            ],
            [
              8.1090274,
              49.1843603
            ],
            [
              8.1089192,
              49.1846295
            ],
            [
              8.1088881,
              49.1847791
            ],
            [
              8.1085841,
              49.1854988
            ],
            [
              8.1085138,
              49.1855503
            ],
            [
              8.1084387,
              49.1855658
            ],
            [
              8.108267,
              49.1855378
            ],
            [
              8.105935,
              49.1850441
            ],
            [
              8.1045319,
              49.1849266
            ],
            [
              8.1041724,
              49.1856255
            ],
            [
              8.1036871,
              49.1862681
            ],
            [
              8.1032471,
              49.1868334
            ],
            [
              8.1038295,
              49.1868045
            ],
            [
              8.1042975,
              49.1867264
            ],
            [
              8.1048925,
              49.1866461
            ],
            [
              8.105385,
              49.1866953
            ],
            [
              8.1052904,
              49.1872384
            ],
            [
              8.1039625,
              49.1877969
            ],
            [
              8.1029901,
              49.1882315
            ],
            [
              8.1023705,
              49.1887166
            ],
            [
              8.1023385,
              49.1889876
            ],
            [
              8.1020486,
              49.1900249
            ],
            [
              8.1015982,
              49.1898654
            ],
            [
              8.1006537,
              49.1894601
            ],
            [
              8.0999887,
              49.1891448
            ],
            [
              8.0988208,
              49.1887159
            ],
            [
              8.0982446,
              49.1884752
            ],
            [
              8.0976092,
              49.1882005
            ],
            [
              8.0970918,
              49.187994
            ],
            [
              8.096816,
              49.1878907
            ],
            [
              8.0966317,
              49.1878292
            ],
            [
              8.0967107,
              49.1877047
            ],
            [
              8.0967823,
              49.1871387
            ],
            [
              8.0960986,
              49.1870365
            ],
            [
              8.0961246,
              49.1868974
            ],
            [
              8.096212,
              49.1864301
            ],
            [
              8.0952779,
              49.1864197
            ],
            [
              8.0950652,
              49.1864308
            ],
            [
              8.0950075,
              49.1864479
            ],
            [
              8.0949536,
              49.1864846
            ],
            [
              8.09488,
              49.1865325
            ],
            [
              8.0946735,
              49.1870959
            ],
            [
              8.0945953,
              49.1870915
            ],
            [
              8.0935421,
              49.1867442
            ],
            [
              8.0933476,
              49.1866806
            ],
            [
              8.0928031,
              49.1865077
            ],
            [
              8.0918294,
              49.1862068
            ],
            [
              8.0915044,
              49.1878718
            ],
            [
              8.0914291,
              49.1882354
            ],
            [
              8.091216,
              49.1882083
            ],
            [
              8.0905688,
              49.1881118
            ],
            [
              8.0899368,
              49.1879825
            ],
            [
              8.0889506,
              49.1877245
            ],
            [
              8.0879243,
              49.1874375
            ],
            [
              8.0865297,
              49.1870151
            ],
            [
              8.0861408,
              49.1872213
            ],
            [
              8.0857001,
              49.1895504
            ],
            [
              8.0842049,
              49.1894698
            ],
            [
              8.0830226,
              49.1894323
            ],
            [
              8.0829877,
              49.1891501
            ],
            [
              8.0801539,
              49.1891406
            ],
            [
              8.0797461,
              49.1891316
            ],
            [
              8.0770444,
              49.1892323
            ],
            [
              8.0771895,
              49.1872902
            ],
            [
              8.0705505,
              49.1863233
            ],
            [
              8.0705828,
              49.1847032
            ],
            [
              8.0696256,
              49.1847675
            ],
            [
              8.0696786,
              49.1840116
            ],
            [
              8.0697916,
              49.1823068
            ],
            [
              8.066997,
              49.1823338
            ],
            [
              8.0664651,
              49.1810589
            ],
            [
              8.0664237,
              49.1809878
            ],
            [
              8.0661002,
              49.180438
            ],
            [
              8.0656372,
              49.180449
            ],
            [
              8.0653353,
              49.179915
            ],
            [
              8.0649393,
              49.179942
            ],
            [
              8.0648633,
              49.1797701
            ],
            [
              8.0644274,
              49.1788012
            ],
            [
              8.0633466,
              49.1788662
            ],
            [
              8.0642035,
              49.1775313
            ],
            [
              8.0628197,
              49.1772483
            ]
          ]
        ]
      }
    }
  ]
}