{
  "type": "FeatureCollection",
  "features": [
    {
      "type": "Feature",
      "properties": {
        "name": "Innenstadt",
        "city": "Rosenheim",
        "osm_id": 3376842,
        "osm_type": "relation",
        "display": "Rosenheim, Luitpoldstraße, Roßacker, Innenstadt, Fürstätt, Rosenheim, Bayern, 83022, Deutschland"
      },
      "geometry": {
        "type": "Polygon",
        "coordinates": [
          [
            [
              12.1168474,
              47.8510047
            ],
            [
              12.1179374,
              47.8506413
            ],
            [
              12.1187343,
              47.8503739
            ],
            [
              12.1192349,
              47.8502059
            ],
            [
              12.1193823,
              47.8501564
            ],
            [
              12.1197545,
              47.8500305
            ],
            [
              12.1199302,
              47.849971
            ],
            [
              12.1200051,
              47.8499458
            ],
            [
              12.1206795,
              47.8497182
            ],
            [
              12.1207,
              47.8497436
            ],
            [
              12.1202669,
              47.8498906
            ],
            [
              12.1203256,
              47.8499716
            ],
            [
              12.1200802,
              47.8500514
            ],
            [
              12.1200075,
              47.8500744
            ],
            [
              12.1196824,
              47.8501837
            ],
            [
              12.1196546,
              47.8501468
            ],
            [
              12.1195702,
              47.8501749
            ],
            [
              12.1195552,
              47.8501546
            ],
            [
              12.1194828,
              47.8501788
            ],
            [
              12.119498,
              47.8501989
            ],
            [
              12.1192865,
              47.8502692
            ],
            [
              12.1187798,
              47.8504392
            ],
            [
              12.1185344,
              47.850525
            ],
            [
              12.1185168,
              47.8505026
            ],
            [
              12.1168834,
              47.851053
            ],
            [
              12.1168474,
              47.8510047
            ]
          ],
          [
            [
              12.1198891,
              47.8500419
            ],
            [
              12.1199039,
              47.8500621
            ],
            [
              12.1199782,
              47.8500369
            ],
            [
              12.1199708,
              47.850027
            ],
            [
              12.1199633,
              47.8500167
            ],
            [
              12.1198891,
              47.8500419
            ]
          ]
        ]
      }
    },
    {
      "type": "Feature",
      "properties": {
        "name": "West",
        "city": "Rosenheim",
        "osm_id": 642904702,
        "osm_type": "way",
        "display": "Rosenheim Aicherpark, Oberaustraße, Aicherpark/Gewerbegebiet West, Oberwöhr, Fürstätt, Rosenheim, Baiern (VGem Glonn), Bayern, 83026, Deutschland"
      },
      "geometry": {
        "type": "Polygon",
        "coordinates": [
          [
            [
              12.0872798,
              47.8514033
            ],
            [
              12.087284,
              47.8513794
            ],
            [
              12.0874901,
              47.8514001
            ],
            [
              12.0879323,
              47.8514469
            ],
            [
              12.0882367,
              47.8514791
            ],
            [
              12.0882416,
              47.85146
            ],
            [
              12.0883486,
              47.8514723
            ],
            [
              12.0883455,
              47.8514841
            ],
            [
              12.0885123,
              47.8515034
            ],
            [
              12.0885183,
              47.8514802
            ],
            [
              12.0886264,
              47.8514927
            ],
            [
              12.0886193,
              47.8515204
            ],
            [
              12.0887407,
              47.8515361
            ],
            [
              12.0888738,
              47.8515534
            ],
            [
              12.0891019,
              47.851583
            ],
            [
              12.089097,
              47.85161
            ],
            [
              12.0888633,
              47.8515804
            ],
            [
              12.0887325,
              47.851564
            ],
            [
              12.0886208,
              47.8515499
            ],
            [
              12.0883651,
              47.8515173
            ],
            [
              12.0879277,
              47.8514683
            ],
            [
              12.0874822,
              47.8514231
            ],
            [
              12.0872798,
              47.8514033
            ]
          ]
        ]
      }
    },
    {
      "type": "Feature",
      "properties": {
        "name": "Ost",
        "city": "Rosenheim",
        "osm_id": 151531260,
        "osm_type": "way",
        "display": "Gewerbegebiet Ost II, Kastenau, Rosenheim, Bayern, Deutschland"
      },
      "geometry": {
        "type": "Polygon",
        "coordinates": [
          [
            [
              12.1365834,
              47.8500526
            ],
            [
              12.1377944,
              47.8495484
            ],
            [
              12.1375312,
              47.8492848
            ],
            [
              12.1384582,
              47.8488287
            ],
            [
              12.1385282,
              47.8483165
            ],
            [
              12.1387584,
              47.8480734
            ],
            [
              12.1408187,
              47.8490614
            ],
            [
              12.1417479,
              47.8495467
            ],
            [
              12.1431622,
              47.8502618
            ],
            [
              12.1427804,
              47.8506078
            ],
            [
              12.143134,
              47.8506787
            ],
            [
              12.1434333,
              47.8503939
            ],
            [
              12.1444722,
              47.8509125
            ],
            [
              12.1447342,
              47.8510179
            ],
            [
              12.1450796,
              47.8511496
            ],
            [
              12.1459138,
              47.8515587
            ],
            [
              12.1450208,
              47.8523809
            ],
            [
              12.1439525,
              47.8533884
            ],
            [
              12.1433341,
              47.8535317
            ],
            [
              12.1427206,
              47.8533305
            ],
            [
              12.1426331,
              47.8532859
            ],
            [
              12.1422422,
              47.853512
            ],
            [
              12.1421192,
              47.8535731
            ],
            [
              12.1413304,
              47.8533701
            ],
            [
              12.1411939,
              47.8535652
            ],
            [
              12.1411318,
              47.8536414
            ],
            [
              12.1415759,
              47.853892
            ],
            [
              12.1412849,
              47.8541436
            ],
            [
              12.1406936,
              47.8539982
            ],
            [
              12.1406564,
              47.8541122
            ],
            [
              12.1406306,
              47.8542225
            ],
            [
              12.1405958,
              47.8543716
            ],
            [
              12.1405592,
              47.8545326
            ],
            [
              12.140392,
              47.854496
            ],
            [
              12.1403406,
              47.8544818
            ],
            [
              12.140146,
              47.8548218
            ],
            [
              12.1393646,
              47.854652
            ],
            [
              12.1395814,
              47.8542929
            ],
            [
              12.1390771,
              47.8541561
            ],
            [
              12.1389698,
              47.8543073
            ],
            [
              12.1378884,
              47.8542335
            ],
            [
              12.1376339,
              47.8542199
            ],
            [
              12.1375945,
              47.8539683
            ],
            [
              12.13709,
              47.8539187
            ],
            [
              12.1367135,
              47.8533511
            ],
            [
              12.1370484,
              47.8532193
            ],
            [
              12.1370524,
              47.8533718
            ],
            [
              12.1376504,
              47.8533778
            ],
            [
              12.137821,
              47.8533795
            ],
            [
              12.1378326,
              47.853097
            ],
            [
              12.1377011,
              47.8525446
            ],
            [
              12.1374857,
              47.8520837
            ],
            [
              12.1378095,
              47.8520329
            ],
            [
              12.1378028,
              47.8519899
            ],
            [
              12.1378017,
              47.8519619
            ],
            [
              12.13775,
              47.851662
            ],
            [
              12.137328,
              47.851734
            ],
            [
              12.1372534,
              47.8515603
            ],
            [
              12.1365834,
              47.8500526
            ]
          ]
        ]
      }
    },
    {
      "type": "Feature",
      "properties": {
        "name": "Süd",
        "city": "Rosenheim",
        "osm_id": 304239412,
        "osm_type": "way",
        "display": "Gaststätte Rosenheim, Feldstraße, Cainsdorf, Zwickau-Süd, Zwickau, Langenweißbach, Zwickau, Sachsen, 08134, Deutschland"
      },
      "geometry": {
        "type": "Polygon",
        "coordinates": [
          [
            [
              12.4941991,
              50.673812
            ],
            [
              12.4943248,
              50.6737115
            ],
            [
              12.4945307,
              50.6738148
            ],
            [
              12.4944082,
              50.6739129
            ],
            [
              12.4943449,
              50.6738811
            ],
            [
              12.4943271,
              50.6738953
            ],
            [
              12.4942823,
              50.6738728
            ],
            [
              12.494297,
              50.6738611
            ],
            [
              12.4941991,
              50.673812
            ]
          ]
        ]
      }
    }
  ]
}