{
  "type": "FeatureCollection",
  "features": [
    {
      "type": "Feature",
      "properties": {
        "name": "Altstadt",
        "city": "Weiden in der Oberpfalz",
        "osm_id": 152218693,
        "osm_type": "way",
        "display": "Altstadt, Stockerhut, Weiden in der Oberpfalz, Bayern, Deutschland"
      },
      "geometry": {
        "type": "Polygon",
        "coordinates": [
          [
            [
              12.1603136,
              49.6759265
            ],
            [
              12.160401,
              49.6756548
            ],
            [
              12.1608669,
              49.6741816
            ],
            [
              12.1609337,
              49.6739663
            ],
            [
              12.1615946,
              49.6739266
            ],
            [
              12.1615967,
              49.6740744
            ],
            [
              12.16165,
              49.6740723
            ],
            [
              12.1617302,
              49.6740692
            ],
            [
              12.1617341,
              49.6740542
            ],
            [
              12.1617472,
              49.6740423
            ],
            [
              12.1617671,
              49.6740354
            ],
            [
              12.1617897,
              49.6740349
            ],
            [
              12.1618102,
              49.674041
            ],
            [
              12.1618988,
              49.6739837
            ],
            [
              12.1619779,
              49.6739828
            ],
            [
              12.1619756,
              49.6739316
            ],
            [
              12.1620221,
              49.6739307
            ],
            [
              12.1620235,
              49.6739611
            ],
            [
              12.1623779,
              49.673964
            ],
            [
              12.1623779,
              49.6739556
            ],
            [
              12.1623834,
              49.6739421
            ],
            [
              12.1623985,
              49.6739321
            ],
            [
              12.1624192,
              49.6739281
            ],
            [
              12.1624363,
              49.67393
            ],
            [
              12.1624508,
              49.6739361
            ],
            [
              12.1624603,
              49.6739455
            ],
            [
              12.1624634,
              49.6739565
            ],
            [
              12.1624634,
              49.6739651
            ],
            [
              12.1625163,
              49.6739656
            ],
            [
              12.1625169,
              49.6739559
            ],
            [
              12.1625177,
              49.6738991
            ],
            [
              12.1629456,
              49.673921
            ],
            [
              12.1634216,
              49.674029
            ],
            [
              12.1634719,
              49.6740418
            ],
            [
              12.1634648,
              49.6740572
            ],
            [
              12.1638649,
              49.6741543
            ],
            [
              12.1642809,
              49.6742599
            ],
            [
              12.1648957,
              49.6744508
            ],
            [
              12.1651148,
              49.6745571
            ],
            [
              12.1658657,
              49.6752036
            ],
            [
              12.1661223,
              49.6754902
            ],
            [
              12.1664115,
              49.6759579
            ],
            [
              12.166146,
              49.6765891
            ],
            [
              12.1660058,
              49.6769223
            ],
            [
              12.1664073,
              49.6770047
            ],
            [
              12.1660874,
              49.6773122
            ],
            [
              12.1657245,
              49.6776058
            ],
            [
              12.1655667,
              49.6776339
            ],
            [
              12.1641675,
              49.6773194
            ],
            [
              12.1629051,
              49.6770092
            ],
            [
              12.1606982,
              49.6764552
            ],
            [
              12.1603136,
              49.6759265
            ]
          ]
        ]
      }
    },
    {
      "type": "Feature",
      "properties": {
        "name": "Weiden-Ost",
        "city": "Weiden in der Oberpfalz",
        "osm_id": 361105447,
        "osm_type": "way",
        "display": "FC Weiden-Ost, Stresemannstraße, Weiden in der Oberpfalz, Bayern, 92637, Deutschland"
      },
      "geometry": {
        "type": "Polygon",
        "coordinates": [
          [
            [
              12.1771922,
              49.6766651
            ],
            [
              12.1775339,
              49.6762727
            ],
            [
              12.1780569,
              49.6764271
            ],
            [
              12.1785894,
              49.6759292
            ],
            [
              12.1786186,
              49.6759247
            ],
            [
              12.1791382,
              49.6754074
            ],
            [
              12.1802349,
              49.6758366
            ],
            [
              12.17884,
              49.6773614
            ],
            [
              12.1771922,
              49.6766651
            ]
          ]
        ]
      }
    },
    {
      "type": "Feature",
      "properties": {
        "name": "Lerchenfeld",
        "city": "Weiden in der Oberpfalz",
        "osm_id": 963717373,
        "osm_type": "way",
        "display": "Lerchenfeld, Weiden in der Oberpfalz, Bayern, Deutschland"
      },
      "geometry": {
        "type": "Polygon",
        "coordinates": [
          [
            [
              12.1345807,
              49.6718196
            ],
            [
              12.134582,
              49.6717505
            ],
            [
              12.1345965,
              49.6716831
            ],
            [
              12.1346389,
              49.671594
            ],
            [
              12.1346923,
              49.6715105
            ],
            [
              12.1347993,
              49.671536
            ],
            [
              12.1350513,
              49.6712809
            ],
            [
              12.1351872,
              49.6711216
            ],
            [
              12.135279,
              49.6709745
            ],
            [
              12.1353317,
              49.670847
            ],
            [
              12.1356141,
              49.6708503
            ],
            [
              12.136009,
              49.6708392
            ],
            [
              12.1361126,
              49.6708913
            ],
            [
              12.1372859,
              49.6708052
            ],
            [
              12.1375302,
              49.6707995
            ],
            [
              12.1378756,
              49.6707914
            ],
            [
              12.1378242,
              49.6705213
            ],
            [
              12.1381625,
              49.6705002
            ],
            [
              12.1382071,
              49.6707291
            ],
            [
              12.1385459,
              49.6707106
            ],
            [
              12.1385635,
              49.6708321
            ],
            [
              12.138922,
              49.6708843
            ],
            [
              12.1388942,
              49.6706473
            ],
            [
              12.1388827,
              49.6703883
            ],
            [
              12.1388732,
              49.6701784
            ],
            [
              12.1388861,
              49.669467
            ],
            [
              12.1389029,
              49.6686182
            ],
            [
              12.1393722,
              49.6683242
            ],
            [
              12.1393948,
              49.668192
            ],
            [
              12.1391379,
              49.6681492
            ],
            [
              12.1386883,
              49.6680987
            ],
            [
              12.1387242,
              49.6680027
            ],
            [
              12.138789,
              49.6678294
            ],
            [
              12.1387897,
              49.6676638
            ],
            [
              12.1387811,
              49.6675889
            ],
            [
              12.1387549,
              49.6675685
            ],
            [
              12.1389594,
              49.6675687
            ],
            [
              12.1391525,
              49.6675745
            ],
            [
              12.1391686,
              49.6673767
            ],
            [
              12.1391943,
              49.6673363
            ],
            [
              12.1392261,
              49.6673021
            ],
            [
              12.1392806,
              49.6672821
            ],
            [
              12.1394087,
              49.6672632
            ],
            [
              12.1397743,
              49.6672566
            ],
            [
              12.1398321,
              49.6671854
            ],
            [
              12.139871,
              49.667127
            ],
            [
              12.140063,
              49.6669305
            ],
            [
              12.1407231,
              49.6666006
            ],
            [
              12.1408271,
              49.666558
            ],
            [
              12.1415185,
              49.666205
            ],
            [
              12.1424737,
              49.6648495
            ],
            [
              12.1427135,
              49.6649087
            ],
            [
              12.1429224,
              49.6647787
            ],
            [
              12.1430377,
              49.6646885
            ],
            [
              12.1433069,
              49.6642903
            ],
            [
              12.1434585,
              49.6641012
            ],
            [
              12.1436423,
              49.6638847
            ],
            [
              12.1436561,
              49.6638698
            ],
            [
              12.1436736,
              49.6638474
            ],
            [
              12.1437234,
              49.6637837
            ],
            [
              12.1440505,
              49.6632965
            ],
            [
              12.1440492,
              49.6630809
            ],
            [
              12.1439997,
              49.662868
            ],
            [
              12.1438902,
              49.6627474
            ],
            [
              12.1439097,
              49.662704
            ],
            [
              12.1437492,
              49.6626696
            ],
            [
              12.1435637,
              49.6626187
            ],
            [
              12.1433854,
              49.6625796
            ],
            [
              12.1432047,
              49.6625466
            ],
            [
              12.1432321,
              49.6624958
            ],
            [
              12.1433895,
              49.6622035
            ],
            [
              12.1434157,
              49.6621418
            ],
            [
              12.1434214,
              49.6621432
            ],
            [
              12.143733,
              49.6622162
            ],
            [
              12.1440231,
              49.6622753
            ],
            [
              12.1445052,
              49.6622393
            ],
            [
              12.144536,
              49.6621481
            ],
            [
              12.1446058,
              49.6619
            ],
            [
              12.1446224,
              49.6618427
            ],
            [
              12.1446047,
              49.6618389
            ],
            [
              12.1446478,
              49.6616382
            ],
            [
              12.1447026,
              49.6614063
            ],
            [
              12.1448111,
              49.6608982
            ],
            [
              12.1449286,
              49.6603406
            ],
            [
              12.1449444,
              49.6603281
            ],
            [
              12.1450623,
              49.6603049
            ],
            [
              12.1458997,
              49.6601476
            ],
            [
              12.1457266,
              49.6596959
            ],
            [
              12.1451159,
              49.6598236
            ],
            [
              12.1440176,
              49.6600579
            ],
            [
              12.1441693,
              49.6595261
            ],
            [
              12.1443139,
              49.6591688
            ],
            [
              12.1445757,
              49.658586
            ],
            [
              12.1444872,
              49.6584939
            ],
            [
              12.144675,
              49.658155
            ],
            [
              12.1447532,
              49.6580145
            ],
            [
              12.1449734,
              49.6576008
            ],
            [
              12.1460383,
              49.6560693
            ],
            [
              12.14703,
              49.6574749
            ],
            [
              12.1478134,
              49.658579
            ],
            [
              12.1485666,
              49.6596377
            ],
            [
              12.1493145,
              49.6607258
            ],
            [
              12.1499843,
              49.6615691
            ],
            [
              12.1503415,
              49.6620305
            ],
            [
              12.1505198,
              49.6622791
            ],
            [
              12.1508874,
              49.6627848
            ],
            [
              12.1511572,
              49.6632918
            ],
            [
              12.1512071,
              49.6639676
            ],
            [
              12.1511516,
              49.6644312
            ],
            [
              12.1512126,
              49.6648087
            ],
            [
              12.1512858,
              49.6653732
            ],
            [
              12.1515256,
              49.6659853
            ],
            [
              12.1516757,
              49.6662942
            ],
            [
              12.1521075,
              49.6672261
            ],
            [
              12.1522354,
              49.6678082
            ],
            [
              12.1523645,
              49.6685178
            ],
            [
              12.1524519,
              49.6689953
            ],
            [
              12.1525612,
              49.6693521
            ],
            [
              12.1530623,
              49.6702438
            ],
            [
              12.1532662,
              49.6705268
            ],
            [
              12.1533514,
              49.6708555
            ],
            [
              12.1532032,
              49.6708716
            ],
            [
              12.1535943,
              49.6719141
            ],
            [
              12.1536618,
              49.6721221
            ],
            [
              12.1537734,
              49.6724964
            ],
            [
              12.1539508,
              49.6728175
            ],
            [
              12.1520449,
              49.6731868
            ],
            [
              12.1510075,
              49.6730484
            ],
            [
              12.1496097,
              49.6728649
            ],
            [
              12.149207,
              49.6727503
            ],
            [
              12.1488035,
              49.6726404
            ],
            [
              12.1485628,
              49.6725625
            ],
            [
              12.1483116,
              49.6724755
            ],
            [
              12.1478493,
              49.6722775
            ],
            [
              12.1473692,
              49.6721074
            ],
            [
              12.14691,
              49.6720907
            ],
            [
              12.1454696,
              49.6720724
            ],
            [
              12.1443907,
              49.6720544
            ],
            [
              12.1430041,
              49.6721373
            ],
            [
              12.1425439,
              49.6721723
            ],
            [
              12.1418326,
              49.6721863
            ],
            [
              12.1411241,
              49.6721595
            ],
            [
              12.1403145,
              49.6721193
            ],
            [
              12.139504,
              49.6721147
            ],
            [
              12.1386936,
              49.6721376
            ],
            [
              12.1377805,
              49.6721651
            ],
            [
              12.137108,
              49.6721605
            ],
            [
              12.1362657,
              49.6721055
            ],
            [
              12.1358393,
              49.6720559
            ],
            [
              12.1349638,
              49.6719899
            ],
            [
              12.1349295,
              49.6719873
            ],
            [
              12.1348583,
              49.6719778
            ],
            [
              12.1347783,
              49.6719588
            ],
            [
              12.1346884,
              49.6719224
            ],
            [
              12.1346442,
              49.6718968
            ],
            [
              12.1346116,
              49.6718693
            ],
            [
              12.1345932,
              49.6718454
            ],
            [
              12.1345807,
              49.6718196
            ]
          ]
        ]
      }
    },
    {
      "type": "Feature",
      "properties": {
        "name": "Weiden-West",
        "city": "Weiden in der Oberpfalz",
        "osm_id": 2081443,
        "osm_type": "relation",
        "display": "Weiden-West, Rehbühl, Latsch, Weiden in der Oberpfalz, Bayern, Deutschland"
      },
      "geometry": {
        "type": "Polygon",
        "coordinates": [
          [
            [
              12.109085,
              49.6869355
            ],
            [
              12.1096374,
              49.6865836
            ],
            [
              12.1095968,
              49.6863903
            ],
            [
              12.1107787,
              49.6863368
            ],
            [
              12.1108088,
              49.686551
            ],
            [
              12.1112743,
              49.6867875
            ],
            [
              12.1119326,
              49.6865948
            ],
            [
              12.1126604,
              49.686558
            ],
            [
              12.1136044,
              49.6865284
            ],
            [
              12.1136854,
              49.6869088
            ],
            [
              12.1144107,
              49.686826
            ],
            [
              12.1144223,
              49.6868637
            ],
            [
              12.1144785,
              49.6868749
            ],
            [
              12.1144919,
              49.6871124
            ],
            [
              12.1154636,
              49.6870514
            ],
            [
              12.115433,
              49.6867856
            ],
            [
              12.1157177,
              49.686752
            ],
            [
              12.1157429,
              49.6864358
            ],
            [
              12.115518,
              49.6864434
            ],
            [
              12.1154384,
              49.6861391
            ],
            [
              12.1171339,
              49.6860787
            ],
            [
              12.1171756,
              49.6864203
            ],
            [
              12.1181824,
              49.6863958
            ],
            [
              12.1181561,
              49.6859993
            ],
            [
              12.1201203,
              49.6857971
            ],
            [
              12.1222548,
              49.685553
            ],
            [
              12.1222685,
              49.6856615
            ],
            [
              12.1222697,
              49.68583
            ],
            [
              12.1222323,
              49.6862657
            ],
            [
              12.1237679,
              49.6861935
            ],
            [
              12.1238977,
              49.6868279
            ],
            [
              12.1236389,
              49.6869786
            ],
            [
              12.1234984,
              49.6870928
            ],
            [
              12.1224625,
              49.6879749
            ],
            [
              12.1229621,
              49.6880024
            ],
            [
              12.1229607,
              49.6881941
            ],
            [
              12.123134,
              49.6881955
            ],
            [
              12.123315,
              49.6898123
            ],
            [
              12.1235584,
              49.6900776
            ],
            [
              12.1232923,
              49.6901055
            ],
            [
              12.1226092,
              49.690177
            ],
            [
              12.121935,
              49.689975
            ],
            [
              12.1219266,
              49.6899725
            ],
            [
              12.1219205,
              49.6895507
            ],
            [
              12.1205761,
              49.6896271
            ],
            [
              12.1206748,
              49.6903649
            ],
            [
              12.116517,
              49.690901
            ],
            [
              12.1158538,
              49.6909871
            ],
            [
              12.1150624,
              49.6896941
            ],
            [
              12.1140952,
              49.6899446
            ],
            [
              12.1129868,
              49.6901212
            ],
            [
              12.1127618,
              49.6901017
            ],
            [
              12.1128722,
              49.6893072
            ],
            [
              12.112826,
              49.6889175
            ],
            [
              12.1122377,
              49.6881637
            ],
            [
              12.1111277,
              49.6883893
            ],
            [
              12.1109308,
              49.6880938
            ],
            [
              12.1103337,
              49.6882493
            ],
            [
              12.1098604,
              49.6872536
            ],
            [
              12.109215,
              49.6873006
            ],
            [
              12.109085,
              49.6869355
            ]
          ],
          [
            [
              12.1207266,
              49.6875837
            ],
            [
              12.1207408,
              49.6877909
            ],
            [
              12.1207657,
              49.6880649
            ],
            [
              12.1208156,
              49.688279
            ],
            [
              12.1209081,
              49.6884931
            ],
            [
              12.1211145,
              49.6884678
            ],
            [
              12.1213423,
              49.6884218
            ],
            [
              12.1212533,
              49.6882767
            ],
            [
              12.1212889,
              49.6881225
            ],
            [
              12.1214775,
              49.6879222
            ],
            [
              12.1212889,
              49.6878899
            ],
            [
              12.1212818,
              49.6876919
            ],
            [
              12.1211973,
              49.6874306
            ],
            [
              12.1207302,
              49.6875261
            ],
            [
              12.1207266,
              49.6875837
            ]
          ]
        ]
      }
    },
    {
      "type": "Feature",
      "properties": {
        "name": "Mooslohe",
        "city": "Weiden in der Oberpfalz",
        "osm_id": 148009098,
        "osm_type": "way",
        "display": "Mooslohe, Rehbühl, Weiden in der Oberpfalz, Bayern, Deutschland"
      },
      "geometry": {
        "type": "Polygon",
        "coordinates": [
          [
            [
              12.1336744,
              49.6940336
            ],
            [
              12.1341751,
              49.6939514
            ],
            [
              12.1343155,
              49.6939393
            ],
            [
              12.1348564,
              49.6939084
            ],
            [
              12.1351976,
              49.6938957
            ],
            [
              12.1357959,
              49.6938706
            ],
            [
              12.1361451,
              49.6938416
            ],
            [
              12.1364388,
              49.6938102
            ],
            [
              12.1366951,
              49.6937764
            ],
            [
              12.1369175,
              49.6937221
            ],
            [
              12.1371029,
              49.6936948
            ],
            [
              12.1373138,
              49.6936731
            ],
            [
              12.1376808,
              49.6936656
            ],
            [
              12.1382139,
              49.6936825
            ],
            [
              12.1384341,
              49.6936994
            ],
            [
              12.1386977,
              49.6937337
            ],
            [
              12.1389081,
              49.6937761
            ],
            [
              12.1393006,
              49.6938574
            ],
            [
              12.1395874,
              49.6938747
            ],
            [
              12.1398505,
              49.6939086
            ],
            [
              12.1400216,
              49.6939082
            ],
            [
              12.1401627,
              49.6939004
            ],
            [
              12.1404833,
              49.6938484
            ],
            [
              12.1414796,
              49.6935072
            ],
            [
              12.1418918,
              49.6933561
            ],
            [
              12.1420825,
              49.6932402
            ],
            [
              12.1422249,
              49.6931559
            ],
            [
              12.1424747,
              49.6929883
            ],
            [
              12.1427253,
              49.6927628
            ],
            [
              12.1430857,
              49.6924512
            ],
            [
              12.143275,
              49.6922824
            ],
            [
              12.1434229,
              49.6921771
            ],
            [
              12.1436325,
              49.6920868
            ],
            [
              12.1440838,
              49.6919688
            ],
            [
              12.1450362,
              49.6917547
            ],
            [
              12.1452864,
              49.6922432
            ],
            [
              12.1437584,
              49.6926503
            ],
            [
              12.1434324,
              49.69291
            ],
            [
              12.1428761,
              49.6930405
            ],
            [
              12.1430978,
              49.6934164
            ],
            [
              12.1417335,
              49.6938216
            ],
            [
              12.1420891,
              49.694327
            ],
            [
              12.1408557,
              49.6946281
            ],
            [
              12.1384681,
              49.6952814
            ],
            [
              12.138604,
              49.6956469
            ],
            [
              12.1379671,
              49.6958377
            ],
            [
              12.1378929,
              49.6958027
            ],
            [
              12.1377848,
              49.6955927
            ],
            [
              12.1380946,
              49.6955164
            ],
            [
              12.1379326,
              49.6952097
            ],
            [
              12.1368306,
              49.69548
            ],
            [
              12.1368969,
              49.6956164
            ],
            [
              12.1361207,
              49.6958081
            ],
            [
              12.1362422,
              49.6960399
            ],
            [
              12.1358322,
              49.6961375
            ],
            [
              12.1357571,
              49.6961612
            ],
            [
              12.1356152,
              49.6959001
            ],
            [
              12.1354721,
              49.6956658
            ],
            [
              12.1353373,
              49.6954485
            ],
            [
              12.1350261,
              49.695514
            ],
            [
              12.1347846,
              49.6950817
            ],
            [
              12.1351088,
              49.694991
            ],
            [
              12.1348265,
              49.694579
            ],
            [
              12.1338677,
              49.694776
            ],
            [
              12.1336744,
              49.6940336
            ]
          ]
        ]
      }
    },
    {
      "type": "Feature",
      "properties": {
        "name": "Neunkirchen",
        "city": "Weiden in der Oberpfalz",
        "osm_id": 151670387,
        "osm_type": "way",
        "display": "Katholischer Friedhof Neunkirchen, Halmersricht, Neunkirchen bei Weiden, Weiden in der Oberpfalz, Bayern, Deutschland"
      },
      "geometry": {
        "type": "Polygon",
        "coordinates": [
          [
            [
              12.0983207,
              49.6689499
            ],
            [
              12.0983304,
              49.6687457
            ],
            [
              12.0983963,
              49.6685579
            ],
            [
              12.0986538,
              49.6685981
            ],
            [
              12.0985868,
              49.668937
            ],
            [
              12.0985977,
              49.6690664
            ],
            [
              12.0988092,
              49.6692575
            ],
            [
              12.0983955,
              49.6692449
            ],
            [
              12.0983207,
              49.6689499
            ]
          ]
        ]
      }
    }
  ]
}