{
"type": "FeatureCollection",
"name": "ko_wei_ort",
"features": [
{ "type": "Feature", "properties": { "ortsteil": "Ettersbergsiedlung", "art": "Ortsteil", "ort": "Weimar", "VG": null, "ERF_GMD": null, "LK": "Weimar", "webseite": "https://www.weimar.de/", "CEWLink": "https://geomis.geoportal-th.de/geonetwork/srv/ger/catalog.search#/metadata/5500008b-db13-4b76-90cf-151820ebfed2", "ags": "16055000", "satzung": "https://stadt.weimar.de/de/ortsrecht.html", "GMK": null }, "geometry": { "type": "Polygon", "coordinates": [ [ [ 11.2870358, 51.011053 ], [ 11.2871162, 51.0109725 ], [ 11.2876124, 51.0109541 ], [ 11.2877312, 51.0109315 ], [ 11.2876192, 51.0110934 ], [ 11.2874077, 51.0112212 ], [ 11.2873996, 51.0112246 ], [ 11.2849523, 51.0122481 ], [ 11.2841401, 51.0125879 ], [ 11.2846593, 51.0125996 ], [ 11.2851522, 51.0126113 ], [ 11.2858752, 51.0126984 ], [ 11.2862423, 51.0127637 ], [ 11.2867455, 51.0128534 ], [ 11.2876295, 51.0129775 ], [ 11.2885134, 51.0131015 ], [ 11.2897897, 51.0132796 ], [ 11.290721, 51.0134096 ], [ 11.2910658, 51.0134577 ], [ 11.2920488, 51.013588 ], [ 11.2930319, 51.0137184 ], [ 11.295037, 51.0142311 ], [ 11.2965088, 51.0146159 ], [ 11.296732, 51.0146646 ], [ 11.2996119, 51.0152158 ], [ 11.3024919, 51.0157669 ], [ 11.304048, 51.0160678 ], [ 11.304165, 51.0160875 ], [ 11.3036909, 51.0170421 ], [ 11.3035729, 51.0172698 ], [ 11.3029536, 51.018523 ], [ 11.3030418, 51.0186756 ], [ 11.3024604, 51.0202403 ], [ 11.3035775, 51.0207192 ], [ 11.3043074, 51.0224324 ], [ 11.3045293, 51.0228286 ], [ 11.3046313, 51.0229012 ], [ 11.304361, 51.0236939 ], [ 11.3040183, 51.0245671 ], [ 11.3036755, 51.0254403 ], [ 11.3034213, 51.0261381 ], [ 11.3030403, 51.0259508 ], [ 11.3020081, 51.0255721 ], [ 11.3009759, 51.0251933 ], [ 11.3009878, 51.0247317 ], [ 11.3011954, 51.0239161 ], [ 11.3014032, 51.0231005 ], [ 11.3015942, 51.0225907 ], [ 11.3017853, 51.022081 ], [ 11.3013788, 51.0220245 ], [ 11.3013516, 51.0221669 ], [ 11.3008606, 51.023421 ], [ 11.3007118, 51.0238007 ], [ 11.300538, 51.0241732 ], [ 11.3004477, 51.0248998 ], [ 11.2997335, 51.0244694 ], [ 11.2990244, 51.024154 ], [ 11.297412, 51.0235591 ], [ 11.2965512, 51.0232933 ], [ 11.2957154, 51.0241391 ], [ 11.2955002, 51.0245345 ], [ 11.2954916, 51.0247505 ], [ 11.2956807, 51.0250498 ], [ 11.2966164, 51.0256151 ], [ 11.2967109, 51.0259265 ], [ 11.299708, 51.0270939 ], [ 11.2985168, 51.0280002 ], [ 11.2973257, 51.0289065 ], [ 11.2966039, 51.0294557 ], [ 11.2949808, 51.0312446 ], [ 11.2924201, 51.0316145 ], [ 11.2907312, 51.0318896 ], [ 11.2890423, 51.0321647 ], [ 11.2880358, 51.0323911 ], [ 11.2870291, 51.0326173 ], [ 11.2861508, 51.0321126 ], [ 11.2852728, 51.031608 ], [ 11.2832858, 51.0304437 ], [ 11.2812992, 51.0292794 ], [ 11.2788614, 51.0278581 ], [ 11.276424, 51.0264368 ], [ 11.275304, 51.0257314 ], [ 11.2746822, 51.0261457 ], [ 11.2732103, 51.0261513 ], [ 11.2715593, 51.0257377 ], [ 11.2701506, 51.0268311 ], [ 11.2687419, 51.0279244 ], [ 11.2680914, 51.0283915 ], [ 11.2667022, 51.0295279 ], [ 11.265313, 51.0306643 ], [ 11.2645081, 51.0313281 ], [ 11.2642276, 51.0316124 ], [ 11.2639469, 51.0318966 ], [ 11.2637467, 51.0321349 ], [ 11.2630831, 51.0322006 ], [ 11.2623117, 51.0324112 ], [ 11.2615414, 51.0327309 ], [ 11.2612636, 51.0328298 ], [ 11.260986, 51.0329285 ], [ 11.2607326, 51.0329851 ], [ 11.2604792, 51.0330416 ], [ 11.2591531, 51.033195 ], [ 11.2584504, 51.0334118 ], [ 11.2581614, 51.0334324 ], [ 11.2579899, 51.033408 ], [ 11.2576898, 51.0332756 ], [ 11.2574966, 51.0330554 ], [ 11.2570027, 51.0319695 ], [ 11.2559529, 51.0320809 ], [ 11.2543912, 51.032216 ], [ 11.2528293, 51.0323512 ], [ 11.2526844, 51.032383 ], [ 11.2525396, 51.0324146 ], [ 11.2522636, 51.0325298 ], [ 11.2521682, 51.0325978 ], [ 11.2528975, 51.032959 ], [ 11.2531317, 51.0330482 ], [ 11.2534191, 51.0330966 ], [ 11.2540039, 51.0331003 ], [ 11.2546642, 51.033081 ], [ 11.2541473, 51.0339304 ], [ 11.2536305, 51.0347797 ], [ 11.2520485, 51.0343614 ], [ 11.2505618, 51.0367989 ], [ 11.2490208, 51.0364054 ], [ 11.24899, 51.0357458 ], [ 11.2489592, 51.0350863 ], [ 11.2489852, 51.0346191 ], [ 11.2490112, 51.0341519 ], [ 11.2485849, 51.0335276 ], [ 11.2484661, 51.0332868 ], [ 11.2483855, 51.0328682 ], [ 11.2481557, 51.0325053 ], [ 11.2480549, 51.0323054 ], [ 11.2479542, 51.0321054 ], [ 11.2475627, 51.0320951 ], [ 11.2470994, 51.0316078 ], [ 11.2466928, 51.0309027 ], [ 11.2462301, 51.0303779 ], [ 11.2460049, 51.0299447 ], [ 11.245906, 51.0294928 ], [ 11.2459072, 51.0290179 ], [ 11.2460631, 51.0284179 ], [ 11.2462192, 51.0278179 ], [ 11.2450058, 51.0285812 ], [ 11.2437923, 51.0293445 ], [ 11.2424693, 51.0269455 ], [ 11.2411464, 51.0245464 ], [ 11.2398878, 51.0248246 ], [ 11.240028, 51.0243664 ], [ 11.240055, 51.023949 ], [ 11.2400823, 51.0235316 ], [ 11.2400262, 51.0231073 ], [ 11.2399701, 51.0226831 ], [ 11.2389115, 51.0222837 ], [ 11.237853, 51.0218845 ], [ 11.2373706, 51.0217636 ], [ 11.2366883, 51.0216963 ], [ 11.2357547, 51.020468 ], [ 11.2348213, 51.0192396 ], [ 11.237021, 51.0182884 ], [ 11.2392208, 51.0173371 ], [ 11.2405755, 51.0168631 ], [ 11.2420041, 51.0168078 ], [ 11.2434326, 51.0167525 ], [ 11.2437806, 51.0157954 ], [ 11.2454521, 51.0152194 ], [ 11.2471237, 51.0146434 ], [ 11.2472973, 51.0140816 ], [ 11.2457858, 51.0127765 ], [ 11.2459907, 51.0120045 ], [ 11.2467215, 51.0109226 ], [ 11.2474523, 51.0098407 ], [ 11.2473527, 51.0095882 ], [ 11.2472531, 51.0093355 ], [ 11.2466772, 51.008472 ], [ 11.2461013, 51.0076085 ], [ 11.2472895, 51.0074083 ], [ 11.2482154, 51.007113 ], [ 11.2490918, 51.0068761 ], [ 11.2498643, 51.0067246 ], [ 11.2506367, 51.0065732 ], [ 11.2516572, 51.0064155 ], [ 11.2529611, 51.0061485 ], [ 11.254265, 51.0058816 ], [ 11.2557782, 51.0057173 ], [ 11.2568734, 51.0054443 ], [ 11.2579688, 51.0051714 ], [ 11.2600492, 51.0048237 ], [ 11.261449, 51.004709 ], [ 11.2622206, 51.0057277 ], [ 11.2623635, 51.0066098 ], [ 11.2625063, 51.0074918 ], [ 11.2605893, 51.0076525 ], [ 11.2586723, 51.0078132 ], [ 11.2581401, 51.0079883 ], [ 11.257142, 51.0080919 ], [ 11.254258, 51.008146 ], [ 11.2513741, 51.0082001 ], [ 11.2517988, 51.0087453 ], [ 11.2522234, 51.0092904 ], [ 11.2524415, 51.0096802 ], [ 11.2526595, 51.0100698 ], [ 11.2530789, 51.0106934 ], [ 11.2534985, 51.0113172 ], [ 11.2561441, 51.0111264 ], [ 11.2578285, 51.0110818 ], [ 11.2595129, 51.0110372 ], [ 11.2617224, 51.011058 ], [ 11.26315, 51.0110904 ], [ 11.2645776, 51.0111228 ], [ 11.2653771, 51.0111405 ], [ 11.2661766, 51.0111581 ], [ 11.2688128, 51.0112128 ], [ 11.271449, 51.0112673 ], [ 11.2730532, 51.0112985 ], [ 11.2742901, 51.0111782 ], [ 11.2761457, 51.0110202 ], [ 11.2780015, 51.0108621 ], [ 11.2791802, 51.0110044 ], [ 11.280359, 51.0111465 ], [ 11.2823294, 51.0111344 ], [ 11.2824521, 51.0111336 ], [ 11.2837574, 51.0111256 ], [ 11.2856678, 51.0110877 ], [ 11.2870358, 51.011053 ] ] ] } },
{ "type": "Feature", "properties": { "ortsteil": "Tiefurt/Dürrenbacher Hütte", "art": "Ortsteil", "ort": "Weimar", "VG": null, "ERF_GMD": null, "LK": "Weimar", "webseite": "https://stadt.weimar.de/de/tiefurt-duerrenbacher-huette.html", "CEWLink": "https://geomis.geoportal-th.de/geonetwork/srv/ger/catalog.search#/metadata/5500008b-db13-4b76-90cf-151820ebfed2", "ags": "16055000", "satzung": "https://stadt.weimar.de/de/ortsrecht.html", "GMK": null }, "geometry": { "type": "Polygon", "coordinates": [ [ [ 11.3465681, 50.9979119 ], [ 11.3458189, 50.9973299 ], [ 11.3462052, 50.9971319 ], [ 11.345396, 50.9966073 ], [ 11.3421379, 50.9958045 ], [ 11.3427702, 50.9947749 ], [ 11.3428772, 50.9944936 ], [ 11.3428951, 50.9941357 ], [ 11.3427987, 50.9938499 ], [ 11.3428226, 50.9938233 ], [ 11.3425707, 50.9934026 ], [ 11.3420243, 50.9929121 ], [ 11.3423562, 50.9924421 ], [ 11.3455119, 50.9948291 ], [ 11.3470882, 50.9961874 ], [ 11.3471148, 50.9961739 ], [ 11.347295, 50.9960934 ], [ 11.3473787, 50.9956805 ], [ 11.3477547, 50.9951299 ], [ 11.3481072, 50.9946878 ], [ 11.348288, 50.9945191 ], [ 11.3489155, 50.993975 ], [ 11.3492162, 50.9937973 ], [ 11.3495168, 50.9936197 ], [ 11.3498507, 50.9934707 ], [ 11.3501847, 50.9933216 ], [ 11.350852, 50.9930663 ], [ 11.3515192, 50.992811 ], [ 11.3520663, 50.9926147 ], [ 11.3526135, 50.9924185 ], [ 11.3529884, 50.9922885 ], [ 11.3531926, 50.9921359 ], [ 11.3533147, 50.9916526 ], [ 11.3534851, 50.991164 ], [ 11.3536434, 50.9908404 ], [ 11.3539564, 50.9907661 ], [ 11.3543422, 50.9906318 ], [ 11.3558935, 50.990099 ], [ 11.3578306, 50.9894318 ], [ 11.3573035, 50.9891661 ], [ 11.3567765, 50.9889003 ], [ 11.3566628, 50.9887849 ], [ 11.3563775, 50.988149 ], [ 11.3563857, 50.9875521 ], [ 11.3563001, 50.9873004 ], [ 11.3565734, 50.9870607 ], [ 11.3568467, 50.9868209 ], [ 11.3569811, 50.9866553 ], [ 11.35705, 50.9864471 ], [ 11.3570704, 50.9861765 ], [ 11.3571771, 50.9860271 ], [ 11.3573351, 50.9859432 ], [ 11.3576346, 50.9858046 ], [ 11.3579783, 50.9856704 ], [ 11.3582089, 50.985498 ], [ 11.358527, 50.9851997 ], [ 11.3586819, 50.9851484 ], [ 11.3589191, 50.9851236 ], [ 11.3590402, 50.9851308 ], [ 11.359243, 50.9851971 ], [ 11.3597209, 50.9852894 ], [ 11.3600511, 50.9853173 ], [ 11.3602052, 50.9853263 ], [ 11.3605748, 50.9852827 ], [ 11.3608568, 50.9852093 ], [ 11.3611927, 50.9852078 ], [ 11.3614566, 50.9852516 ], [ 11.3618497, 50.9853125 ], [ 11.3623697, 50.985343 ], [ 11.3628464, 50.9853261 ], [ 11.3631887, 50.9852692 ], [ 11.3635919, 50.9851113 ], [ 11.3638958, 50.984941 ], [ 11.3644707, 50.9850998 ], [ 11.3650454, 50.9852586 ], [ 11.3660241, 50.985452 ], [ 11.3670026, 50.9856455 ], [ 11.3676237, 50.9858101 ], [ 11.3672762, 50.9863115 ], [ 11.3668629, 50.9872711 ], [ 11.3650371, 50.9904763 ], [ 11.364704, 50.990716 ], [ 11.3660569, 50.9911229 ], [ 11.3665487, 50.9913299 ], [ 11.3666644, 50.9914792 ], [ 11.3673589, 50.9918035 ], [ 11.3680747, 50.9922766 ], [ 11.3685708, 50.9927578 ], [ 11.3688454, 50.9927686 ], [ 11.3689054, 50.9935679 ], [ 11.3690188, 50.9938844 ], [ 11.3685966, 50.9937953 ], [ 11.3686491, 50.9942172 ], [ 11.3685756, 50.9945501 ], [ 11.3682046, 50.9949693 ], [ 11.3671341, 50.9957442 ], [ 11.3659502, 50.996157 ], [ 11.3649159, 50.9964781 ], [ 11.3639574, 50.9966874 ], [ 11.3636009, 50.9962466 ], [ 11.361938, 50.9967446 ], [ 11.3613036, 50.9967363 ], [ 11.360637, 50.9972788 ], [ 11.3597105, 50.9972855 ], [ 11.358891, 50.9969708 ], [ 11.3588266, 50.9969091 ], [ 11.358841, 50.9968428 ], [ 11.3589193, 50.9966608 ], [ 11.3589203, 50.996586 ], [ 11.3588773, 50.996496 ], [ 11.3588084, 50.9964507 ], [ 11.3586763, 50.9964164 ], [ 11.3585371, 50.9964306 ], [ 11.3584162, 50.9964897 ], [ 11.3583899, 50.9965643 ], [ 11.3582746, 50.9966871 ], [ 11.3580837, 50.9967795 ], [ 11.3578052, 50.9968266 ], [ 11.3573419, 50.9969699 ], [ 11.3570243, 50.9970953 ], [ 11.3566421, 50.9973287 ], [ 11.3564498, 50.9975259 ], [ 11.3562167, 50.9979396 ], [ 11.3561224, 50.9983578 ], [ 11.3561853, 50.9988905 ], [ 11.3562121, 50.9991809 ], [ 11.356288, 50.9991813 ], [ 11.356477, 50.999216 ], [ 11.3567706, 50.9994643 ], [ 11.3572766, 50.9998784 ], [ 11.3572881, 50.999957 ], [ 11.3572303, 51.0000203 ], [ 11.3571479, 51.0000422 ], [ 11.3570661, 51.0000193 ], [ 11.356921, 51.0000036 ], [ 11.3566861, 51.000092 ], [ 11.3565139, 51.000207 ], [ 11.3563987, 51.0003412 ], [ 11.3560024, 51.0001892 ], [ 11.3554293, 51.0000552 ], [ 11.3550004, 51.0000043 ], [ 11.3546027, 50.9999833 ], [ 11.3543878, 50.9999822 ], [ 11.3541296, 50.9999247 ], [ 11.3539219, 50.99986 ], [ 11.3538019, 50.999863 ], [ 11.3537135, 50.9998992 ], [ 11.3528764, 51.0008311 ], [ 11.3530099, 51.0009392 ], [ 11.3530211, 51.0010365 ], [ 11.3526313, 51.0015848 ], [ 11.3524877, 51.0017752 ], [ 11.3522408, 51.0015269 ], [ 11.3519893, 51.0018575 ], [ 11.3517377, 51.002188 ], [ 11.3512346, 51.0028491 ], [ 11.3508636, 51.0033366 ], [ 11.3502824, 51.0041225 ], [ 11.3497013, 51.0049083 ], [ 11.34912, 51.0056942 ], [ 11.3485388, 51.00648 ], [ 11.3482752, 51.0068932 ], [ 11.3480119, 51.0073063 ], [ 11.3474849, 51.0081326 ], [ 11.3446658, 51.0058915 ], [ 11.3338902, 51.0067596 ], [ 11.3336166, 51.0067772 ], [ 11.3332962, 51.0067784 ], [ 11.3333079, 51.0067251 ], [ 11.3333863, 51.0063547 ], [ 11.3334661, 51.005977 ], [ 11.333546, 51.0055994 ], [ 11.3335586, 51.0055387 ], [ 11.3335712, 51.005478 ], [ 11.3335841, 51.0054102 ], [ 11.3335968, 51.0053423 ], [ 11.3336299, 51.0050317 ], [ 11.33368, 51.0045615 ], [ 11.3337303, 51.0040913 ], [ 11.3337329, 51.0040678 ], [ 11.3337385, 51.0040189 ], [ 11.3337512, 51.0039067 ], [ 11.333764, 51.0037945 ], [ 11.3337651, 51.0037838 ], [ 11.3338644, 51.0037742 ], [ 11.3339388, 51.0037619 ], [ 11.3339814, 51.0037614 ], [ 11.334033, 51.0037506 ], [ 11.3340959, 51.0037422 ], [ 11.3341211, 51.003744 ], [ 11.3341689, 51.0037372 ], [ 11.3342443, 51.0037305 ], [ 11.3343198, 51.0037237 ], [ 11.3344582, 51.0037362 ], [ 11.3345967, 51.0037486 ], [ 11.3346439, 51.0037563 ], [ 11.3346911, 51.0037641 ], [ 11.3347881, 51.0037733 ], [ 11.3349091, 51.0037813 ], [ 11.3350301, 51.0037892 ], [ 11.335191, 51.0038005 ], [ 11.3352636, 51.0037891 ], [ 11.3353361, 51.0037777 ], [ 11.3353563, 51.0037767 ], [ 11.3353764, 51.0037757 ], [ 11.3353978, 51.0037771 ], [ 11.3354315, 51.0037659 ], [ 11.3354982, 51.0037547 ], [ 11.3355651, 51.0037434 ], [ 11.3356135, 51.0037409 ], [ 11.3356409, 51.0037374 ], [ 11.3356681, 51.0037339 ], [ 11.3356955, 51.0037241 ], [ 11.3357155, 51.0037269 ], [ 11.3357192, 51.0037192 ], [ 11.3357472, 51.0037195 ], [ 11.3357753, 51.0037197 ], [ 11.335839, 51.0037086 ], [ 11.3359251, 51.003698 ], [ 11.33598, 51.0036855 ], [ 11.3360558, 51.0036802 ], [ 11.3360785, 51.0036786 ], [ 11.3361119, 51.0036709 ], [ 11.3361681, 51.0036631 ], [ 11.3362755, 51.0036373 ], [ 11.3363828, 51.0036115 ], [ 11.3364257, 51.0036092 ], [ 11.3364688, 51.0036068 ], [ 11.3365307, 51.0035992 ], [ 11.3365823, 51.003585 ], [ 11.3366438, 51.0035887 ], [ 11.3366893, 51.0035746 ], [ 11.3368043, 51.0035202 ], [ 11.336896, 51.0034925 ], [ 11.336957, 51.0034678 ], [ 11.3369956, 51.0034252 ], [ 11.3370844, 51.0033655 ], [ 11.3371353, 51.0033143 ], [ 11.3371973, 51.003283 ], [ 11.3372431, 51.0032429 ], [ 11.3373027, 51.0032036 ], [ 11.3373916, 51.0031325 ], [ 11.3374804, 51.0030612 ], [ 11.337593, 51.0030072 ], [ 11.3376451, 51.0029576 ], [ 11.3376973, 51.002908 ], [ 11.3377293, 51.002883 ], [ 11.337808, 51.0028351 ], [ 11.3378545, 51.0028069 ], [ 11.3379008, 51.0027786 ], [ 11.3379203, 51.002763 ], [ 11.3379397, 51.0027475 ], [ 11.3379722, 51.0027395 ], [ 11.3380324, 51.0027165 ], [ 11.3380862, 51.0026804 ], [ 11.3381272, 51.0026594 ], [ 11.338168, 51.0026382 ], [ 11.338207, 51.0026007 ], [ 11.3382459, 51.002563 ], [ 11.3382675, 51.0025558 ], [ 11.3382889, 51.0025487 ], [ 11.3383045, 51.0025356 ], [ 11.33832, 51.0025224 ], [ 11.3383673, 51.0025047 ], [ 11.3384144, 51.0024871 ], [ 11.3384237, 51.0024695 ], [ 11.338433, 51.002452 ], [ 11.338479, 51.0024329 ], [ 11.3384992, 51.0024236 ], [ 11.3385194, 51.0024143 ], [ 11.3385801, 51.002372 ], [ 11.3386407, 51.0023298 ], [ 11.3387471, 51.0022712 ], [ 11.3388535, 51.0022125 ], [ 11.3389043, 51.0021796 ], [ 11.3389283, 51.002164 ], [ 11.3389619, 51.002149 ], [ 11.3389857, 51.0021288 ], [ 11.3390094, 51.0021086 ], [ 11.3390326, 51.0021034 ], [ 11.3390555, 51.0020983 ], [ 11.3391268, 51.0020611 ], [ 11.3392014, 51.0020221 ], [ 11.3392332, 51.0019971 ], [ 11.3392617, 51.001974 ], [ 11.3393023, 51.001951 ], [ 11.3393429, 51.0019279 ], [ 11.3393911, 51.0019005 ], [ 11.3394393, 51.0018732 ], [ 11.3394611, 51.0018634 ], [ 11.3394878, 51.0018423 ], [ 11.3395092, 51.0018254 ], [ 11.3395306, 51.0018084 ], [ 11.3396425, 51.0017498 ], [ 11.3397546, 51.0016911 ], [ 11.3399407, 51.0015938 ], [ 11.3401268, 51.0014963 ], [ 11.3401638, 51.0014779 ], [ 11.3402009, 51.0014595 ], [ 11.340219, 51.0014445 ], [ 11.3402546, 51.0014376 ], [ 11.3402903, 51.0014306 ], [ 11.3403367, 51.0014173 ], [ 11.3403784, 51.0014077 ], [ 11.3404201, 51.0013981 ], [ 11.3404475, 51.0013859 ], [ 11.3404906, 51.0013692 ], [ 11.3405062, 51.0013645 ], [ 11.3405218, 51.0013514 ], [ 11.3405449, 51.0013494 ], [ 11.3405673, 51.001341 ], [ 11.3405906, 51.0013175 ], [ 11.340614, 51.001294 ], [ 11.3406417, 51.0012736 ], [ 11.3406727, 51.0012578 ], [ 11.3407036, 51.0012419 ], [ 11.3407314, 51.0012238 ], [ 11.3407592, 51.0012057 ], [ 11.3408472, 51.0011789 ], [ 11.3408805, 51.0011667 ], [ 11.340914, 51.0011544 ], [ 11.340979, 51.0011208 ], [ 11.3410166, 51.0010975 ], [ 11.3410542, 51.0010743 ], [ 11.341105, 51.0010483 ], [ 11.3411399, 51.0010292 ], [ 11.3411538, 51.0010201 ], [ 11.3412194, 51.0009776 ], [ 11.3412888, 51.0009441 ], [ 11.3413301, 51.0009206 ], [ 11.3413714, 51.0008972 ], [ 11.3413904, 51.0008761 ], [ 11.3414893, 51.0008184 ], [ 11.3415883, 51.0007607 ], [ 11.3416333, 51.0007488 ], [ 11.3416785, 51.0007368 ], [ 11.3416971, 51.0007113 ], [ 11.341716, 51.000686 ], [ 11.3417297, 51.0006672 ], [ 11.341767, 51.000658 ], [ 11.3417952, 51.0006539 ], [ 11.3418064, 51.0006539 ], [ 11.3418439, 51.0006542 ], [ 11.341896, 51.0006156 ], [ 11.3419074, 51.0006042 ], [ 11.3419187, 51.0005929 ], [ 11.3419646, 51.0005769 ], [ 11.3420104, 51.0005609 ], [ 11.3420582, 51.0005314 ], [ 11.3420982, 51.0005143 ], [ 11.3421379, 51.0004973 ], [ 11.3421856, 51.0004653 ], [ 11.3422332, 51.0004332 ], [ 11.3422666, 51.0004205 ], [ 11.3423002, 51.0004077 ], [ 11.3423158, 51.0003952 ], [ 11.3423313, 51.0003826 ], [ 11.3423803, 51.0003579 ], [ 11.3424263, 51.0003459 ], [ 11.3424908, 51.0003128 ], [ 11.3425553, 51.0002798 ], [ 11.342595, 51.0002626 ], [ 11.3426083, 51.0002536 ], [ 11.3426214, 51.0002445 ], [ 11.3426961, 51.0002093 ], [ 11.3427709, 51.0001741 ], [ 11.3428067, 51.0001431 ], [ 11.3428464, 51.00013 ], [ 11.3428768, 51.0001254 ], [ 11.3429073, 51.0001206 ], [ 11.3429232, 51.0001029 ], [ 11.3430172, 51.0000607 ], [ 11.3430589, 51.0000465 ], [ 11.3431069, 51.000026 ], [ 11.3431549, 51.0000055 ], [ 11.3431831, 50.9999902 ], [ 11.3432111, 50.9999751 ], [ 11.3432753, 50.9999493 ], [ 11.3433394, 50.9999233 ], [ 11.343394, 50.9999074 ], [ 11.3434574, 50.9998861 ], [ 11.3434834, 50.9998673 ], [ 11.3435399, 50.9998486 ], [ 11.3435964, 50.99983 ], [ 11.343686, 50.9997908 ], [ 11.3437756, 50.9997516 ], [ 11.3437958, 50.9997433 ], [ 11.3438383, 50.9997142 ], [ 11.3438734, 50.9996955 ], [ 11.3439085, 50.9996768 ], [ 11.3439544, 50.9996427 ], [ 11.3440008, 50.9996141 ], [ 11.3440474, 50.9995854 ], [ 11.3440941, 50.999545 ], [ 11.3441408, 50.9995045 ], [ 11.3441671, 50.9994862 ], [ 11.3441934, 50.9994678 ], [ 11.3442322, 50.9994561 ], [ 11.34428, 50.9994297 ], [ 11.3443277, 50.9994033 ], [ 11.3443711, 50.9993537 ], [ 11.3444145, 50.9993042 ], [ 11.3444495, 50.9992862 ], [ 11.3444979, 50.9992456 ], [ 11.3445551, 50.9992115 ], [ 11.3446103, 50.9991869 ], [ 11.3446214, 50.9991689 ], [ 11.3446625, 50.9991557 ], [ 11.3447191, 50.9990965 ], [ 11.3447405, 50.9990831 ], [ 11.344762, 50.9990699 ], [ 11.3448374, 50.9990406 ], [ 11.3449572, 50.9989628 ], [ 11.3450768, 50.9988848 ], [ 11.3451183, 50.9988476 ], [ 11.3451787, 50.9988165 ], [ 11.3452206, 50.9987886 ], [ 11.3452626, 50.9987607 ], [ 11.3453023, 50.9987123 ], [ 11.3453398, 50.9986735 ], [ 11.3454414, 50.9986407 ], [ 11.3454954, 50.9985783 ], [ 11.3455578, 50.998539 ], [ 11.3456281, 50.9985218 ], [ 11.3456694, 50.9984897 ], [ 11.3457106, 50.9984575 ], [ 11.3457576, 50.9984286 ], [ 11.3458079, 50.9984079 ], [ 11.345907, 50.9983377 ], [ 11.3459848, 50.9982776 ], [ 11.3460762, 50.9982226 ], [ 11.3461258, 50.9981853 ], [ 11.3461639, 50.9981689 ], [ 11.3462167, 50.998139 ], [ 11.3462901, 50.9980852 ], [ 11.3463781, 50.9980372 ], [ 11.3464198, 50.9980046 ], [ 11.3465062, 50.9979506 ], [ 11.3465681, 50.9979119 ] ] ] } },
{ "type": "Feature", "properties": { "ortsteil": "Weimar-Nord", "art": "Ortsteil", "ort": "Weimar", "VG": null, "ERF_GMD": null, "LK": "Weimar", "webseite": "https://stadt.weimar.de/de/weimarnord.html", "CEWLink": "https://geomis.geoportal-th.de/geonetwork/srv/ger/catalog.search#/metadata/5500008b-db13-4b76-90cf-151820ebfed2", "ags": "16055000", "satzung": "https://stadt.weimar.de/de/ortsrecht.html", "GMK": null }, "geometry": { "type": "Polygon", "coordinates": [ [ [ 11.321232, 50.9916732 ], [ 11.3219781, 50.9916645 ], [ 11.3220394, 50.9916645 ], [ 11.3215495, 50.9925414 ], [ 11.3214116, 50.9928302 ], [ 11.3213231, 50.9930015 ], [ 11.3210186, 50.9935697 ], [ 11.3211525, 50.9935645 ], [ 11.3216563, 50.9935584 ], [ 11.3215297, 50.9940429 ], [ 11.3214029, 50.9945273 ], [ 11.3213327, 50.9947739 ], [ 11.3212625, 50.9950204 ], [ 11.3212603, 50.995039 ], [ 11.3212614, 50.9950391 ], [ 11.3212043, 50.9956994 ], [ 11.3205965, 50.9972033 ], [ 11.3206206, 50.9974688 ], [ 11.3215316, 50.9974564 ], [ 11.3215419, 50.9986681 ], [ 11.3206868, 50.9986985 ], [ 11.3207127, 50.999785 ], [ 11.3169356, 50.9998848 ], [ 11.316742, 50.9998483 ], [ 11.3167372, 50.9998505 ], [ 11.3162479, 50.9997527 ], [ 11.3157587, 50.9996548 ], [ 11.3157506, 50.9996608 ], [ 11.3157784, 50.9996668 ], [ 11.3139218, 51.0010858 ], [ 11.3126615, 51.0024945 ], [ 11.3028315, 51.0004559 ], [ 11.3027431, 51.0010391 ], [ 11.3025385, 51.0014954 ], [ 11.3005177, 51.0010986 ], [ 11.3006739, 51.0001319 ], [ 11.3009724, 51.0001757 ], [ 11.3012565, 50.9996091 ], [ 11.3003705, 50.9993622 ], [ 11.2996027, 50.9990528 ], [ 11.2986243, 50.9985689 ], [ 11.2978941, 50.9981284 ], [ 11.2970164, 50.9974506 ], [ 11.2962903, 50.996953 ], [ 11.2961727, 50.9968728 ], [ 11.2952867, 50.996309 ], [ 11.2941852, 50.9957613 ], [ 11.293374, 50.9953833 ], [ 11.2918507, 50.9947929 ], [ 11.2912865, 50.994532 ], [ 11.2902997, 50.9940374 ], [ 11.2896509, 50.9934975 ], [ 11.289147, 50.9928556 ], [ 11.2888456, 50.9922391 ], [ 11.2887762, 50.9915556 ], [ 11.2889021, 50.9908681 ], [ 11.2892117, 50.9903603 ], [ 11.2900428, 50.9894091 ], [ 11.291081, 50.9898257 ], [ 11.2921047, 50.9902259 ], [ 11.2925988, 50.9904233 ], [ 11.2933843, 50.9907275 ], [ 11.2942492, 50.991069 ], [ 11.295172, 50.9913354 ], [ 11.2960298, 50.9915454 ], [ 11.2973585, 50.9917531 ], [ 11.2986966, 50.9919135 ], [ 11.3000308, 50.9920264 ], [ 11.3015921, 50.9921093 ], [ 11.302719, 50.9921475 ], [ 11.3046736, 50.9920593 ], [ 11.3081852, 50.9919381 ], [ 11.3097123, 50.9919261 ], [ 11.310627, 50.9919052 ], [ 11.3116749, 50.9918851 ], [ 11.3129444, 50.9918873 ], [ 11.315698, 50.991819 ], [ 11.3174924, 50.9917454 ], [ 11.3186303, 50.9917043 ], [ 11.3186302, 50.9917037 ], [ 11.3212367, 50.9916632 ], [ 11.321232, 50.9916732 ] ] ] } },
{ "type": "Feature", "properties": { "ortsteil": "Tröbsdorf", "art": "Ortsteil", "ort": "Weimar", "VG": null, "ERF_GMD": null, "LK": "Weimar", "webseite": "https://stadt.weimar.de/de/troebsdorf.html", "CEWLink": "https://geomis.geoportal-th.de/geonetwork/srv/ger/catalog.search#/metadata/5500008b-db13-4b76-90cf-151820ebfed2", "ags": "16055000", "satzung": "https://stadt.weimar.de/de/ortsrecht.html", "GMK": null }, "geometry": { "type": "Polygon", "coordinates": [ [ [ 11.2795516, 50.9744062 ], [ 11.28149, 50.9750746 ], [ 11.2820501, 50.9752676 ], [ 11.2839815, 50.9759187 ], [ 11.2863446, 50.9767596 ], [ 11.2881222, 50.9773751 ], [ 11.2896452, 50.9779002 ], [ 11.2902367, 50.9782896 ], [ 11.290863, 50.9787758 ], [ 11.2912437, 50.9792281 ], [ 11.2915096, 50.9797261 ], [ 11.2916292, 50.9802521 ], [ 11.2916983, 50.9809001 ], [ 11.2917782, 50.9815995 ], [ 11.2918305, 50.9821575 ], [ 11.2919326, 50.9826367 ], [ 11.2921246, 50.9832063 ], [ 11.2923351, 50.983724 ], [ 11.292385, 50.9839551 ], [ 11.2924769, 50.9849155 ], [ 11.2924764, 50.9855303 ], [ 11.292333, 50.9862072 ], [ 11.2921023, 50.9868129 ], [ 11.2917358, 50.9875673 ], [ 11.2911306, 50.9883128 ], [ 11.2900428, 50.9894091 ], [ 11.2889056, 50.9889711 ], [ 11.2873325, 50.9883573 ], [ 11.2855213, 50.9876492 ], [ 11.2837737, 50.9869987 ], [ 11.2831781, 50.987126 ], [ 11.281099, 50.9871881 ], [ 11.2791678, 50.9871187 ], [ 11.2772648, 50.9869918 ], [ 11.275399, 50.9868192 ], [ 11.2756053, 50.9876201 ], [ 11.2738644, 50.9880947 ], [ 11.2708914, 50.9888796 ], [ 11.2702874, 50.9881555 ], [ 11.2700907, 50.988213 ], [ 11.2686099, 50.9887646 ], [ 11.2675214, 50.989032 ], [ 11.2664903, 50.9891955 ], [ 11.2653153, 50.9893107 ], [ 11.2652794, 50.9904265 ], [ 11.2619088, 50.9905601 ], [ 11.261738, 50.9898206 ], [ 11.261531, 50.9890597 ], [ 11.2614017, 50.9882401 ], [ 11.2612006, 50.9882547 ], [ 11.2611972, 50.9879377 ], [ 11.2612092, 50.9871823 ], [ 11.2618508, 50.9868391 ], [ 11.2624239, 50.9864243 ], [ 11.2631559, 50.9858659 ], [ 11.264007, 50.9853996 ], [ 11.2642496, 50.9852272 ], [ 11.2646973, 50.9844301 ], [ 11.2651326, 50.9835732 ], [ 11.2655429, 50.9825834 ], [ 11.2657264, 50.9826107 ], [ 11.2661119, 50.9818447 ], [ 11.266476, 50.9809189 ], [ 11.266523, 50.9807997 ], [ 11.2662755, 50.9807538 ], [ 11.2665653, 50.9798467 ], [ 11.2666697, 50.9793377 ], [ 11.2665923, 50.9784655 ], [ 11.2668606, 50.9784508 ], [ 11.2667393, 50.977239 ], [ 11.2664716, 50.9772543 ], [ 11.2662448, 50.9757061 ], [ 11.2665717, 50.9756168 ], [ 11.2664922, 50.9753044 ], [ 11.2661959, 50.9749906 ], [ 11.2656007, 50.9745228 ], [ 11.2657014, 50.9734887 ], [ 11.2656171, 50.9727198 ], [ 11.2657325, 50.9722793 ], [ 11.2665675, 50.9705119 ], [ 11.2666692, 50.9701321 ], [ 11.2665664, 50.9701116 ], [ 11.266505, 50.9700319 ], [ 11.2667476, 50.9691413 ], [ 11.2669882, 50.9691611 ], [ 11.2671967, 50.9678337 ], [ 11.267424, 50.968646 ], [ 11.2674508, 50.9692889 ], [ 11.2676039, 50.9695586 ], [ 11.2679592, 50.969945 ], [ 11.2688773, 50.9704773 ], [ 11.2700012, 50.9708903 ], [ 11.2720113, 50.9715008 ], [ 11.2739524, 50.9720742 ], [ 11.2737334, 50.9723177 ], [ 11.2736873, 50.9723716 ], [ 11.2739011, 50.972448 ], [ 11.2757572, 50.9730929 ], [ 11.2776133, 50.9737379 ], [ 11.2795516, 50.9744062 ] ] ] } },
{ "type": "Feature", "properties": { "ortsteil": "Niedergrunstedt", "art": "Ortsteil", "ort": "Weimar", "VG": null, "ERF_GMD": null, "LK": "Weimar", "webseite": "https://stadt.weimar.de/de/niedergrunstedt.html", "CEWLink": "https://geomis.geoportal-th.de/geonetwork/srv/ger/catalog.search#/metadata/5500008b-db13-4b76-90cf-151820ebfed2", "ags": "16055000", "satzung": "https://stadt.weimar.de/de/ortsrecht.html", "GMK": null }, "geometry": { "type": "Polygon", "coordinates": [ [ [ 11.2785888, 50.9491837 ], [ 11.278615, 50.9483775 ], [ 11.2797462, 50.9480993 ], [ 11.2820893, 50.9476524 ], [ 11.283764, 50.9471494 ], [ 11.2843378, 50.9468912 ], [ 11.2860073, 50.9464366 ], [ 11.2861354, 50.9466553 ], [ 11.2863249, 50.9477433 ], [ 11.2872107, 50.9477976 ], [ 11.2892025, 50.9476693 ], [ 11.2902041, 50.9475654 ], [ 11.2916531, 50.9471957 ], [ 11.2917612, 50.948216 ], [ 11.2919278, 50.9501464 ], [ 11.2927099, 50.9502488 ], [ 11.2927296, 50.9509877 ], [ 11.2922804, 50.9525021 ], [ 11.2964786, 50.9509946 ], [ 11.2971468, 50.9507512 ], [ 11.297256, 50.9508372 ], [ 11.296989, 50.951873 ], [ 11.296495, 50.9535327 ], [ 11.2994847, 50.9535507 ], [ 11.3004553, 50.9562007 ], [ 11.3004776, 50.9563211 ], [ 11.3003016, 50.956352 ], [ 11.3004722, 50.9583902 ], [ 11.3005789, 50.9585237 ], [ 11.3005837, 50.9585651 ], [ 11.3005952, 50.9591341 ], [ 11.3005396, 50.9601633 ], [ 11.3005062, 50.9612654 ], [ 11.3004906, 50.9613978 ], [ 11.2999982, 50.9629267 ], [ 11.2994156, 50.9648133 ], [ 11.2983294, 50.9660411 ], [ 11.297478, 50.9665562 ], [ 11.2975351, 50.9667132 ], [ 11.2978282, 50.9670284 ], [ 11.2975688, 50.9671145 ], [ 11.2975969, 50.9672276 ], [ 11.2970586, 50.9673747 ], [ 11.2966879, 50.9672896 ], [ 11.2965541, 50.9672589 ], [ 11.2950668, 50.9668205 ], [ 11.2935796, 50.9663823 ], [ 11.2934122, 50.9668008 ], [ 11.2900749, 50.9657781 ], [ 11.2895763, 50.9665836 ], [ 11.2852697, 50.9658366 ], [ 11.2844659, 50.9671229 ], [ 11.2811681, 50.9666262 ], [ 11.2791805, 50.9661376 ], [ 11.276442, 50.9655424 ], [ 11.2752555, 50.9671216 ], [ 11.2745093, 50.9682075 ], [ 11.2741773, 50.9687204 ], [ 11.2740027, 50.9690892 ], [ 11.2738283, 50.9694579 ], [ 11.2738205, 50.9702407 ], [ 11.2737548, 50.9708612 ], [ 11.2741312, 50.9718736 ], [ 11.2739524, 50.9720742 ], [ 11.2720113, 50.9715008 ], [ 11.2700012, 50.9708903 ], [ 11.2688773, 50.9704773 ], [ 11.2679592, 50.969945 ], [ 11.2676039, 50.9695586 ], [ 11.2674508, 50.9692889 ], [ 11.267424, 50.968646 ], [ 11.2671967, 50.9678337 ], [ 11.2685618, 50.9681641 ], [ 11.2691999, 50.9669773 ], [ 11.269606, 50.9660708 ], [ 11.2694064, 50.966012 ], [ 11.2710145, 50.9628119 ], [ 11.2724549, 50.9604046 ], [ 11.2732609, 50.9591257 ], [ 11.2747328, 50.9573384 ], [ 11.2760377, 50.9559626 ], [ 11.277171, 50.9536176 ], [ 11.2777513, 50.9522679 ], [ 11.2780038, 50.9515548 ], [ 11.278184, 50.9505358 ], [ 11.2785888, 50.9491837 ] ] ] } },
{ "type": "Feature", "properties": { "ortsteil": "Gelmeroda", "art": "Ortsteil", "ort": "Weimar", "VG": null, "ERF_GMD": null, "LK": "Weimar", "webseite": "https://stadt.weimar.de/de/gelmeroda.html", "CEWLink": "https://geomis.geoportal-th.de/geonetwork/srv/ger/catalog.search#/metadata/5500008b-db13-4b76-90cf-151820ebfed2", "ags": "16055000", "satzung": "https://stadt.weimar.de/de/ortsrecht.html", "GMK": null }, "geometry": { "type": "Polygon", "coordinates": [ [ [ 11.2835577, 50.9405958 ], [ 11.2844678, 50.9406014 ], [ 11.2866019, 50.9406949 ], [ 11.2869814, 50.9417516 ], [ 11.2900908, 50.9413186 ], [ 11.2907166, 50.9428797 ], [ 11.2933609, 50.9425233 ], [ 11.2939609, 50.9437483 ], [ 11.295777, 50.943418 ], [ 11.2958931, 50.9434358 ], [ 11.2968441, 50.9436253 ], [ 11.2984205, 50.9436835 ], [ 11.2979909, 50.941409 ], [ 11.2994919, 50.9416685 ], [ 11.3007355, 50.941914 ], [ 11.3017441, 50.9420362 ], [ 11.3023933, 50.9420745 ], [ 11.3023079, 50.9427007 ], [ 11.3025663, 50.9427293 ], [ 11.302367, 50.9438328 ], [ 11.3066936, 50.9446428 ], [ 11.3067219, 50.9447872 ], [ 11.3105478, 50.9455323 ], [ 11.3103848, 50.9460127 ], [ 11.3102071, 50.9474645 ], [ 11.3100207, 50.9500308 ], [ 11.310374, 50.9500489 ], [ 11.3104197, 50.951082 ], [ 11.3103738, 50.9520567 ], [ 11.3104379, 50.952279 ], [ 11.3099784, 50.954372 ], [ 11.3099035, 50.9549311 ], [ 11.3103693, 50.9553511 ], [ 11.3103389, 50.9569196 ], [ 11.3103242, 50.9573895 ], [ 11.3101828, 50.9578299 ], [ 11.3099168, 50.9590836 ], [ 11.3097187, 50.9590636 ], [ 11.3096864, 50.9591454 ], [ 11.3082687, 50.9588736 ], [ 11.3071773, 50.9586621 ], [ 11.3066433, 50.9585615 ], [ 11.30592, 50.9585594 ], [ 11.3039441, 50.9585476 ], [ 11.3021361, 50.958543 ], [ 11.3005789, 50.9585237 ], [ 11.3004722, 50.9583902 ], [ 11.3003016, 50.956352 ], [ 11.3004776, 50.9563211 ], [ 11.3004553, 50.9562007 ], [ 11.2994847, 50.9535507 ], [ 11.296495, 50.9535327 ], [ 11.296989, 50.951873 ], [ 11.297256, 50.9508372 ], [ 11.2971468, 50.9507512 ], [ 11.2964786, 50.9509946 ], [ 11.2922804, 50.9525021 ], [ 11.2927296, 50.9509877 ], [ 11.2927099, 50.9502488 ], [ 11.2919278, 50.9501464 ], [ 11.2917612, 50.948216 ], [ 11.2916531, 50.9471957 ], [ 11.2902041, 50.9475654 ], [ 11.2892025, 50.9476693 ], [ 11.2872107, 50.9477976 ], [ 11.2863249, 50.9477433 ], [ 11.2861354, 50.9466553 ], [ 11.2860073, 50.9464366 ], [ 11.285614, 50.946014 ], [ 11.2853338, 50.9457925 ], [ 11.2850094, 50.9455967 ], [ 11.284677, 50.9454612 ], [ 11.2842497, 50.9453466 ], [ 11.2840346, 50.9452403 ], [ 11.2839198, 50.9448693 ], [ 11.2838277, 50.9437252 ], [ 11.2840723, 50.9435058 ], [ 11.2841306, 50.9432722 ], [ 11.2840467, 50.9423101 ], [ 11.2835577, 50.9405958 ] ] ] } },
{ "type": "Feature", "properties": { "ortsteil": "Possendorf", "art": "Ortsteil", "ort": "Weimar", "VG": null, "ERF_GMD": null, "LK": "Weimar", "webseite": "https://stadt.weimar.de/de/possendorf.html", "CEWLink": "https://geomis.geoportal-th.de/geonetwork/srv/ger/catalog.search#/metadata/5500008b-db13-4b76-90cf-151820ebfed2", "ags": "16055000", "satzung": "https://stadt.weimar.de/de/ortsrecht.html", "GMK": null }, "geometry": { "type": "Polygon", "coordinates": [ [ [ 11.3097857, 50.932552 ], [ 11.3106436, 50.932779 ], [ 11.3108396, 50.932326 ], [ 11.310963, 50.931674 ], [ 11.3111852, 50.9308334 ], [ 11.3115253, 50.9300404 ], [ 11.3116801, 50.9298085 ], [ 11.3124154, 50.9287262 ], [ 11.312601, 50.9285716 ], [ 11.314196, 50.926919 ], [ 11.3134278, 50.9264722 ], [ 11.3110712, 50.9253125 ], [ 11.3096169, 50.9247141 ], [ 11.3077509, 50.9239528 ], [ 11.3071251, 50.9235379 ], [ 11.3067872, 50.9232229 ], [ 11.3065334, 50.9227149 ], [ 11.3064285, 50.9223857 ], [ 11.3063861, 50.9218737 ], [ 11.3064085, 50.9213283 ], [ 11.3064918, 50.9210074 ], [ 11.3066779, 50.9207307 ], [ 11.3072067, 50.9202293 ], [ 11.3073785, 50.9199174 ], [ 11.3074322, 50.9196598 ], [ 11.3076869, 50.9193314 ], [ 11.3078488, 50.9193242 ], [ 11.3087294, 50.9194021 ], [ 11.3092359, 50.9195277 ], [ 11.3096449, 50.9197176 ], [ 11.3098046, 50.9198246 ], [ 11.3100161, 50.9200187 ], [ 11.3116512, 50.9197075 ], [ 11.3129499, 50.9193266 ], [ 11.3126547, 50.9192311 ], [ 11.3127347, 50.9191691 ], [ 11.313384, 50.9193878 ], [ 11.3142185, 50.9195685 ], [ 11.3150573, 50.9194483 ], [ 11.3152636, 50.9193128 ], [ 11.3152629, 50.9193053 ], [ 11.3157917, 50.9193292 ], [ 11.3167173, 50.9192994 ], [ 11.316991, 50.919276 ], [ 11.3182925, 50.9190688 ], [ 11.3191521, 50.9188937 ], [ 11.3201823, 50.9187669 ], [ 11.3187266, 50.9200455 ], [ 11.3189418, 50.9202283 ], [ 11.3193877, 50.9207437 ], [ 11.3196107, 50.9208986 ], [ 11.3199131, 50.9211464 ], [ 11.3201481, 50.9214024 ], [ 11.3204854, 50.9216024 ], [ 11.3207069, 50.9216748 ], [ 11.3216034, 50.9221304 ], [ 11.320851, 50.9231026 ], [ 11.3230155, 50.9238573 ], [ 11.3267305, 50.9248561 ], [ 11.3279138, 50.9252214 ], [ 11.3313558, 50.926544 ], [ 11.3320049, 50.926786 ], [ 11.3321673, 50.9268898 ], [ 11.332214, 50.9269714 ], [ 11.3322189, 50.9270422 ], [ 11.3321381, 50.9271953 ], [ 11.3317984, 50.9276481 ], [ 11.3314913, 50.9281644 ], [ 11.3314679, 50.9282191 ], [ 11.3312384, 50.9283349 ], [ 11.3308433, 50.928439 ], [ 11.3302934, 50.928639 ], [ 11.3300752, 50.9287664 ], [ 11.3297376, 50.9289908 ], [ 11.3296496, 50.9290558 ], [ 11.329615, 50.9292164 ], [ 11.3294759, 50.9293394 ], [ 11.3293258, 50.9294058 ], [ 11.329164, 50.9294508 ], [ 11.3289324, 50.9294646 ], [ 11.3289569, 50.929736 ], [ 11.3289305, 50.9299127 ], [ 11.328806, 50.9302727 ], [ 11.3287118, 50.9305976 ], [ 11.3285039, 50.931148 ], [ 11.3280731, 50.9319858 ], [ 11.3276522, 50.9326296 ], [ 11.3278462, 50.9326905 ], [ 11.326914, 50.9347493 ], [ 11.3268586, 50.9355919 ], [ 11.3265457, 50.9382558 ], [ 11.3292367, 50.9384296 ], [ 11.3291749, 50.9392079 ], [ 11.3309379, 50.9393371 ], [ 11.3308163, 50.9397558 ], [ 11.3306617, 50.9414661 ], [ 11.3334621, 50.941602 ], [ 11.3333384, 50.9421704 ], [ 11.3338442, 50.9421605 ], [ 11.3340866, 50.9423801 ], [ 11.3351889, 50.9422525 ], [ 11.3355409, 50.9423113 ], [ 11.3360419, 50.9423388 ], [ 11.3361613, 50.9423705 ], [ 11.3365062, 50.942444 ], [ 11.3367934, 50.9424209 ], [ 11.3370789, 50.9425003 ], [ 11.3372688, 50.9425934 ], [ 11.3374946, 50.9426725 ], [ 11.3378346, 50.9427098 ], [ 11.3380919, 50.9426829 ], [ 11.3383367, 50.9426878 ], [ 11.3385449, 50.9427492 ], [ 11.3388972, 50.9427618 ], [ 11.3393503, 50.942821 ], [ 11.3395774, 50.9428152 ], [ 11.3397739, 50.9428587 ], [ 11.3401202, 50.9428713 ], [ 11.3402639, 50.9428438 ], [ 11.3405045, 50.9427266 ], [ 11.3423818, 50.9421447 ], [ 11.3435367, 50.9420524 ], [ 11.3435388, 50.9420747 ], [ 11.3434552, 50.9427363 ], [ 11.3445199, 50.9427109 ], [ 11.3445549, 50.9427702 ], [ 11.344761, 50.9431658 ], [ 11.3453606, 50.9433568 ], [ 11.3448449, 50.9439696 ], [ 11.3443295, 50.9438221 ], [ 11.3436854, 50.9437548 ], [ 11.3430997, 50.9437728 ], [ 11.3415259, 50.943762 ], [ 11.340572, 50.9436867 ], [ 11.3374276, 50.9432357 ], [ 11.3373965, 50.9439032 ], [ 11.3370804, 50.9453029 ], [ 11.3359644, 50.9450441 ], [ 11.3331516, 50.9446312 ], [ 11.3328682, 50.9458815 ], [ 11.3323903, 50.9478606 ], [ 11.3322807, 50.9484506 ], [ 11.3307781, 50.9484676 ], [ 11.3289265, 50.9484141 ], [ 11.3286454, 50.9484059 ], [ 11.3287646, 50.9471572 ], [ 11.3259144, 50.9469697 ], [ 11.325792, 50.9474353 ], [ 11.3227823, 50.9471521 ], [ 11.3215987, 50.947111 ], [ 11.319276, 50.9469306 ], [ 11.3192589, 50.9471145 ], [ 11.3166271, 50.946924 ], [ 11.314242, 50.9466104 ], [ 11.3127739, 50.9461984 ], [ 11.3103848, 50.9460127 ], [ 11.3105478, 50.9455323 ], [ 11.3067219, 50.9447872 ], [ 11.3066936, 50.9446428 ], [ 11.302367, 50.9438328 ], [ 11.3025663, 50.9427293 ], [ 11.3023079, 50.9427007 ], [ 11.3023933, 50.9420745 ], [ 11.3017441, 50.9420362 ], [ 11.3007355, 50.941914 ], [ 11.2994919, 50.9416685 ], [ 11.2998286, 50.9405223 ], [ 11.3003348, 50.9404582 ], [ 11.3013905, 50.937581 ], [ 11.3020595, 50.9361235 ], [ 11.3020603, 50.9360645 ], [ 11.3025118, 50.9361835 ], [ 11.3048384, 50.9365224 ], [ 11.3084574, 50.9368209 ], [ 11.3085348, 50.9361452 ], [ 11.3086575, 50.9346275 ], [ 11.3097857, 50.932552 ] ] ] } },
{ "type": "Feature", "properties": { "ortsteil": "Taubach", "art": "Ortsteil", "ort": "Weimar", "VG": null, "ERF_GMD": null, "LK": "Weimar", "webseite": "https://stadt.weimar.de/de/taubach.html", "CEWLink": "https://geomis.geoportal-th.de/geonetwork/srv/ger/catalog.search#/metadata/5500008b-db13-4b76-90cf-151820ebfed2", "ags": "16055000", "satzung": "https://stadt.weimar.de/de/ortsrecht.html", "GMK": null }, "geometry": { "type": "Polygon", "coordinates": [ [ [ 11.3650708, 50.9524135 ], [ 11.3646794, 50.9516472 ], [ 11.3641678, 50.9516134 ], [ 11.3644878, 50.9502725 ], [ 11.3646973, 50.9498172 ], [ 11.362819, 50.9491866 ], [ 11.36045, 50.9485223 ], [ 11.360875, 50.9482322 ], [ 11.3612752, 50.9476849 ], [ 11.3594114, 50.9472306 ], [ 11.3580233, 50.9469714 ], [ 11.3580667, 50.9468742 ], [ 11.3575216, 50.9467205 ], [ 11.3570933, 50.946758 ], [ 11.3568184, 50.9468495 ], [ 11.356758, 50.9471682 ], [ 11.3559602, 50.9470353 ], [ 11.3557295, 50.946966 ], [ 11.3561735, 50.9456836 ], [ 11.3562042, 50.9456829 ], [ 11.3566308, 50.9456732 ], [ 11.3564851, 50.9450662 ], [ 11.3561157, 50.9443421 ], [ 11.3560061, 50.9437799 ], [ 11.3560664, 50.9433416 ], [ 11.3562034, 50.9432246 ], [ 11.3564029, 50.9431669 ], [ 11.3575461, 50.9429587 ], [ 11.3586125, 50.9426632 ], [ 11.3584965, 50.941918 ], [ 11.3658233, 50.9411647 ], [ 11.3674676, 50.9404423 ], [ 11.3679365, 50.9410387 ], [ 11.3682562, 50.9417805 ], [ 11.3682778, 50.9422638 ], [ 11.369194, 50.9429823 ], [ 11.3710128, 50.9444014 ], [ 11.3713192, 50.9445671 ], [ 11.3715777, 50.9446571 ], [ 11.3730511, 50.9456844 ], [ 11.3741356, 50.9463003 ], [ 11.3744449, 50.9459746 ], [ 11.3756735, 50.9452925 ], [ 11.3777312, 50.9467428 ], [ 11.3778496, 50.9464443 ], [ 11.3778875, 50.9463796 ], [ 11.3788592, 50.9460448 ], [ 11.3805476, 50.9459435 ], [ 11.3808534, 50.9458497 ], [ 11.3811901, 50.9458589 ], [ 11.381464, 50.9458974 ], [ 11.3816869, 50.9460167 ], [ 11.381884, 50.94621 ], [ 11.382068, 50.9464548 ], [ 11.3821761, 50.9467659 ], [ 11.3821595, 50.9472337 ], [ 11.3820143, 50.9476815 ], [ 11.3820382, 50.947763 ], [ 11.3821496, 50.9478301 ], [ 11.3822869, 50.947816 ], [ 11.3828289, 50.9475555 ], [ 11.383799, 50.9467783 ], [ 11.3850078, 50.9477837 ], [ 11.3868902, 50.9493533 ], [ 11.3870552, 50.9492813 ], [ 11.3895615, 50.9516489 ], [ 11.3921615, 50.9541916 ], [ 11.3928714, 50.9544869 ], [ 11.3943541, 50.9554149 ], [ 11.3956147, 50.955532 ], [ 11.396284, 50.9555263 ], [ 11.3981291, 50.9553226 ], [ 11.3985415, 50.9564278 ], [ 11.399026, 50.9576548 ], [ 11.4002226, 50.9601393 ], [ 11.4021709, 50.9643908 ], [ 11.3980448, 50.964889 ], [ 11.3977295, 50.9673846 ], [ 11.393984, 50.9679349 ], [ 11.3936636, 50.9670855 ], [ 11.3886334, 50.9670593 ], [ 11.3838495, 50.9665645 ], [ 11.3670781, 50.9648519 ], [ 11.3672847, 50.9618154 ], [ 11.3673969, 50.9601065 ], [ 11.3690621, 50.9598557 ], [ 11.3663117, 50.9584464 ], [ 11.3653336, 50.9580398 ], [ 11.3650493, 50.9578685 ], [ 11.3644829, 50.9578501 ], [ 11.3638305, 50.9574568 ], [ 11.3633337, 50.9568914 ], [ 11.3632843, 50.9567338 ], [ 11.3631288, 50.9565748 ], [ 11.3634657, 50.9563077 ], [ 11.3627665, 50.955558 ], [ 11.3639414, 50.954948 ], [ 11.3649803, 50.9545236 ], [ 11.3663814, 50.9540778 ], [ 11.3659527, 50.9537356 ], [ 11.3658282, 50.9534462 ], [ 11.3650708, 50.9524135 ] ] ] } },
{ "type": "Feature", "properties": { "ortsteil": "Oberweimar/Ehringsdorf", "art": "Ortsteil", "ort": "Weimar", "VG": null, "ERF_GMD": null, "LK": "Weimar", "webseite": "https://stadt.weimar.de/de/oberweimar-ehringsdorf.html", "CEWLink": "https://geomis.geoportal-th.de/geonetwork/srv/ger/catalog.search#/metadata/5500008b-db13-4b76-90cf-151820ebfed2", "ags": "16055000", "satzung": "https://stadt.weimar.de/de/ortsrecht.html", "GMK": null }, "geometry": { "type": "Polygon", "coordinates": [ [ [ 11.3307781, 50.9484676 ], [ 11.3322807, 50.9484506 ], [ 11.3323903, 50.9478606 ], [ 11.3328682, 50.9458815 ], [ 11.3331516, 50.9446312 ], [ 11.3359644, 50.9450441 ], [ 11.3370804, 50.9453029 ], [ 11.3373965, 50.9439032 ], [ 11.3374276, 50.9432357 ], [ 11.340572, 50.9436867 ], [ 11.3415259, 50.943762 ], [ 11.3430997, 50.9437728 ], [ 11.3436854, 50.9437548 ], [ 11.3443295, 50.9438221 ], [ 11.3448449, 50.9439696 ], [ 11.3453606, 50.9433568 ], [ 11.344761, 50.9431658 ], [ 11.3445549, 50.9427702 ], [ 11.3445199, 50.9427109 ], [ 11.3434552, 50.9427363 ], [ 11.3435388, 50.9420747 ], [ 11.3435367, 50.9420524 ], [ 11.3452218, 50.9420842 ], [ 11.3472173, 50.9420288 ], [ 11.3485637, 50.9420455 ], [ 11.3519293, 50.9414485 ], [ 11.3529871, 50.9415575 ], [ 11.3538996, 50.9415888 ], [ 11.3544959, 50.9415873 ], [ 11.3538412, 50.9401372 ], [ 11.3546049, 50.9399952 ], [ 11.3538742, 50.9387978 ], [ 11.3538061, 50.9374347 ], [ 11.3537014, 50.9371246 ], [ 11.3540069, 50.9370812 ], [ 11.3563758, 50.9373328 ], [ 11.3561936, 50.9384366 ], [ 11.3590801, 50.938247 ], [ 11.3594722, 50.9393217 ], [ 11.3599252, 50.9401718 ], [ 11.3641455, 50.939724 ], [ 11.3648124, 50.940193 ], [ 11.3652267, 50.9401686 ], [ 11.3653518, 50.9402491 ], [ 11.3671712, 50.9400551 ], [ 11.3674676, 50.9404423 ], [ 11.3658233, 50.9411647 ], [ 11.3584965, 50.941918 ], [ 11.3586125, 50.9426632 ], [ 11.3575461, 50.9429587 ], [ 11.3564029, 50.9431669 ], [ 11.3562034, 50.9432246 ], [ 11.3560664, 50.9433416 ], [ 11.3560061, 50.9437799 ], [ 11.3561157, 50.9443421 ], [ 11.3564851, 50.9450662 ], [ 11.3566308, 50.9456732 ], [ 11.3562042, 50.9456829 ], [ 11.3561735, 50.9456836 ], [ 11.3557295, 50.946966 ], [ 11.3559602, 50.9470353 ], [ 11.356758, 50.9471682 ], [ 11.3568184, 50.9468495 ], [ 11.3570933, 50.946758 ], [ 11.3575216, 50.9467205 ], [ 11.3580667, 50.9468742 ], [ 11.3580233, 50.9469714 ], [ 11.3594114, 50.9472306 ], [ 11.3612752, 50.9476849 ], [ 11.360875, 50.9482322 ], [ 11.36045, 50.9485223 ], [ 11.362819, 50.9491866 ], [ 11.3646973, 50.9498172 ], [ 11.3644878, 50.9502725 ], [ 11.3641678, 50.9516134 ], [ 11.3646794, 50.9516472 ], [ 11.3650708, 50.9524135 ], [ 11.3658282, 50.9534462 ], [ 11.3659527, 50.9537356 ], [ 11.3663814, 50.9540778 ], [ 11.3649803, 50.9545236 ], [ 11.3639414, 50.954948 ], [ 11.3627665, 50.955558 ], [ 11.3634657, 50.9563077 ], [ 11.3631288, 50.9565748 ], [ 11.3632843, 50.9567338 ], [ 11.3633337, 50.9568914 ], [ 11.3638305, 50.9574568 ], [ 11.3644829, 50.9578501 ], [ 11.3650493, 50.9578685 ], [ 11.3653336, 50.9580398 ], [ 11.3663117, 50.9584464 ], [ 11.3690621, 50.9598557 ], [ 11.3673969, 50.9601065 ], [ 11.3672847, 50.9618154 ], [ 11.3670781, 50.9648519 ], [ 11.3838495, 50.9665645 ], [ 11.3886334, 50.9670593 ], [ 11.3881167, 50.9718784 ], [ 11.3875793, 50.9746493 ], [ 11.3883228, 50.9747106 ], [ 11.3882052, 50.977502 ], [ 11.3862153, 50.9772852 ], [ 11.380787, 50.9769279 ], [ 11.3809197, 50.976123 ], [ 11.3777447, 50.9758573 ], [ 11.3771094, 50.9790827 ], [ 11.3712417, 50.978561 ], [ 11.3705888, 50.9810745 ], [ 11.3705317, 50.9812414 ], [ 11.3689341, 50.9814308 ], [ 11.3684209, 50.981329 ], [ 11.3664715, 50.9808997 ], [ 11.3648397, 50.980769 ], [ 11.3606035, 50.9801366 ], [ 11.3572137, 50.9796992 ], [ 11.3543881, 50.9793866 ], [ 11.3520087, 50.9793735 ], [ 11.3516095, 50.9794017 ], [ 11.3512104, 50.97943 ], [ 11.3500108, 50.9796746 ], [ 11.3469708, 50.9799096 ], [ 11.344291, 50.9794351 ], [ 11.344045, 50.9793442 ], [ 11.344093, 50.9783768 ], [ 11.344141, 50.9774093 ], [ 11.3442139, 50.9761288 ], [ 11.3442924, 50.9754299 ], [ 11.3443856, 50.9751539 ], [ 11.3446067, 50.9745818 ], [ 11.3449367, 50.9740794 ], [ 11.3453569, 50.9735069 ], [ 11.3463715, 50.9726165 ], [ 11.3467202, 50.9723775 ], [ 11.3444796, 50.9720327 ], [ 11.3440717, 50.9740339 ], [ 11.3431099, 50.9740367 ], [ 11.3415298, 50.9740482 ], [ 11.3410142, 50.9740859 ], [ 11.3408312, 50.9743859 ], [ 11.3388964, 50.9742285 ], [ 11.3391197, 50.9734977 ], [ 11.3391447, 50.9731933 ], [ 11.3377293, 50.9732219 ], [ 11.337788, 50.972958 ], [ 11.3380498, 50.9724187 ], [ 11.3381699, 50.9720595 ], [ 11.3382901, 50.9717004 ], [ 11.3384102, 50.9713413 ], [ 11.3385303, 50.9709821 ], [ 11.3389771, 50.9704764 ], [ 11.3390974, 50.9702291 ], [ 11.3390787, 50.9700948 ], [ 11.3386851, 50.9697592 ], [ 11.3385454, 50.9694372 ], [ 11.3386265, 50.9690474 ], [ 11.3387769, 50.9686132 ], [ 11.3391241, 50.9683467 ], [ 11.3398479, 50.9681639 ], [ 11.3400294, 50.9679575 ], [ 11.3400519, 50.9678193 ], [ 11.3400272, 50.9676282 ], [ 11.3400989, 50.967409 ], [ 11.3386913, 50.9671743 ], [ 11.3374882, 50.9669754 ], [ 11.3348364, 50.9667366 ], [ 11.3335623, 50.9666009 ], [ 11.3328358, 50.9660982 ], [ 11.3324506, 50.9658128 ], [ 11.3321299, 50.9654899 ], [ 11.3318517, 50.9653108 ], [ 11.3315089, 50.9651918 ], [ 11.3311339, 50.9651027 ], [ 11.330688, 50.9650511 ], [ 11.3298908, 50.9650276 ], [ 11.3294515, 50.9649685 ], [ 11.3288732, 50.9648065 ], [ 11.3286326, 50.9646805 ], [ 11.3285072, 50.9645287 ], [ 11.3284718, 50.9643321 ], [ 11.3283772, 50.9642522 ], [ 11.3282249, 50.9641947 ], [ 11.3280543, 50.9640917 ], [ 11.3276117, 50.963364 ], [ 11.3273471, 50.9631321 ], [ 11.3272679, 50.9628749 ], [ 11.3272887, 50.9627617 ], [ 11.3266977, 50.9621615 ], [ 11.3266615, 50.9620178 ], [ 11.3266899, 50.9618216 ], [ 11.3269763, 50.9614228 ], [ 11.3272651, 50.9608618 ], [ 11.3273421, 50.96039 ], [ 11.3273535, 50.9595932 ], [ 11.3274069, 50.9589854 ], [ 11.3275375, 50.9583366 ], [ 11.3276862, 50.9578803 ], [ 11.3278358, 50.9566689 ], [ 11.3278842, 50.956153 ], [ 11.3281525, 50.9550489 ], [ 11.3285138, 50.953547 ], [ 11.3288205, 50.951296 ], [ 11.3289265, 50.9484141 ], [ 11.3307781, 50.9484676 ] ] ] } },
{ "type": "Feature", "properties": { "ortsteil": "Süßenborn", "art": "Ortsteil", "ort": "Weimar", "VG": null, "ERF_GMD": null, "LK": "Weimar", "webseite": "https://stadt.weimar.de/de/sueszenborn.html", "CEWLink": "https://geomis.geoportal-th.de/geonetwork/srv/ger/catalog.search#/metadata/5500008b-db13-4b76-90cf-151820ebfed2", "ags": "16055000", "satzung": "https://stadt.weimar.de/de/ortsrecht.html", "GMK": null }, "geometry": { "type": "Polygon", "coordinates": [ [ [ 11.3712417, 50.978561 ], [ 11.3771094, 50.9790827 ], [ 11.3777447, 50.9758573 ], [ 11.3809197, 50.976123 ], [ 11.380787, 50.9769279 ], [ 11.3862153, 50.9772852 ], [ 11.3882052, 50.977502 ], [ 11.3883228, 50.9747106 ], [ 11.3875793, 50.9746493 ], [ 11.3881167, 50.9718784 ], [ 11.3918218, 50.9724866 ], [ 11.3917157, 50.9738041 ], [ 11.3917564, 50.9744077 ], [ 11.3921214, 50.9761911 ], [ 11.392179, 50.9767393 ], [ 11.3929735, 50.9766045 ], [ 11.3933867, 50.9777991 ], [ 11.3936219, 50.9789952 ], [ 11.3932732, 50.9790509 ], [ 11.393761, 50.9813665 ], [ 11.3938568, 50.9815392 ], [ 11.3948686, 50.9827611 ], [ 11.3963127, 50.983717 ], [ 11.3956472, 50.9844914 ], [ 11.3945004, 50.9861907 ], [ 11.3933848, 50.9885818 ], [ 11.3933815, 50.9887636 ], [ 11.3930228, 50.9896653 ], [ 11.3932154, 50.9897086 ], [ 11.3929937, 50.9905825 ], [ 11.39296, 50.9906781 ], [ 11.3905127, 50.9903445 ], [ 11.3895996, 50.9921021 ], [ 11.3896294, 50.992289 ], [ 11.3907679, 50.9930947 ], [ 11.3906901, 50.9932217 ], [ 11.3920551, 50.9942059 ], [ 11.3930537, 50.9953952 ], [ 11.3926958, 50.9959319 ], [ 11.3909143, 50.9955182 ], [ 11.3882021, 50.9949869 ], [ 11.3883341, 50.9948056 ], [ 11.3878091, 50.9947215 ], [ 11.3880472, 50.9944641 ], [ 11.3837484, 50.9935598 ], [ 11.3839016, 50.9932596 ], [ 11.3817393, 50.9927347 ], [ 11.3817067, 50.9926383 ], [ 11.38091, 50.9918782 ], [ 11.3801105, 50.9913404 ], [ 11.3795173, 50.9910886 ], [ 11.3769792, 50.9903484 ], [ 11.3737373, 50.9894892 ], [ 11.3741931, 50.9884861 ], [ 11.3724986, 50.988469 ], [ 11.3728364, 50.9871435 ], [ 11.3737512, 50.9854134 ], [ 11.3700284, 50.9843743 ], [ 11.3701744, 50.984168 ], [ 11.3703204, 50.9839618 ], [ 11.3703829, 50.9837084 ], [ 11.3703696, 50.9835832 ], [ 11.3703566, 50.9834581 ], [ 11.3702948, 50.9833246 ], [ 11.370233, 50.983191 ], [ 11.3700888, 50.983002 ], [ 11.3699447, 50.982813 ], [ 11.3695786, 50.9824791 ], [ 11.3705317, 50.9812414 ], [ 11.3705888, 50.9810745 ], [ 11.3712417, 50.978561 ] ] ] } },
{ "type": "Feature", "properties": { "ortsteil": "Schöndorf", "art": "Ortsteil", "ort": "Weimar", "VG": null, "ERF_GMD": null, "LK": "Weimar", "webseite": "https://stadt.weimar.de/de/schoendorf.html", "CEWLink": "https://geomis.geoportal-th.de/geonetwork/srv/ger/catalog.search#/metadata/5500008b-db13-4b76-90cf-151820ebfed2", "ags": "16055000", "satzung": "https://stadt.weimar.de/de/ortsrecht.html", "GMK": null }, "geometry": { "type": "Polygon", "coordinates": [ [ [ 11.3206999, 51.0107928 ], [ 11.3199504, 51.011251 ], [ 11.319192, 51.0114937 ], [ 11.3181619, 51.0116398 ], [ 11.3178087, 51.0116282 ], [ 11.3173922, 51.0115497 ], [ 11.3169288, 51.0113854 ], [ 11.316227, 51.0110488 ], [ 11.3158451, 51.0108089 ], [ 11.3158758, 51.0098112 ], [ 11.3173848, 51.0073321 ], [ 11.3191654, 51.0051693 ], [ 11.3234815, 51.0050432 ], [ 11.3251326, 51.0056909 ], [ 11.3269168, 51.0049874 ], [ 11.3285622, 51.0046559 ], [ 11.3297665, 51.0044227 ], [ 11.3311812, 51.0041166 ], [ 11.3319934, 51.0038861 ], [ 11.332787, 51.0039663 ], [ 11.3334821, 51.0038104 ], [ 11.3336149, 51.0037932 ], [ 11.333764, 51.0037947 ], [ 11.3337512, 51.0039067 ], [ 11.3337385, 51.0040189 ], [ 11.3337329, 51.0040678 ], [ 11.3337303, 51.0040913 ], [ 11.33368, 51.0045615 ], [ 11.3336299, 51.0050317 ], [ 11.3335968, 51.0053423 ], [ 11.3335841, 51.0054102 ], [ 11.3335712, 51.005478 ], [ 11.3335586, 51.0055387 ], [ 11.333546, 51.0055994 ], [ 11.3334661, 51.005977 ], [ 11.3333863, 51.0063547 ], [ 11.3333079, 51.0067251 ], [ 11.3332962, 51.0067784 ], [ 11.3336166, 51.0067772 ], [ 11.3338902, 51.0067596 ], [ 11.3446658, 51.0058915 ], [ 11.3474849, 51.0081326 ], [ 11.3491794, 51.0093114 ], [ 11.3503105, 51.0100613 ], [ 11.3506313, 51.0102728 ], [ 11.3523548, 51.0110646 ], [ 11.3537815, 51.0116622 ], [ 11.3538283, 51.0116819 ], [ 11.3541711, 51.0109706 ], [ 11.3550641, 51.0113321 ], [ 11.3557546, 51.0115749 ], [ 11.3569202, 51.0119849 ], [ 11.3570383, 51.0129809 ], [ 11.3570148, 51.0132837 ], [ 11.3570002, 51.0134709 ], [ 11.3591791, 51.0139472 ], [ 11.3619585, 51.0141593 ], [ 11.3630232, 51.014373 ], [ 11.3658077, 51.0151273 ], [ 11.3690625, 51.0161629 ], [ 11.370023, 51.0164837 ], [ 11.3706943, 51.0167525 ], [ 11.3712551, 51.0170317 ], [ 11.3719012, 51.0174076 ], [ 11.3724165, 51.0178342 ], [ 11.3727481, 51.0181956 ], [ 11.3730247, 51.0186144 ], [ 11.3731933, 51.0189942 ], [ 11.3732973, 51.0193286 ], [ 11.3732689, 51.0198294 ], [ 11.3732327, 51.0200925 ], [ 11.3683714, 51.0195767 ], [ 11.3637894, 51.0190998 ], [ 11.3604474, 51.018678 ], [ 11.3604361, 51.0191148 ], [ 11.3603724, 51.0192365 ], [ 11.3601746, 51.0193974 ], [ 11.3574675, 51.0201475 ], [ 11.3531968, 51.0213021 ], [ 11.3525487, 51.0214712 ], [ 11.3520089, 51.0215091 ], [ 11.3513254, 51.0214564 ], [ 11.3487741, 51.0209505 ], [ 11.3470319, 51.0204785 ], [ 11.344722, 51.019957 ], [ 11.3400122, 51.0199761 ], [ 11.3396951, 51.0206344 ], [ 11.338496, 51.0206023 ], [ 11.3372616, 51.0204061 ], [ 11.3361449, 51.0204194 ], [ 11.3357185, 51.0204385 ], [ 11.3339252, 51.0200627 ], [ 11.3336742, 51.0196465 ], [ 11.3335473, 51.0195684 ], [ 11.3333407, 51.0195182 ], [ 11.3323419, 51.0197415 ], [ 11.3322992, 51.0198312 ], [ 11.3323224, 51.0201421 ], [ 11.3322926, 51.0202973 ], [ 11.3321655, 51.0204848 ], [ 11.3316917, 51.0207437 ], [ 11.3313028, 51.0210419 ], [ 11.3303442, 51.0223664 ], [ 11.3302133, 51.0225837 ], [ 11.3302378, 51.0228047 ], [ 11.3302067, 51.0230418 ], [ 11.329925, 51.0234045 ], [ 11.3277003, 51.0251728 ], [ 11.3273328, 51.0250193 ], [ 11.3256066, 51.0254297 ], [ 11.3253955, 51.0252856 ], [ 11.3237222, 51.0235191 ], [ 11.3205711, 51.0216943 ], [ 11.3206999, 51.0107928 ] ] ] } },
{ "type": "Feature", "properties": { "ortsteil": "Gaberndorf", "art": "Ortsteil", "ort": "Weimar", "VG": null, "ERF_GMD": null, "LK": "Weimar", "webseite": "https://stadt.weimar.de/de/gaberndorf.html", "CEWLink": "https://geomis.geoportal-th.de/geonetwork/srv/ger/catalog.search#/metadata/5500008b-db13-4b76-90cf-151820ebfed2", "ags": "16055000", "satzung": "https://stadt.weimar.de/de/ortsrecht.html", "GMK": null }, "geometry": { "type": "Polygon", "coordinates": [ [ [ 11.2738644, 50.9880947 ], [ 11.2756053, 50.9876201 ], [ 11.275399, 50.9868192 ], [ 11.2772648, 50.9869918 ], [ 11.2791678, 50.9871187 ], [ 11.281099, 50.9871881 ], [ 11.2831781, 50.987126 ], [ 11.2837737, 50.9869987 ], [ 11.2855213, 50.9876492 ], [ 11.2873325, 50.9883573 ], [ 11.2889056, 50.9889711 ], [ 11.2900428, 50.9894091 ], [ 11.2892117, 50.9903603 ], [ 11.2889021, 50.9908681 ], [ 11.2887762, 50.9915556 ], [ 11.2888456, 50.9922391 ], [ 11.289147, 50.9928556 ], [ 11.2896509, 50.9934975 ], [ 11.2902997, 50.9940374 ], [ 11.2912865, 50.994532 ], [ 11.2918507, 50.9947929 ], [ 11.293374, 50.9953833 ], [ 11.2941852, 50.9957613 ], [ 11.2952867, 50.996309 ], [ 11.2961727, 50.9968728 ], [ 11.2962903, 50.996953 ], [ 11.2962438, 50.9972176 ], [ 11.2961664, 50.9976416 ], [ 11.2961029, 50.9980275 ], [ 11.2960394, 50.9984134 ], [ 11.2959802, 50.9988106 ], [ 11.2959567, 50.9991883 ], [ 11.2959333, 50.9995662 ], [ 11.2958772, 50.9996116 ], [ 11.2954741, 50.9995785 ], [ 11.2948146, 51.0003609 ], [ 11.2941549, 51.0011433 ], [ 11.2933546, 51.0022194 ], [ 11.2925541, 51.0032955 ], [ 11.2932272, 51.0034517 ], [ 11.2922744, 51.0047834 ], [ 11.2913213, 51.0061149 ], [ 11.2905996, 51.0070583 ], [ 11.289878, 51.0080016 ], [ 11.2894958, 51.0084887 ], [ 11.2891136, 51.0089757 ], [ 11.2880747, 51.0100144 ], [ 11.2870358, 51.011053 ], [ 11.2856678, 51.0110877 ], [ 11.2837574, 51.0111256 ], [ 11.2823294, 51.0111344 ], [ 11.280359, 51.0111465 ], [ 11.2791802, 51.0110044 ], [ 11.2780015, 51.0108621 ], [ 11.2761457, 51.0110202 ], [ 11.2742901, 51.0111782 ], [ 11.2730532, 51.0112985 ], [ 11.271449, 51.0112673 ], [ 11.2688128, 51.0112128 ], [ 11.2661766, 51.0111581 ], [ 11.2653771, 51.0111405 ], [ 11.2645776, 51.0111228 ], [ 11.26315, 51.0110904 ], [ 11.2617224, 51.011058 ], [ 11.2595129, 51.0110372 ], [ 11.2578285, 51.0110818 ], [ 11.2561441, 51.0111264 ], [ 11.2534985, 51.0113172 ], [ 11.2530789, 51.0106934 ], [ 11.2526595, 51.0100698 ], [ 11.2524415, 51.0096802 ], [ 11.2522234, 51.0092904 ], [ 11.2517988, 51.0087453 ], [ 11.2513741, 51.0082001 ], [ 11.254258, 51.008146 ], [ 11.257142, 51.0080919 ], [ 11.2581401, 51.0079883 ], [ 11.2586723, 51.0078132 ], [ 11.2605893, 51.0076525 ], [ 11.2625063, 51.0074918 ], [ 11.2623635, 51.0066098 ], [ 11.2622206, 51.0057277 ], [ 11.2627439, 51.0051302 ], [ 11.2632527, 51.0048935 ], [ 11.2673244, 51.0037564 ], [ 11.2675438, 51.0010049 ], [ 11.2675485, 51.0008001 ], [ 11.2673962, 51.0007991 ], [ 11.2673837, 50.9995797 ], [ 11.2670507, 50.9970119 ], [ 11.2670373, 50.9968128 ], [ 11.2668631, 50.9968012 ], [ 11.2666073, 50.9951294 ], [ 11.2664826, 50.9946259 ], [ 11.2662007, 50.9946084 ], [ 11.2658594, 50.9936323 ], [ 11.265706, 50.9928355 ], [ 11.2656877, 50.9924165 ], [ 11.2647097, 50.9923475 ], [ 11.264367, 50.9909263 ], [ 11.2621576, 50.9910905 ], [ 11.2619088, 50.9905601 ], [ 11.2652794, 50.9904265 ], [ 11.2653153, 50.9893107 ], [ 11.2664903, 50.9891955 ], [ 11.2675214, 50.989032 ], [ 11.2686099, 50.9887646 ], [ 11.2700907, 50.988213 ], [ 11.2702874, 50.9881555 ], [ 11.2708914, 50.9888796 ], [ 11.2738644, 50.9880947 ] ] ] } },
{ "type": "Feature", "properties": { "ortsteil": "Weimar-West", "art": "Ortsteil", "ort": "Weimar", "VG": null, "ERF_GMD": null, "LK": "Weimar", "webseite": "https://stadt.weimar.de/de/weimarwest.html", "CEWLink": "https://geomis.geoportal-th.de/geonetwork/srv/ger/catalog.search#/metadata/5500008b-db13-4b76-90cf-151820ebfed2", "ags": "16055000", "satzung": "https://stadt.weimar.de/de/ortsrecht.html", "GMK": null }, "geometry": { "type": "Polygon", "coordinates": [ [ [ 11.3036627, 50.9854065 ], [ 11.3039535, 50.9852532 ], [ 11.3041414, 50.9851597 ], [ 11.304643, 50.9850661 ], [ 11.3051445, 50.9849724 ], [ 11.3053763, 50.9849107 ], [ 11.305608, 50.984849 ], [ 11.3058936, 50.9847404 ], [ 11.3061793, 50.9846317 ], [ 11.3064514, 50.9845441 ], [ 11.3067233, 50.9844563 ], [ 11.3069727, 50.9844026 ], [ 11.307222, 50.984349 ], [ 11.3074829, 50.9843376 ], [ 11.3077437, 50.9843262 ], [ 11.30797, 50.9843354 ], [ 11.3081961, 50.9843446 ], [ 11.3084705, 50.9843935 ], [ 11.308745, 50.9844425 ], [ 11.3090013, 50.9845202 ], [ 11.3092575, 50.9845979 ], [ 11.3094606, 50.9846779 ], [ 11.3096634, 50.9847579 ], [ 11.3098818, 50.9848904 ], [ 11.3101002, 50.985023 ], [ 11.3106807, 50.9854502 ], [ 11.3110031, 50.9858567 ], [ 11.3112681, 50.9865413 ], [ 11.3114441, 50.9872463 ], [ 11.3115503, 50.9878722 ], [ 11.3116662, 50.9884404 ], [ 11.311723, 50.9888016 ], [ 11.311875, 50.9893226 ], [ 11.3119605, 50.9895491 ], [ 11.3121771, 50.9899076 ], [ 11.3125264, 50.9902221 ], [ 11.3129221, 50.9904818 ], [ 11.3133621, 50.9907366 ], [ 11.3141361, 50.9910668 ], [ 11.3145594, 50.9912532 ], [ 11.3147801, 50.9913438 ], [ 11.3154966, 50.9915161 ], [ 11.3164735, 50.9916499 ], [ 11.3186302, 50.9917037 ], [ 11.3186303, 50.9917043 ], [ 11.3174924, 50.9917454 ], [ 11.315698, 50.991819 ], [ 11.3129444, 50.9918873 ], [ 11.3116749, 50.9918851 ], [ 11.310627, 50.9919052 ], [ 11.3097123, 50.9919261 ], [ 11.3081852, 50.9919381 ], [ 11.3046736, 50.9920593 ], [ 11.302719, 50.9921475 ], [ 11.3015921, 50.9921093 ], [ 11.3000308, 50.9920264 ], [ 11.2986966, 50.9919135 ], [ 11.2973585, 50.9917531 ], [ 11.2960298, 50.9915454 ], [ 11.295172, 50.9913354 ], [ 11.2942492, 50.991069 ], [ 11.2933843, 50.9907275 ], [ 11.2925988, 50.9904233 ], [ 11.2921047, 50.9902259 ], [ 11.291081, 50.9898257 ], [ 11.2900428, 50.9894091 ], [ 11.2911306, 50.9883128 ], [ 11.2917358, 50.9875673 ], [ 11.2921023, 50.9868129 ], [ 11.292333, 50.9862072 ], [ 11.2924764, 50.9855303 ], [ 11.2924769, 50.9849155 ], [ 11.292385, 50.9839551 ], [ 11.2930337, 50.9841096 ], [ 11.2938212, 50.9843631 ], [ 11.2952575, 50.9847711 ], [ 11.2959025, 50.9849641 ], [ 11.2965477, 50.9851571 ], [ 11.2974313, 50.9854199 ], [ 11.2980763, 50.9856182 ], [ 11.2984832, 50.9857205 ], [ 11.2990893, 50.9857633 ], [ 11.2996954, 50.9858062 ], [ 11.2999203, 50.98591 ], [ 11.3001299, 50.9859986 ], [ 11.3005954, 50.9861767 ], [ 11.3010456, 50.9863397 ], [ 11.3013441, 50.9864198 ], [ 11.3016368, 50.9864373 ], [ 11.3019295, 50.9864549 ], [ 11.302033, 50.9863583 ], [ 11.3021365, 50.9862617 ], [ 11.30245, 50.9860692 ], [ 11.3027636, 50.9858766 ], [ 11.3030679, 50.9857182 ], [ 11.3033719, 50.9855597 ], [ 11.3036627, 50.9854065 ] ] ] } },
{ "type": "Feature", "properties": { "ortsteil": "Legefeld/Holzdorf", "art": "Ortsteil", "ort": "Weimar", "VG": null, "ERF_GMD": null, "LK": "Weimar", "webseite": "https://stadt.weimar.de/de/legefeld-holzdorf.html", "CEWLink": "https://geomis.geoportal-th.de/geonetwork/srv/ger/catalog.search#/metadata/5500008b-db13-4b76-90cf-151820ebfed2", "ags": "16055000", "satzung": "https://stadt.weimar.de/de/ortsrecht.html", "GMK": null }, "geometry": { "type": "Polygon", "coordinates": [ [ [ 11.2882043, 50.9234338 ], [ 11.2882223, 50.923363 ], [ 11.2881041, 50.9231635 ], [ 11.2875754, 50.9227248 ], [ 11.2870808, 50.9223389 ], [ 11.2873719, 50.9219732 ], [ 11.2883736, 50.9208566 ], [ 11.2887103, 50.9205934 ], [ 11.2889301, 50.9204621 ], [ 11.2890746, 50.9203531 ], [ 11.2891219, 50.9200531 ], [ 11.2894072, 50.9196023 ], [ 11.2896598, 50.9194094 ], [ 11.2896751, 50.9194051 ], [ 11.2900186, 50.9192805 ], [ 11.2904339, 50.9191899 ], [ 11.2909625, 50.9191551 ], [ 11.2911546, 50.9191901 ], [ 11.2913835, 50.9191534 ], [ 11.2918716, 50.9189661 ], [ 11.2922842, 50.9186922 ], [ 11.2922567, 50.9186203 ], [ 11.2918463, 50.9184616 ], [ 11.2929319, 50.9177503 ], [ 11.293054, 50.9177003 ], [ 11.2932509, 50.917666 ], [ 11.2947615, 50.9179162 ], [ 11.2958337, 50.9182504 ], [ 11.2966904, 50.9186003 ], [ 11.2976404, 50.9178865 ], [ 11.2983418, 50.91752 ], [ 11.2988389, 50.9173785 ], [ 11.2999125, 50.9171897 ], [ 11.3010597, 50.9174545 ], [ 11.3000446, 50.9179007 ], [ 11.2994985, 50.9181917 ], [ 11.2990581, 50.9189417 ], [ 11.2989168, 50.9193172 ], [ 11.2987357, 50.9199758 ], [ 11.298492, 50.9205242 ], [ 11.2982806, 50.9207577 ], [ 11.2981072, 50.9208968 ], [ 11.2982637, 50.9211593 ], [ 11.2968668, 50.9218169 ], [ 11.296622, 50.9219633 ], [ 11.2962051, 50.9221554 ], [ 11.2950521, 50.9224275 ], [ 11.295171, 50.9225848 ], [ 11.2956228, 50.9224352 ], [ 11.2958375, 50.9224027 ], [ 11.2961087, 50.9223959 ], [ 11.296444, 50.9224064 ], [ 11.2966012, 50.9223946 ], [ 11.2969389, 50.9222444 ], [ 11.2970966, 50.9221147 ], [ 11.2972323, 50.9221449 ], [ 11.2974141, 50.9219682 ], [ 11.2977098, 50.9217627 ], [ 11.2980253, 50.9216546 ], [ 11.2984382, 50.9216239 ], [ 11.2987241, 50.9216419 ], [ 11.2987874, 50.9218035 ], [ 11.2989721, 50.9218125 ], [ 11.2994579, 50.9217774 ], [ 11.2999229, 50.9216998 ], [ 11.3005072, 50.9214721 ], [ 11.3008135, 50.9213288 ], [ 11.3011455, 50.9210771 ], [ 11.3013707, 50.9208078 ], [ 11.3014819, 50.9205294 ], [ 11.3015071, 50.9202758 ], [ 11.3014904, 50.919825 ], [ 11.3015201, 50.9189311 ], [ 11.3016055, 50.9184706 ], [ 11.3017216, 50.9183883 ], [ 11.302746, 50.9179816 ], [ 11.3031838, 50.9178378 ], [ 11.3036236, 50.918163 ], [ 11.3038769, 50.9183277 ], [ 11.3046269, 50.9187593 ], [ 11.3054248, 50.9192506 ], [ 11.3057297, 50.9195207 ], [ 11.3076869, 50.9193314 ], [ 11.3074322, 50.9196598 ], [ 11.3073785, 50.9199174 ], [ 11.3072067, 50.9202293 ], [ 11.3066779, 50.9207307 ], [ 11.3064918, 50.9210074 ], [ 11.3064085, 50.9213283 ], [ 11.3063861, 50.9218737 ], [ 11.3064285, 50.9223857 ], [ 11.3065334, 50.9227149 ], [ 11.3067872, 50.9232229 ], [ 11.3071251, 50.9235379 ], [ 11.3077509, 50.9239528 ], [ 11.3096169, 50.9247141 ], [ 11.3110712, 50.9253125 ], [ 11.3134278, 50.9264722 ], [ 11.314196, 50.926919 ], [ 11.312601, 50.9285716 ], [ 11.3124154, 50.9287262 ], [ 11.3116801, 50.9298085 ], [ 11.3115253, 50.9300404 ], [ 11.3111852, 50.9308334 ], [ 11.310963, 50.931674 ], [ 11.3108396, 50.932326 ], [ 11.3106436, 50.932779 ], [ 11.3097857, 50.932552 ], [ 11.3086575, 50.9346275 ], [ 11.3085348, 50.9361452 ], [ 11.3084574, 50.9368209 ], [ 11.3048384, 50.9365224 ], [ 11.3025118, 50.9361835 ], [ 11.3020603, 50.9360645 ], [ 11.3020595, 50.9361235 ], [ 11.3013905, 50.937581 ], [ 11.3003348, 50.9404582 ], [ 11.2998286, 50.9405223 ], [ 11.2994919, 50.9416685 ], [ 11.2979909, 50.941409 ], [ 11.2984205, 50.9436835 ], [ 11.2968441, 50.9436253 ], [ 11.2958931, 50.9434358 ], [ 11.295777, 50.943418 ], [ 11.2939609, 50.9437483 ], [ 11.2933609, 50.9425233 ], [ 11.2907166, 50.9428797 ], [ 11.2900908, 50.9413186 ], [ 11.2869814, 50.9417516 ], [ 11.2866019, 50.9406949 ], [ 11.2844678, 50.9406014 ], [ 11.2835577, 50.9405958 ], [ 11.2840467, 50.9423101 ], [ 11.2841306, 50.9432722 ], [ 11.2840723, 50.9435058 ], [ 11.2838277, 50.9437252 ], [ 11.2807238, 50.9437386 ], [ 11.2807291, 50.9441025 ], [ 11.2798183, 50.9441489 ], [ 11.2791656, 50.9438005 ], [ 11.2775354, 50.94355 ], [ 11.2755073, 50.9432802 ], [ 11.2745987, 50.9431771 ], [ 11.2746056, 50.9427354 ], [ 11.2744317, 50.9426395 ], [ 11.2743931, 50.9415931 ], [ 11.2742638, 50.9414429 ], [ 11.2738525, 50.9403943 ], [ 11.2727806, 50.9402123 ], [ 11.2724512, 50.9402427 ], [ 11.2720537, 50.9404157 ], [ 11.2715038, 50.9405227 ], [ 11.2681632, 50.9409566 ], [ 11.2669558, 50.941027 ], [ 11.265173, 50.9409964 ], [ 11.2629383, 50.941012 ], [ 11.2622723, 50.9410286 ], [ 11.2612282, 50.9411361 ], [ 11.2612066, 50.9408454 ], [ 11.2602145, 50.9409896 ], [ 11.2592067, 50.9410196 ], [ 11.2584189, 50.9409886 ], [ 11.2585336, 50.9403874 ], [ 11.2601868, 50.9405327 ], [ 11.2602139, 50.9399205 ], [ 11.2602958, 50.9391768 ], [ 11.2604264, 50.9386224 ], [ 11.2612942, 50.9386279 ], [ 11.2614023, 50.937721 ], [ 11.262589, 50.93817 ], [ 11.264004, 50.9384229 ], [ 11.2656186, 50.9387859 ], [ 11.2659681, 50.9389807 ], [ 11.2683504, 50.9395089 ], [ 11.2681436, 50.9387085 ], [ 11.2677094, 50.9370287 ], [ 11.2677174, 50.9358289 ], [ 11.2676909, 50.9354129 ], [ 11.2697804, 50.9357248 ], [ 11.269829, 50.9354198 ], [ 11.2720979, 50.9354729 ], [ 11.2729864, 50.9354459 ], [ 11.2750268, 50.9332717 ], [ 11.2771161, 50.9303505 ], [ 11.2777455, 50.9295022 ], [ 11.277594, 50.9294912 ], [ 11.2778944, 50.928646 ], [ 11.2775213, 50.9285722 ], [ 11.2779703, 50.9274318 ], [ 11.2782925, 50.9274528 ], [ 11.2786083, 50.9266466 ], [ 11.2797994, 50.9268879 ], [ 11.28025, 50.9269677 ], [ 11.2807176, 50.9270157 ], [ 11.2811448, 50.9270219 ], [ 11.2815252, 50.9270276 ], [ 11.281788, 50.9270644 ], [ 11.2822423, 50.9272128 ], [ 11.2825963, 50.9274094 ], [ 11.2829483, 50.9277445 ], [ 11.283376, 50.9281411 ], [ 11.283854, 50.9284299 ], [ 11.2846808, 50.9281296 ], [ 11.2874633, 50.9271492 ], [ 11.2886776, 50.9267824 ], [ 11.2888959, 50.9266485 ], [ 11.2889912, 50.9265381 ], [ 11.2894066, 50.92573 ], [ 11.2893802, 50.9255944 ], [ 11.2891561, 50.9253055 ], [ 11.2887506, 50.9249561 ], [ 11.2883528, 50.9246325 ], [ 11.2882064, 50.9244075 ], [ 11.2881628, 50.9242817 ], [ 11.288121, 50.9239207 ], [ 11.2882043, 50.9234338 ] ] ] } },
{ "type": "Feature", "properties": { "ortsteil": "Nordstadt", "art": "Stadtteil", "ort": "Weimar", "VG": null, "ERF_GMD": null, "LK": "Weimar", "webseite": "https://www.weimar.de/", "CEWLink": "https://geomis.geoportal-th.de/geonetwork/srv/ger/catalog.search#/metadata/5500008b-db13-4b76-90cf-151820ebfed2", "ags": "16055000", "satzung": "https://stadt.weimar.de/de/ortsrecht.html", "GMK": null }, "geometry": { "type": "Polygon", "coordinates": [ [ [ 11.3462052, 50.9971319 ], [ 11.3458189, 50.9973299 ], [ 11.3465681, 50.9979119 ], [ 11.3465062, 50.9979506 ], [ 11.3464198, 50.9980046 ], [ 11.3463781, 50.9980372 ], [ 11.3462901, 50.9980852 ], [ 11.3462167, 50.998139 ], [ 11.3461639, 50.9981689 ], [ 11.3461258, 50.9981853 ], [ 11.3460762, 50.9982226 ], [ 11.3459848, 50.9982776 ], [ 11.345907, 50.9983377 ], [ 11.3458079, 50.9984079 ], [ 11.3457576, 50.9984286 ], [ 11.3457106, 50.9984575 ], [ 11.3456694, 50.9984897 ], [ 11.3456281, 50.9985218 ], [ 11.3455578, 50.998539 ], [ 11.3454954, 50.9985783 ], [ 11.3454414, 50.9986407 ], [ 11.3453398, 50.9986735 ], [ 11.3453023, 50.9987123 ], [ 11.3452626, 50.9987607 ], [ 11.3452206, 50.9987886 ], [ 11.3451787, 50.9988165 ], [ 11.3451183, 50.9988476 ], [ 11.3450768, 50.9988848 ], [ 11.3449572, 50.9989628 ], [ 11.3448374, 50.9990406 ], [ 11.344762, 50.9990699 ], [ 11.3447405, 50.9990831 ], [ 11.3447191, 50.9990965 ], [ 11.3446625, 50.9991557 ], [ 11.3446214, 50.9991689 ], [ 11.3446103, 50.9991869 ], [ 11.3445551, 50.9992115 ], [ 11.3444979, 50.9992456 ], [ 11.3444495, 50.9992862 ], [ 11.3444145, 50.9993042 ], [ 11.3443711, 50.9993537 ], [ 11.3443277, 50.9994033 ], [ 11.34428, 50.9994297 ], [ 11.3442322, 50.9994561 ], [ 11.3441934, 50.9994678 ], [ 11.3441671, 50.9994862 ], [ 11.3441408, 50.9995045 ], [ 11.3440941, 50.999545 ], [ 11.3440474, 50.9995854 ], [ 11.3440008, 50.9996141 ], [ 11.3439544, 50.9996427 ], [ 11.3439085, 50.9996768 ], [ 11.3438734, 50.9996955 ], [ 11.3438383, 50.9997142 ], [ 11.3437958, 50.9997433 ], [ 11.3437756, 50.9997516 ], [ 11.343686, 50.9997908 ], [ 11.3435964, 50.99983 ], [ 11.3435399, 50.9998486 ], [ 11.3434834, 50.9998673 ], [ 11.3434574, 50.9998861 ], [ 11.343394, 50.9999074 ], [ 11.3433394, 50.9999233 ], [ 11.3432753, 50.9999493 ], [ 11.3432111, 50.9999751 ], [ 11.3431831, 50.9999902 ], [ 11.3431549, 51.0000055 ], [ 11.3431069, 51.000026 ], [ 11.3430589, 51.0000465 ], [ 11.3430172, 51.0000607 ], [ 11.3429232, 51.0001029 ], [ 11.3429073, 51.0001206 ], [ 11.3428768, 51.0001254 ], [ 11.3428464, 51.00013 ], [ 11.3428067, 51.0001431 ], [ 11.3427709, 51.0001741 ], [ 11.3426961, 51.0002093 ], [ 11.3426214, 51.0002445 ], [ 11.3426083, 51.0002536 ], [ 11.342595, 51.0002626 ], [ 11.3425553, 51.0002798 ], [ 11.3424908, 51.0003128 ], [ 11.3424263, 51.0003459 ], [ 11.3423803, 51.0003579 ], [ 11.3423313, 51.0003826 ], [ 11.3423158, 51.0003952 ], [ 11.3423002, 51.0004077 ], [ 11.3422666, 51.0004205 ], [ 11.3422332, 51.0004332 ], [ 11.3421856, 51.0004653 ], [ 11.3421379, 51.0004973 ], [ 11.3420982, 51.0005143 ], [ 11.3420582, 51.0005314 ], [ 11.3420104, 51.0005609 ], [ 11.3419646, 51.0005769 ], [ 11.3419187, 51.0005929 ], [ 11.3419074, 51.0006042 ], [ 11.341896, 51.0006156 ], [ 11.3418439, 51.0006542 ], [ 11.3418064, 51.0006539 ], [ 11.3417952, 51.0006539 ], [ 11.341767, 51.000658 ], [ 11.3417297, 51.0006672 ], [ 11.341716, 51.000686 ], [ 11.3416971, 51.0007113 ], [ 11.3416785, 51.0007368 ], [ 11.3416333, 51.0007488 ], [ 11.3415883, 51.0007607 ], [ 11.3414893, 51.0008184 ], [ 11.3413904, 51.0008761 ], [ 11.3413714, 51.0008972 ], [ 11.3413301, 51.0009206 ], [ 11.3412888, 51.0009441 ], [ 11.3412194, 51.0009776 ], [ 11.3411538, 51.0010201 ], [ 11.3411399, 51.0010292 ], [ 11.341105, 51.0010483 ], [ 11.3410542, 51.0010743 ], [ 11.3410166, 51.0010975 ], [ 11.340979, 51.0011208 ], [ 11.340914, 51.0011544 ], [ 11.3408805, 51.0011667 ], [ 11.3408472, 51.0011789 ], [ 11.3407592, 51.0012057 ], [ 11.3407314, 51.0012238 ], [ 11.3407036, 51.0012419 ], [ 11.3406727, 51.0012578 ], [ 11.3406417, 51.0012736 ], [ 11.340614, 51.001294 ], [ 11.3405906, 51.0013175 ], [ 11.3405673, 51.001341 ], [ 11.3405449, 51.0013494 ], [ 11.3405218, 51.0013514 ], [ 11.3405062, 51.0013645 ], [ 11.3404906, 51.0013692 ], [ 11.3404475, 51.0013859 ], [ 11.3404201, 51.0013981 ], [ 11.3403784, 51.0014077 ], [ 11.3403367, 51.0014173 ], [ 11.3402903, 51.0014306 ], [ 11.3402546, 51.0014376 ], [ 11.340219, 51.0014445 ], [ 11.3402009, 51.0014595 ], [ 11.3401638, 51.0014779 ], [ 11.3401268, 51.0014963 ], [ 11.3399407, 51.0015938 ], [ 11.3397546, 51.0016911 ], [ 11.3396425, 51.0017498 ], [ 11.3395306, 51.0018084 ], [ 11.3395092, 51.0018254 ], [ 11.3394878, 51.0018423 ], [ 11.3394611, 51.0018634 ], [ 11.3394393, 51.0018732 ], [ 11.3393911, 51.0019005 ], [ 11.3393429, 51.0019279 ], [ 11.3393023, 51.001951 ], [ 11.3392617, 51.001974 ], [ 11.3392332, 51.0019971 ], [ 11.3392014, 51.0020221 ], [ 11.3391268, 51.0020611 ], [ 11.3390555, 51.0020983 ], [ 11.3390326, 51.0021034 ], [ 11.3390094, 51.0021086 ], [ 11.3389857, 51.0021288 ], [ 11.3389619, 51.002149 ], [ 11.3389283, 51.002164 ], [ 11.3389043, 51.0021796 ], [ 11.3388535, 51.0022125 ], [ 11.3387471, 51.0022712 ], [ 11.3386407, 51.0023298 ], [ 11.3385801, 51.002372 ], [ 11.3385194, 51.0024143 ], [ 11.3384992, 51.0024236 ], [ 11.338479, 51.0024329 ], [ 11.338433, 51.002452 ], [ 11.3384237, 51.0024695 ], [ 11.3384144, 51.0024871 ], [ 11.3383673, 51.0025047 ], [ 11.33832, 51.0025224 ], [ 11.3383045, 51.0025356 ], [ 11.3382889, 51.0025487 ], [ 11.3382675, 51.0025558 ], [ 11.3382459, 51.002563 ], [ 11.338207, 51.0026007 ], [ 11.338168, 51.0026382 ], [ 11.3381272, 51.0026594 ], [ 11.3380862, 51.0026804 ], [ 11.3380324, 51.0027165 ], [ 11.3379722, 51.0027395 ], [ 11.3379397, 51.0027475 ], [ 11.3379203, 51.002763 ], [ 11.3379008, 51.0027786 ], [ 11.3378545, 51.0028069 ], [ 11.337808, 51.0028351 ], [ 11.3377293, 51.002883 ], [ 11.3376973, 51.002908 ], [ 11.3376451, 51.0029576 ], [ 11.337593, 51.0030072 ], [ 11.3374804, 51.0030612 ], [ 11.3373916, 51.0031325 ], [ 11.3373027, 51.0032036 ], [ 11.3372431, 51.0032429 ], [ 11.3371973, 51.003283 ], [ 11.3371353, 51.0033143 ], [ 11.3370844, 51.0033655 ], [ 11.3369956, 51.0034252 ], [ 11.336957, 51.0034678 ], [ 11.336896, 51.0034925 ], [ 11.3368043, 51.0035202 ], [ 11.3366893, 51.0035746 ], [ 11.3366438, 51.0035887 ], [ 11.3365823, 51.003585 ], [ 11.3365307, 51.0035992 ], [ 11.3364688, 51.0036068 ], [ 11.3364257, 51.0036092 ], [ 11.3363828, 51.0036115 ], [ 11.3362755, 51.0036373 ], [ 11.3361681, 51.0036631 ], [ 11.3361119, 51.0036709 ], [ 11.3360785, 51.0036786 ], [ 11.3360558, 51.0036802 ], [ 11.33598, 51.0036855 ], [ 11.3359251, 51.003698 ], [ 11.335839, 51.0037086 ], [ 11.3357753, 51.0037197 ], [ 11.3357472, 51.0037195 ], [ 11.3357192, 51.0037192 ], [ 11.3357155, 51.0037269 ], [ 11.3356955, 51.0037241 ], [ 11.3356681, 51.0037339 ], [ 11.3356409, 51.0037374 ], [ 11.3356135, 51.0037409 ], [ 11.3355651, 51.0037434 ], [ 11.3354982, 51.0037547 ], [ 11.3354315, 51.0037659 ], [ 11.3353978, 51.0037771 ], [ 11.3353764, 51.0037757 ], [ 11.3353563, 51.0037767 ], [ 11.3353361, 51.0037777 ], [ 11.3352636, 51.0037891 ], [ 11.335191, 51.0038005 ], [ 11.3350301, 51.0037892 ], [ 11.3349091, 51.0037813 ], [ 11.3347881, 51.0037733 ], [ 11.3346911, 51.0037641 ], [ 11.3346439, 51.0037563 ], [ 11.3345967, 51.0037486 ], [ 11.3344582, 51.0037362 ], [ 11.3343198, 51.0037237 ], [ 11.3342443, 51.0037305 ], [ 11.3341689, 51.0037372 ], [ 11.3341211, 51.003744 ], [ 11.3340959, 51.0037422 ], [ 11.334033, 51.0037506 ], [ 11.3339814, 51.0037614 ], [ 11.3339388, 51.0037619 ], [ 11.3338644, 51.0037742 ], [ 11.3337651, 51.0037838 ], [ 11.333764, 51.0037945 ], [ 11.333764, 51.0037947 ], [ 11.3336149, 51.0037932 ], [ 11.3334821, 51.0038104 ], [ 11.332787, 51.0039663 ], [ 11.3319934, 51.0038861 ], [ 11.3311812, 51.0041166 ], [ 11.3297665, 51.0044227 ], [ 11.3285622, 51.0046559 ], [ 11.3269168, 51.0049874 ], [ 11.3251326, 51.0056909 ], [ 11.3234815, 51.0050432 ], [ 11.3191654, 51.0051693 ], [ 11.3173848, 51.0073321 ], [ 11.3158758, 51.0098112 ], [ 11.3158451, 51.0108089 ], [ 11.316227, 51.0110488 ], [ 11.3169288, 51.0113854 ], [ 11.3173922, 51.0115497 ], [ 11.3178087, 51.0116282 ], [ 11.3181619, 51.0116398 ], [ 11.319192, 51.0114937 ], [ 11.3199504, 51.011251 ], [ 11.3206999, 51.0107928 ], [ 11.3205711, 51.0216943 ], [ 11.3197299, 51.0226098 ], [ 11.3188887, 51.0235252 ], [ 11.3188121, 51.0239222 ], [ 11.3183052, 51.0242373 ], [ 11.3170242, 51.0247318 ], [ 11.3170212, 51.0247344 ], [ 11.3169938, 51.024745 ], [ 11.3160845, 51.0255655 ], [ 11.3151751, 51.0263859 ], [ 11.3135185, 51.0254934 ], [ 11.3135653, 51.0253192 ], [ 11.3121833, 51.0245826 ], [ 11.3108014, 51.023846 ], [ 11.3102095, 51.0235451 ], [ 11.3101144, 51.0234951 ], [ 11.3094275, 51.0231443 ], [ 11.307695, 51.0222036 ], [ 11.3069238, 51.021789 ], [ 11.3053398, 51.0209098 ], [ 11.3032719, 51.0186733 ], [ 11.3031568, 51.0186745 ], [ 11.3030418, 51.0186756 ], [ 11.3029536, 51.018523 ], [ 11.3035729, 51.0172698 ], [ 11.3036909, 51.0170421 ], [ 11.304165, 51.0160875 ], [ 11.304048, 51.0160678 ], [ 11.3024919, 51.0157669 ], [ 11.2996119, 51.0152158 ], [ 11.296732, 51.0146646 ], [ 11.2965088, 51.0146159 ], [ 11.295037, 51.0142311 ], [ 11.2930319, 51.0137184 ], [ 11.2920488, 51.013588 ], [ 11.2910658, 51.0134577 ], [ 11.2897897, 51.0132796 ], [ 11.2885134, 51.0131015 ], [ 11.2876295, 51.0129775 ], [ 11.2867455, 51.0128534 ], [ 11.2862423, 51.0127637 ], [ 11.2858752, 51.0126984 ], [ 11.2851522, 51.0126113 ], [ 11.2846593, 51.0125996 ], [ 11.2841401, 51.0125879 ], [ 11.2874077, 51.0112212 ], [ 11.2876192, 51.0110934 ], [ 11.2877312, 51.0109315 ], [ 11.2876124, 51.0109541 ], [ 11.2871162, 51.0109725 ], [ 11.2880747, 51.0100144 ], [ 11.2891136, 51.0089757 ], [ 11.2894958, 51.0084887 ], [ 11.289878, 51.0080016 ], [ 11.2905996, 51.0070583 ], [ 11.2913213, 51.0061149 ], [ 11.2922744, 51.0047834 ], [ 11.2932272, 51.0034517 ], [ 11.2925541, 51.0032955 ], [ 11.2933546, 51.0022194 ], [ 11.2941549, 51.0011433 ], [ 11.2948146, 51.0003609 ], [ 11.2954741, 50.9995785 ], [ 11.2958772, 50.9996116 ], [ 11.2959333, 50.9995662 ], [ 11.2959567, 50.9991883 ], [ 11.2959802, 50.9988106 ], [ 11.2960394, 50.9984134 ], [ 11.2961029, 50.9980275 ], [ 11.2961664, 50.9976416 ], [ 11.2962438, 50.9972176 ], [ 11.2962903, 50.996953 ], [ 11.2970164, 50.9974506 ], [ 11.2978941, 50.9981284 ], [ 11.2986243, 50.9985689 ], [ 11.2996027, 50.9990528 ], [ 11.3003705, 50.9993622 ], [ 11.3012565, 50.9996091 ], [ 11.3009724, 51.0001757 ], [ 11.3006739, 51.0001319 ], [ 11.3005177, 51.0010986 ], [ 11.3025385, 51.0014954 ], [ 11.3027431, 51.0010391 ], [ 11.3028315, 51.0004559 ], [ 11.3126615, 51.0024945 ], [ 11.3139218, 51.0010858 ], [ 11.3157784, 50.9996668 ], [ 11.3157506, 50.9996608 ], [ 11.3157587, 50.9996548 ], [ 11.3162479, 50.9997527 ], [ 11.3167372, 50.9998505 ], [ 11.316742, 50.9998483 ], [ 11.3169356, 50.9998848 ], [ 11.3207127, 50.999785 ], [ 11.3206868, 50.9986985 ], [ 11.3215419, 50.9986681 ], [ 11.3215316, 50.9974564 ], [ 11.3206206, 50.9974688 ], [ 11.3205965, 50.9972033 ], [ 11.3212043, 50.9956994 ], [ 11.3212614, 50.9950391 ], [ 11.3212603, 50.995039 ], [ 11.3212625, 50.9950204 ], [ 11.3213327, 50.9947739 ], [ 11.3214029, 50.9945273 ], [ 11.3215297, 50.9940429 ], [ 11.3216563, 50.9935584 ], [ 11.3211525, 50.9935645 ], [ 11.3210186, 50.9935697 ], [ 11.3213231, 50.9930015 ], [ 11.3214116, 50.9928302 ], [ 11.3215495, 50.9925414 ], [ 11.322038, 50.9916674 ], [ 11.3223464, 50.9916651 ], [ 11.324673, 50.991735 ], [ 11.3284421, 50.9916177 ], [ 11.331379, 50.9911154 ], [ 11.3337268, 50.9911472 ], [ 11.3385017, 50.9913531 ], [ 11.3423562, 50.9924421 ], [ 11.3420243, 50.9929121 ], [ 11.3425707, 50.9934026 ], [ 11.3428226, 50.9938233 ], [ 11.3427987, 50.9938499 ], [ 11.3428951, 50.9941357 ], [ 11.3428772, 50.9944936 ], [ 11.3427702, 50.9947749 ], [ 11.3421379, 50.9958045 ], [ 11.345396, 50.9966073 ], [ 11.3462052, 50.9971319 ] ] ] } },
{ "type": "Feature", "properties": { "ortsteil": "Innenstadt", "art": "Stadtteil", "ort": "Weimar", "VG": null, "ERF_GMD": null, "LK": "Weimar", "webseite": "https://www.weimar.de/", "CEWLink": "https://geomis.geoportal-th.de/geonetwork/srv/ger/catalog.search#/metadata/5500008b-db13-4b76-90cf-151820ebfed2", "ags": "16055000", "satzung": "https://stadt.weimar.de/de/ortsrecht.html", "GMK": null }, "geometry": { "type": "Polygon", "coordinates": [ [ [ 11.3152972, 50.9848693 ], [ 11.3138587, 50.98455 ], [ 11.3108015, 50.9841064 ], [ 11.310708, 50.9842517 ], [ 11.3101002, 50.985023 ], [ 11.3098818, 50.9848904 ], [ 11.3096634, 50.9847579 ], [ 11.3096126, 50.9847378 ], [ 11.3091464, 50.9844652 ], [ 11.3083846, 50.9839369 ], [ 11.3080749, 50.983417 ], [ 11.3079604, 50.9830308 ], [ 11.3079293, 50.9828557 ], [ 11.3079637, 50.9824801 ], [ 11.3080846, 50.9821163 ], [ 11.3084081, 50.9817082 ], [ 11.3088172, 50.9813632 ], [ 11.3093218, 50.98107 ], [ 11.3099407, 50.9808517 ], [ 11.3108482, 50.9806348 ], [ 11.3119355, 50.9806128 ], [ 11.3123795, 50.9805129 ], [ 11.3134769, 50.9804567 ], [ 11.3135385, 50.9803112 ], [ 11.3136608, 50.9797942 ], [ 11.3142464, 50.9770714 ], [ 11.3141926, 50.9770125 ], [ 11.3141182, 50.9765098 ], [ 11.3132225, 50.9750941 ], [ 11.320614, 50.9732486 ], [ 11.3213157, 50.9733903 ], [ 11.3197538, 50.9723897 ], [ 11.3184154, 50.9715917 ], [ 11.3181439, 50.9713607 ], [ 11.3181075, 50.9710851 ], [ 11.3182295, 50.9710298 ], [ 11.3189252, 50.9709981 ], [ 11.3201383, 50.9709644 ], [ 11.3210613, 50.9708729 ], [ 11.3225337, 50.9707948 ], [ 11.3241773, 50.9734045 ], [ 11.3251097, 50.9747949 ], [ 11.3251405, 50.9747831 ], [ 11.325449, 50.9747015 ], [ 11.325505, 50.9746839 ], [ 11.3258573, 50.9746042 ], [ 11.3264066, 50.9745307 ], [ 11.3270103, 50.9744628 ], [ 11.3269256, 50.9742342 ], [ 11.3268214, 50.9738914 ], [ 11.3267171, 50.9735487 ], [ 11.3267177, 50.9735112 ], [ 11.3266012, 50.9730594 ], [ 11.3264163, 50.972361 ], [ 11.3263152, 50.9719881 ], [ 11.3261645, 50.9715739 ], [ 11.3260138, 50.9711598 ], [ 11.3260143, 50.9711221 ], [ 11.325882, 50.970729 ], [ 11.3257356, 50.9702938 ], [ 11.3258313, 50.9702734 ], [ 11.3269031, 50.970792 ], [ 11.3279747, 50.9713105 ], [ 11.3281201, 50.9713216 ], [ 11.3296209, 50.9720847 ], [ 11.3311216, 50.9728479 ], [ 11.3315322, 50.9730169 ], [ 11.3323239, 50.9722334 ], [ 11.3329857, 50.9715687 ], [ 11.3344462, 50.9700705 ], [ 11.3359064, 50.9685725 ], [ 11.3366973, 50.967774 ], [ 11.3374882, 50.9669754 ], [ 11.3386913, 50.9671743 ], [ 11.3400989, 50.967409 ], [ 11.3400272, 50.9676282 ], [ 11.3400519, 50.9678193 ], [ 11.3400294, 50.9679575 ], [ 11.3398479, 50.9681639 ], [ 11.3391241, 50.9683467 ], [ 11.3387769, 50.9686132 ], [ 11.3386265, 50.9690474 ], [ 11.3385454, 50.9694372 ], [ 11.3386851, 50.9697592 ], [ 11.3390787, 50.9700948 ], [ 11.3390974, 50.9702291 ], [ 11.3389771, 50.9704764 ], [ 11.3385303, 50.9709821 ], [ 11.3384102, 50.9713413 ], [ 11.3382901, 50.9717004 ], [ 11.3381699, 50.9720595 ], [ 11.3380498, 50.9724187 ], [ 11.337788, 50.972958 ], [ 11.3377293, 50.9732219 ], [ 11.3391447, 50.9731933 ], [ 11.3391197, 50.9734977 ], [ 11.3388964, 50.9742285 ], [ 11.3408312, 50.9743859 ], [ 11.3410142, 50.9740859 ], [ 11.3415298, 50.9740482 ], [ 11.3431099, 50.9740367 ], [ 11.3440717, 50.9740339 ], [ 11.3444796, 50.9720327 ], [ 11.3467202, 50.9723775 ], [ 11.3463715, 50.9726165 ], [ 11.3453569, 50.9735069 ], [ 11.3449367, 50.9740794 ], [ 11.3446067, 50.9745818 ], [ 11.3443856, 50.9751539 ], [ 11.3442924, 50.9754299 ], [ 11.3442139, 50.9761288 ], [ 11.344141, 50.9774093 ], [ 11.344093, 50.9783768 ], [ 11.344045, 50.9793442 ], [ 11.344291, 50.9794351 ], [ 11.3469708, 50.9799096 ], [ 11.3500108, 50.9796746 ], [ 11.3512104, 50.97943 ], [ 11.3516095, 50.9794017 ], [ 11.3520087, 50.9793735 ], [ 11.3543881, 50.9793866 ], [ 11.3572137, 50.9796992 ], [ 11.3606035, 50.9801366 ], [ 11.3648397, 50.980769 ], [ 11.3664715, 50.9808997 ], [ 11.3684209, 50.981329 ], [ 11.3689341, 50.9814308 ], [ 11.3705317, 50.9812414 ], [ 11.3695786, 50.9824791 ], [ 11.3699447, 50.982813 ], [ 11.3700888, 50.983002 ], [ 11.370233, 50.983191 ], [ 11.3702948, 50.9833246 ], [ 11.3703566, 50.9834581 ], [ 11.3703696, 50.9835832 ], [ 11.3703829, 50.9837084 ], [ 11.3703204, 50.9839618 ], [ 11.3701744, 50.984168 ], [ 11.3700284, 50.9843743 ], [ 11.3699866, 50.984432 ], [ 11.3699456, 50.98449 ], [ 11.3699052, 50.9845481 ], [ 11.3698656, 50.9846065 ], [ 11.3698267, 50.984665 ], [ 11.3697884, 50.9847237 ], [ 11.3697509, 50.9847826 ], [ 11.369714, 50.9848417 ], [ 11.3696779, 50.9849009 ], [ 11.3696658, 50.9849211 ], [ 11.3696658, 50.9849211 ], [ 11.3695233, 50.9850296 ], [ 11.3695047, 50.98504 ], [ 11.3694961, 50.9850445 ], [ 11.3693395, 50.9851095 ], [ 11.3693173, 50.9851163 ], [ 11.3692947, 50.9851227 ], [ 11.3692719, 50.9851286 ], [ 11.3692701, 50.9851291 ], [ 11.3692208, 50.9851401 ], [ 11.3691968, 50.9851447 ], [ 11.3691725, 50.9851488 ], [ 11.3691481, 50.9851525 ], [ 11.3691235, 50.9851556 ], [ 11.3690988, 50.9851583 ], [ 11.3690739, 50.9851606 ], [ 11.3690606, 50.9851616 ], [ 11.3688301, 50.9851566 ], [ 11.3688054, 50.9851536 ], [ 11.3687809, 50.9851501 ], [ 11.3687565, 50.9851461 ], [ 11.3687323, 50.9851416 ], [ 11.3687084, 50.9851367 ], [ 11.3686973, 50.9851343 ], [ 11.3686779, 50.9851303 ], [ 11.3686582, 50.9851267 ], [ 11.3686383, 50.9851236 ], [ 11.3686183, 50.9851209 ], [ 11.3685981, 50.9851187 ], [ 11.3685778, 50.985117 ], [ 11.3685575, 50.9851158 ], [ 11.368537, 50.9851151 ], [ 11.3685166, 50.9851148 ], [ 11.3684961, 50.985115 ], [ 11.3684757, 50.9851157 ], [ 11.3684553, 50.9851169 ], [ 11.368435, 50.9851185 ], [ 11.3684148, 50.9851206 ], [ 11.3683947, 50.9851232 ], [ 11.3683748, 50.9851263 ], [ 11.3683551, 50.9851298 ], [ 11.3683357, 50.9851338 ], [ 11.3683164, 50.9851382 ], [ 11.3682975, 50.9851431 ], [ 11.3682788, 50.9851484 ], [ 11.3682605, 50.9851542 ], [ 11.3682425, 50.9851603 ], [ 11.3682249, 50.9851669 ], [ 11.3682077, 50.9851739 ], [ 11.368191, 50.9851813 ], [ 11.3681746, 50.9851891 ], [ 11.3681588, 50.9851973 ], [ 11.3681434, 50.9852058 ], [ 11.3681286, 50.9852147 ], [ 11.3681142, 50.985224 ], [ 11.3681073, 50.9852287 ], [ 11.3679321, 50.9854089 ], [ 11.3677901, 50.9856045 ], [ 11.3676237, 50.9858101 ], [ 11.3670026, 50.9856455 ], [ 11.3660241, 50.985452 ], [ 11.3650454, 50.9852586 ], [ 11.3644707, 50.9850998 ], [ 11.3638958, 50.984941 ], [ 11.3635919, 50.9851113 ], [ 11.3631887, 50.9852692 ], [ 11.3628464, 50.9853261 ], [ 11.3623697, 50.985343 ], [ 11.3618497, 50.9853125 ], [ 11.3614566, 50.9852516 ], [ 11.3611927, 50.9852078 ], [ 11.3608568, 50.9852093 ], [ 11.3605748, 50.9852827 ], [ 11.3602052, 50.9853263 ], [ 11.3600511, 50.9853173 ], [ 11.3597209, 50.9852894 ], [ 11.359243, 50.9851971 ], [ 11.3590402, 50.9851308 ], [ 11.3589191, 50.9851236 ], [ 11.3586819, 50.9851484 ], [ 11.358527, 50.9851997 ], [ 11.3582089, 50.985498 ], [ 11.3579783, 50.9856704 ], [ 11.3576346, 50.9858046 ], [ 11.3573351, 50.9859432 ], [ 11.3571771, 50.9860271 ], [ 11.3570704, 50.9861765 ], [ 11.35705, 50.9864471 ], [ 11.3569811, 50.9866553 ], [ 11.3568467, 50.9868209 ], [ 11.3565734, 50.9870607 ], [ 11.3563001, 50.9873004 ], [ 11.3563857, 50.9875521 ], [ 11.3563775, 50.988149 ], [ 11.3566628, 50.9887849 ], [ 11.3567765, 50.9889003 ], [ 11.3573035, 50.9891661 ], [ 11.3578306, 50.9894318 ], [ 11.3558935, 50.990099 ], [ 11.3543422, 50.9906318 ], [ 11.3546011, 50.9903402 ], [ 11.3547071, 50.9900358 ], [ 11.3546753, 50.9895765 ], [ 11.354361, 50.9888988 ], [ 11.3541907, 50.9883408 ], [ 11.3539717, 50.9880723 ], [ 11.3535582, 50.9877144 ], [ 11.3532204, 50.9873023 ], [ 11.3527675, 50.9869498 ], [ 11.3521118, 50.9865396 ], [ 11.3508099, 50.9861605 ], [ 11.350068, 50.9860096 ], [ 11.3496861, 50.9860376 ], [ 11.3485185, 50.9864295 ], [ 11.3476645, 50.9865564 ], [ 11.3469307, 50.9867406 ], [ 11.3459387, 50.9869637 ], [ 11.3444791, 50.9872077 ], [ 11.3437816, 50.9871736 ], [ 11.3423461, 50.9870563 ], [ 11.3412082, 50.9870424 ], [ 11.3402386, 50.9870444 ], [ 11.3393058, 50.9869037 ], [ 11.3385564, 50.986843 ], [ 11.338256, 50.9869467 ], [ 11.3378783, 50.9871252 ], [ 11.3370934, 50.9870833 ], [ 11.3362243, 50.9869315 ], [ 11.3356721, 50.9868644 ], [ 11.3352484, 50.9868097 ], [ 11.3346788, 50.9866182 ], [ 11.3343318, 50.9864281 ], [ 11.3341331, 50.9861908 ], [ 11.3337349, 50.9856024 ], [ 11.3333738, 50.9850622 ], [ 11.3329996, 50.9845444 ], [ 11.3316238, 50.9851538 ], [ 11.3313006, 50.9851042 ], [ 11.3295702, 50.9847838 ], [ 11.3286311, 50.9845972 ], [ 11.3277239, 50.984492 ], [ 11.3268167, 50.9843868 ], [ 11.3261188, 50.9841994 ], [ 11.3258026, 50.9842073 ], [ 11.3244506, 50.9845112 ], [ 11.3239798, 50.9847647 ], [ 11.3236274, 50.984784 ], [ 11.32142, 50.985228 ], [ 11.3210074, 50.9852693 ], [ 11.3198228, 50.9853846 ], [ 11.3189898, 50.9854497 ], [ 11.3188099, 50.9854601 ], [ 11.3178004, 50.9854206 ], [ 11.3173777, 50.9853312 ], [ 11.3152972, 50.9848693 ] ] ] } },
{ "type": "Feature", "properties": { "ortsteil": "Nördliche Innenstadt", "art": "Stadtteil", "ort": "Weimar", "VG": null, "ERF_GMD": null, "LK": "Weimar", "webseite": "https://www.weimar.de/", "CEWLink": "https://geomis.geoportal-th.de/geonetwork/srv/ger/catalog.search#/metadata/5500008b-db13-4b76-90cf-151820ebfed2", "ags": "16055000", "satzung": "https://stadt.weimar.de/de/ortsrecht.html", "GMK": null }, "geometry": { "type": "Polygon", "coordinates": [ [ [ 11.3258026, 50.9842073 ], [ 11.3261188, 50.9841994 ], [ 11.3268167, 50.9843868 ], [ 11.3277239, 50.984492 ], [ 11.3286311, 50.9845972 ], [ 11.3295702, 50.9847838 ], [ 11.3313006, 50.9851042 ], [ 11.3316238, 50.9851538 ], [ 11.3329996, 50.9845444 ], [ 11.3333738, 50.9850622 ], [ 11.3337349, 50.9856024 ], [ 11.3341331, 50.9861908 ], [ 11.3343318, 50.9864281 ], [ 11.3346788, 50.9866182 ], [ 11.3352484, 50.9868097 ], [ 11.3356721, 50.9868644 ], [ 11.3362243, 50.9869315 ], [ 11.3370934, 50.9870833 ], [ 11.3378783, 50.9871252 ], [ 11.338256, 50.9869467 ], [ 11.3385564, 50.986843 ], [ 11.3393058, 50.9869037 ], [ 11.3402386, 50.9870444 ], [ 11.3412082, 50.9870424 ], [ 11.3423461, 50.9870563 ], [ 11.3437816, 50.9871736 ], [ 11.3444791, 50.9872077 ], [ 11.3459387, 50.9869637 ], [ 11.3469307, 50.9867406 ], [ 11.3476645, 50.9865564 ], [ 11.3485185, 50.9864295 ], [ 11.3496861, 50.9860376 ], [ 11.350068, 50.9860096 ], [ 11.3508099, 50.9861605 ], [ 11.3521118, 50.9865396 ], [ 11.3527675, 50.9869498 ], [ 11.3532204, 50.9873023 ], [ 11.3535582, 50.9877144 ], [ 11.3539717, 50.9880723 ], [ 11.3541907, 50.9883408 ], [ 11.354361, 50.9888988 ], [ 11.3546753, 50.9895765 ], [ 11.3547071, 50.9900358 ], [ 11.3546011, 50.9903402 ], [ 11.3543422, 50.9906318 ], [ 11.3539564, 50.9907661 ], [ 11.3536434, 50.9908404 ], [ 11.3534851, 50.991164 ], [ 11.3533147, 50.9916526 ], [ 11.3531926, 50.9921359 ], [ 11.3529884, 50.9922885 ], [ 11.3526135, 50.9924185 ], [ 11.3520663, 50.9926147 ], [ 11.3515192, 50.992811 ], [ 11.350852, 50.9930663 ], [ 11.3501847, 50.9933216 ], [ 11.3498507, 50.9934707 ], [ 11.3495168, 50.9936197 ], [ 11.3492162, 50.9937973 ], [ 11.3489155, 50.993975 ], [ 11.348288, 50.9945191 ], [ 11.3481072, 50.9946878 ], [ 11.3477547, 50.9951299 ], [ 11.3473787, 50.9956805 ], [ 11.347295, 50.9960934 ], [ 11.3471148, 50.9961739 ], [ 11.3470882, 50.9961874 ], [ 11.3455119, 50.9948291 ], [ 11.3423562, 50.9924421 ], [ 11.3385017, 50.9913531 ], [ 11.3337268, 50.9911472 ], [ 11.331379, 50.9911154 ], [ 11.3284421, 50.9916177 ], [ 11.324673, 50.991735 ], [ 11.3223464, 50.9916651 ], [ 11.3212316, 50.991674 ], [ 11.3186302, 50.9917037 ], [ 11.3164735, 50.9916499 ], [ 11.3154966, 50.9915161 ], [ 11.3147801, 50.9913438 ], [ 11.3145594, 50.9912532 ], [ 11.3141361, 50.9910668 ], [ 11.3133621, 50.9907366 ], [ 11.3129221, 50.9904818 ], [ 11.3125264, 50.9902221 ], [ 11.3121771, 50.9899076 ], [ 11.3119605, 50.9895491 ], [ 11.311875, 50.9893226 ], [ 11.311723, 50.9888016 ], [ 11.3116662, 50.9884404 ], [ 11.3115503, 50.9878722 ], [ 11.3114441, 50.9872463 ], [ 11.3112681, 50.9865413 ], [ 11.3110031, 50.9858567 ], [ 11.3106807, 50.9854502 ], [ 11.3101002, 50.985023 ], [ 11.310708, 50.9842517 ], [ 11.3108015, 50.9841064 ], [ 11.3138587, 50.98455 ], [ 11.3173777, 50.9853312 ], [ 11.3178004, 50.9854206 ], [ 11.3188099, 50.9854601 ], [ 11.3189898, 50.9854497 ], [ 11.3198228, 50.9853846 ], [ 11.3210074, 50.9852693 ], [ 11.32142, 50.985228 ], [ 11.3236274, 50.984784 ], [ 11.3239798, 50.9847647 ], [ 11.3244506, 50.9845112 ], [ 11.3258026, 50.9842073 ] ] ] } },
{ "type": "Feature", "properties": { "ortsteil": "Südstadt", "art": "Stadtteil", "ort": "Weimar", "VG": null, "ERF_GMD": null, "LK": "Weimar", "webseite": "https://www.weimar.de/", "CEWLink": "https://geomis.geoportal-th.de/geonetwork/srv/ger/catalog.search#/metadata/5500008b-db13-4b76-90cf-151820ebfed2", "ags": "16055000", "satzung": "https://stadt.weimar.de/de/ortsrecht.html", "GMK": null }, "geometry": { "type": "Polygon", "coordinates": [ [ [ 11.3104379, 50.952279 ], [ 11.3103738, 50.9520567 ], [ 11.3104197, 50.951082 ], [ 11.310374, 50.9500489 ], [ 11.3100207, 50.9500308 ], [ 11.3102071, 50.9474645 ], [ 11.3103848, 50.9460127 ], [ 11.3127739, 50.9461984 ], [ 11.314242, 50.9466104 ], [ 11.3166271, 50.946924 ], [ 11.3192589, 50.9471145 ], [ 11.319276, 50.9469306 ], [ 11.3215987, 50.947111 ], [ 11.3227823, 50.9471521 ], [ 11.325792, 50.9474353 ], [ 11.3259144, 50.9469697 ], [ 11.3287646, 50.9471572 ], [ 11.3286454, 50.9484059 ], [ 11.3289265, 50.9484141 ], [ 11.3288205, 50.951296 ], [ 11.3285138, 50.953547 ], [ 11.3281525, 50.9550489 ], [ 11.3278842, 50.956153 ], [ 11.3278358, 50.9566689 ], [ 11.3276862, 50.9578803 ], [ 11.3275375, 50.9583366 ], [ 11.3274069, 50.9589854 ], [ 11.3273535, 50.9595932 ], [ 11.3273421, 50.96039 ], [ 11.3272651, 50.9608618 ], [ 11.3269763, 50.9614228 ], [ 11.3266899, 50.9618216 ], [ 11.3266615, 50.9620178 ], [ 11.3266977, 50.9621615 ], [ 11.3272887, 50.9627617 ], [ 11.3272679, 50.9628749 ], [ 11.3273471, 50.9631321 ], [ 11.3276117, 50.963364 ], [ 11.3280543, 50.9640917 ], [ 11.3282249, 50.9641947 ], [ 11.3283772, 50.9642522 ], [ 11.3284718, 50.9643321 ], [ 11.3285072, 50.9645287 ], [ 11.3286326, 50.9646805 ], [ 11.3288732, 50.9648065 ], [ 11.3294515, 50.9649685 ], [ 11.3298908, 50.9650276 ], [ 11.330688, 50.9650511 ], [ 11.3311339, 50.9651027 ], [ 11.3315089, 50.9651918 ], [ 11.3318517, 50.9653108 ], [ 11.3321299, 50.9654899 ], [ 11.3324506, 50.9658128 ], [ 11.3328358, 50.9660982 ], [ 11.3335623, 50.9666009 ], [ 11.3348364, 50.9667366 ], [ 11.3374882, 50.9669754 ], [ 11.3366973, 50.967774 ], [ 11.3359064, 50.9685725 ], [ 11.3344462, 50.9700705 ], [ 11.3329857, 50.9715687 ], [ 11.3323239, 50.9722334 ], [ 11.3315322, 50.9730169 ], [ 11.3311216, 50.9728479 ], [ 11.3296209, 50.9720847 ], [ 11.3281201, 50.9713216 ], [ 11.3279747, 50.9713105 ], [ 11.3269031, 50.970792 ], [ 11.3258313, 50.9702734 ], [ 11.3257356, 50.9702938 ], [ 11.325882, 50.970729 ], [ 11.3252019, 50.9704034 ], [ 11.3242771, 50.9698678 ], [ 11.323767, 50.96882 ], [ 11.3228017, 50.967734 ], [ 11.3217719, 50.9662888 ], [ 11.3209584, 50.9652974 ], [ 11.3203046, 50.9650108 ], [ 11.3198433, 50.9646247 ], [ 11.3190099, 50.9642742 ], [ 11.3184941, 50.9637006 ], [ 11.3172244, 50.963264 ], [ 11.3164414, 50.9629849 ], [ 11.315972, 50.9626437 ], [ 11.3157092, 50.9625856 ], [ 11.3152408, 50.9624296 ], [ 11.3148912, 50.9622462 ], [ 11.3146228, 50.9620846 ], [ 11.3143775, 50.9619544 ], [ 11.3137188, 50.961393 ], [ 11.3133424, 50.9610919 ], [ 11.3129038, 50.9607236 ], [ 11.3118162, 50.959318 ], [ 11.3108642, 50.9592612 ], [ 11.3099464, 50.9591802 ], [ 11.3096864, 50.9591454 ], [ 11.3097187, 50.9590636 ], [ 11.3099168, 50.9590836 ], [ 11.3101828, 50.9578299 ], [ 11.3103242, 50.9573895 ], [ 11.3103389, 50.9569196 ], [ 11.3103693, 50.9553511 ], [ 11.3099035, 50.9549311 ], [ 11.3099784, 50.954372 ], [ 11.3104379, 50.952279 ] ] ] } },
{ "type": "Feature", "properties": { "ortsteil": "Südweststadt", "art": "Stadtteil", "ort": "Weimar", "VG": null, "ERF_GMD": null, "LK": "Weimar", "webseite": "https://www.weimar.de/", "CEWLink": "https://geomis.geoportal-th.de/geonetwork/srv/ger/catalog.search#/metadata/5500008b-db13-4b76-90cf-151820ebfed2", "ags": "16055000", "satzung": "https://stadt.weimar.de/de/ortsrecht.html", "GMK": null }, "geometry": { "type": "Polygon", "coordinates": [ [ [ 11.3251097, 50.9747949 ], [ 11.3241773, 50.9734045 ], [ 11.3225337, 50.9707948 ], [ 11.3210613, 50.9708729 ], [ 11.3201383, 50.9709644 ], [ 11.3189252, 50.9709981 ], [ 11.3182295, 50.9710298 ], [ 11.3181075, 50.9710851 ], [ 11.3181439, 50.9713607 ], [ 11.3184154, 50.9715917 ], [ 11.3197538, 50.9723897 ], [ 11.3213157, 50.9733903 ], [ 11.320614, 50.9732486 ], [ 11.3132225, 50.9750941 ], [ 11.3141182, 50.9765098 ], [ 11.3141926, 50.9770125 ], [ 11.3142464, 50.9770714 ], [ 11.3136608, 50.9797942 ], [ 11.3135385, 50.9803112 ], [ 11.3134769, 50.9804567 ], [ 11.3123795, 50.9805129 ], [ 11.3119355, 50.9806128 ], [ 11.3108482, 50.9806348 ], [ 11.3099407, 50.9808517 ], [ 11.3093218, 50.98107 ], [ 11.3088172, 50.9813632 ], [ 11.3084081, 50.9817082 ], [ 11.3080846, 50.9821163 ], [ 11.3079637, 50.9824801 ], [ 11.3079293, 50.9828557 ], [ 11.3079604, 50.9830308 ], [ 11.3080749, 50.983417 ], [ 11.3083846, 50.9839369 ], [ 11.3091464, 50.9844652 ], [ 11.3096126, 50.9847378 ], [ 11.3094606, 50.9846779 ], [ 11.3092575, 50.9845979 ], [ 11.3090013, 50.9845202 ], [ 11.308745, 50.9844425 ], [ 11.3084705, 50.9843935 ], [ 11.3081961, 50.9843446 ], [ 11.30797, 50.9843354 ], [ 11.3077437, 50.9843262 ], [ 11.3074829, 50.9843376 ], [ 11.307222, 50.984349 ], [ 11.3069727, 50.9844026 ], [ 11.3067233, 50.9844563 ], [ 11.3064514, 50.9845441 ], [ 11.3061793, 50.9846317 ], [ 11.3058936, 50.9847404 ], [ 11.305608, 50.984849 ], [ 11.3053763, 50.9849107 ], [ 11.3051445, 50.9849724 ], [ 11.304643, 50.9850661 ], [ 11.3041414, 50.9851597 ], [ 11.3039535, 50.9852532 ], [ 11.3036627, 50.9854065 ], [ 11.3033719, 50.9855597 ], [ 11.3030679, 50.9857182 ], [ 11.3027636, 50.9858766 ], [ 11.30245, 50.9860692 ], [ 11.3021365, 50.9862617 ], [ 11.302033, 50.9863583 ], [ 11.3019295, 50.9864549 ], [ 11.3016368, 50.9864373 ], [ 11.3013441, 50.9864198 ], [ 11.3010456, 50.9863397 ], [ 11.3005954, 50.9861767 ], [ 11.3001299, 50.9859986 ], [ 11.2999203, 50.98591 ], [ 11.2996954, 50.9858062 ], [ 11.2990893, 50.9857633 ], [ 11.2984832, 50.9857205 ], [ 11.2980763, 50.9856182 ], [ 11.2974313, 50.9854199 ], [ 11.2965477, 50.9851571 ], [ 11.2959025, 50.9849641 ], [ 11.2952575, 50.9847711 ], [ 11.2938212, 50.9843631 ], [ 11.2930337, 50.9841096 ], [ 11.292385, 50.9839551 ], [ 11.2923351, 50.983724 ], [ 11.2921246, 50.9832063 ], [ 11.2919326, 50.9826367 ], [ 11.2918305, 50.9821575 ], [ 11.2917782, 50.9815995 ], [ 11.2916983, 50.9809001 ], [ 11.2916292, 50.9802521 ], [ 11.2915096, 50.9797261 ], [ 11.2912437, 50.9792281 ], [ 11.290863, 50.9787758 ], [ 11.2902367, 50.9782896 ], [ 11.2896452, 50.9779002 ], [ 11.2881222, 50.9773751 ], [ 11.2863446, 50.9767596 ], [ 11.2839815, 50.9759187 ], [ 11.2820501, 50.9752676 ], [ 11.28149, 50.9750746 ], [ 11.2795516, 50.9744062 ], [ 11.2776133, 50.9737379 ], [ 11.2757572, 50.9730929 ], [ 11.2739011, 50.972448 ], [ 11.2736873, 50.9723716 ], [ 11.2737334, 50.9723177 ], [ 11.2739524, 50.9720742 ], [ 11.2741312, 50.9718736 ], [ 11.2737548, 50.9708612 ], [ 11.2738205, 50.9702407 ], [ 11.2738283, 50.9694579 ], [ 11.2740027, 50.9690892 ], [ 11.2741773, 50.9687204 ], [ 11.2745093, 50.9682075 ], [ 11.2752555, 50.9671216 ], [ 11.276442, 50.9655424 ], [ 11.2791805, 50.9661376 ], [ 11.2811681, 50.9666262 ], [ 11.2844659, 50.9671229 ], [ 11.2852697, 50.9658366 ], [ 11.2895763, 50.9665836 ], [ 11.2900749, 50.9657781 ], [ 11.2934122, 50.9668008 ], [ 11.2935796, 50.9663823 ], [ 11.2950668, 50.9668205 ], [ 11.2965541, 50.9672589 ], [ 11.2966879, 50.9672896 ], [ 11.2970586, 50.9673747 ], [ 11.2975969, 50.9672276 ], [ 11.2975688, 50.9671145 ], [ 11.2978282, 50.9670284 ], [ 11.2975351, 50.9667132 ], [ 11.297478, 50.9665562 ], [ 11.2983294, 50.9660411 ], [ 11.2994156, 50.9648133 ], [ 11.2999982, 50.9629267 ], [ 11.3004906, 50.9613978 ], [ 11.3005062, 50.9612654 ], [ 11.3005396, 50.9601633 ], [ 11.3005952, 50.9591341 ], [ 11.3005837, 50.9585651 ], [ 11.3005789, 50.9585237 ], [ 11.3021361, 50.958543 ], [ 11.3039441, 50.9585476 ], [ 11.30592, 50.9585594 ], [ 11.3066433, 50.9585615 ], [ 11.3071773, 50.9586621 ], [ 11.3082687, 50.9588736 ], [ 11.3096864, 50.9591454 ], [ 11.3099464, 50.9591802 ], [ 11.3108642, 50.9592612 ], [ 11.3118162, 50.959318 ], [ 11.3129038, 50.9607236 ], [ 11.3133424, 50.9610919 ], [ 11.3137188, 50.961393 ], [ 11.3143775, 50.9619544 ], [ 11.3146228, 50.9620846 ], [ 11.3148912, 50.9622462 ], [ 11.3152408, 50.9624296 ], [ 11.3157092, 50.9625856 ], [ 11.315972, 50.9626437 ], [ 11.3164414, 50.9629849 ], [ 11.3172244, 50.963264 ], [ 11.3184941, 50.9637006 ], [ 11.3190099, 50.9642742 ], [ 11.3198433, 50.9646247 ], [ 11.3203046, 50.9650108 ], [ 11.3209584, 50.9652974 ], [ 11.3217719, 50.9662888 ], [ 11.3228017, 50.967734 ], [ 11.323767, 50.96882 ], [ 11.3242771, 50.9698678 ], [ 11.3252019, 50.9704034 ], [ 11.325882, 50.970729 ], [ 11.3260143, 50.9711221 ], [ 11.3260138, 50.9711598 ], [ 11.3261645, 50.9715739 ], [ 11.3263152, 50.9719881 ], [ 11.3264163, 50.972361 ], [ 11.3266012, 50.9730594 ], [ 11.3267177, 50.9735112 ], [ 11.3267171, 50.9735487 ], [ 11.3268214, 50.9738914 ], [ 11.3269256, 50.9742342 ], [ 11.3270103, 50.9744628 ], [ 11.3264066, 50.9745307 ], [ 11.3258573, 50.9746042 ], [ 11.325505, 50.9746839 ], [ 11.325449, 50.9747015 ], [ 11.3251405, 50.9747831 ], [ 11.3251097, 50.9747949 ] ] ] } }
]
}
