{
  "type": "FeatureCollection",
  "features": [
    {
      "type": "Feature",
      "properties": {
        "name": "Stadtmitte",
        "city": "Zweibrücken",
        "osm_id": 4268494,
        "osm_type": "relation",
        "display": "Stadtmitte, Zweibrücken, Rheinland-Pfalz, 66482, Deutschland"
      },
      "geometry": {
        "type": "Polygon",
        "coordinates": [
          [
            [
              7.3443603,
              49.2511678
            ],
            [
              7.3560332,
              49.2464615
            ],
            [
              7.3586483,
              49.2425253
            ],
            [
              7.3809241,
              49.239233
            ],
            [
              7.3831557,
              49.2305462
            ],
            [
              7.390943,
              49.229767
            ],
            [
              7.3983478,
              49.2342312
            ],
            [
              7.4021428,
              49.2336231
            ],
            [
              7.4031673,
              49.2334589
            ],
            [
              7.4024916,
              49.2338204
            ],
            [
              7.4019335,
              49.2341028
            ],
            [
              7.4015495,
              49.2344118
            ],
            [
              7.4013536,
              49.2346338
            ],
            [
              7.4008246,
              49.2352287
            ],
            [
              7.4005547,
              49.2354577
            ],
            [
              7.4001677,
              49.2361016
            ],
            [
              7.4000118,
              49.2365525
            ],
            [
              7.3999388,
              49.2368345
            ],
            [
              7.4025114,
              49.2372005
            ],
            [
              7.4024034,
              49.2374864
            ],
            [
              7.4031533,
              49.2377084
            ],
            [
              7.4038022,
              49.2380704
            ],
            [
              7.4040902,
              49.2384023
            ],
            [
              7.404361,
              49.2388886
            ],
            [
              7.4045768,
              49.2393002
            ],
            [
              7.4048063,
              49.2396908
            ],
            [
              7.4049792,
              49.2400798
            ],
            [
              7.4050311,
              49.2411957
            ],
            [
              7.4049488,
              49.2418861
            ],
            [
              7.4046121,
              49.2423119
            ],
            [
              7.4047231,
              49.2425639
            ],
            [
              7.4056999,
              49.2433538
            ],
            [
              7.4063288,
              49.2437617
            ],
            [
              7.4073607,
              49.2444107
            ],
            [
              7.404823,
              49.2459635
            ],
            [
              7.4061889,
              49.2465124
            ],
            [
              7.4069047,
              49.2467524
            ],
            [
              7.4075327,
              49.2469624
            ],
            [
              7.4087495,
              49.2472834
            ],
            [
              7.4095304,
              49.2475043
            ],
            [
              7.4103243,
              49.2477063
            ],
            [
              7.4106602,
              49.2478623
            ],
            [
              7.4109752,
              49.2480493
            ],
            [
              7.4112281,
              49.2482902
            ],
            [
              7.4117151,
              49.2487092
            ],
            [
              7.412093,
              49.2491142
            ],
            [
              7.41242,
              49.2494911
            ],
            [
              7.4125129,
              49.2496711
            ],
            [
              7.4127399,
              49.250094
            ],
            [
              7.4130159,
              49.250686
            ],
            [
              7.4131248,
              49.2509909
            ],
            [
              7.4132468,
              49.2513379
            ],
            [
              7.4135078,
              49.2522648
            ],
            [
              7.4136568,
              49.2527567
            ],
            [
              7.4137518,
              49.2531847
            ],
            [
              7.4137967,
              49.2546035
            ],
            [
              7.4138457,
              49.2549735
            ],
            [
              7.4139487,
              49.2551525
            ],
            [
              7.4131198,
              49.2558734
            ],
            [
              7.4125429,
              49.2560834
            ],
            [
              7.411784,
              49.2562784
            ],
            [
              7.4113293,
              49.2563192
            ],
            [
              7.4110711,
              49.2563423
            ],
            [
              7.4106132,
              49.2563313
            ],
            [
              7.4104872,
              49.2563273
            ],
            [
              7.4104262,
              49.2563642
            ],
            [
              7.4103804,
              49.2564127
            ],
            [
              7.4099953,
              49.2568993
            ],
            [
              7.4097143,
              49.2572122
            ],
            [
              7.400499,
              49.2536644
            ],
            [
              7.3997748,
              49.253393
            ],
            [
              7.3985115,
              49.2530604
            ],
            [
              7.3977631,
              49.2529273
            ],
            [
              7.3975325,
              49.2530621
            ],
            [
              7.3975298,
              49.2532477
            ],
            [
              7.3833918,
              49.2552715
            ],
            [
              7.383499,
              49.2678047
            ],
            [
              7.376029,
              49.2827133
            ],
            [
              7.3751482,
              49.2820614
            ],
            [
              7.3746272,
              49.2816725
            ],
            [
              7.3742413,
              49.2813515
            ],
            [
              7.3740043,
              49.2811725
            ],
            [
              7.3737634,
              49.2809515
            ],
            [
              7.3737061,
              49.2809138
            ],
            [
              7.3730575,
              49.2806196
            ],
            [
              7.3722506,
              49.2803336
            ],
            [
              7.36954,
              49.2824734
            ],
            [
              7.369179,
              49.2827173
            ],
            [
              7.369046,
              49.2827973
            ],
            [
              7.3677052,
              49.2829843
            ],
            [
              7.3676092,
              49.2829813
            ],
            [
              7.3672683,
              49.2829613
            ],
            [
              7.3671963,
              49.2826723
            ],
            [
              7.3668913,
              49.2823284
            ],
            [
              7.3667514,
              49.2821684
            ],
            [
              7.3663844,
              49.2819204
            ],
            [
              7.3660775,
              49.2821184
            ],
            [
              7.3653156,
              49.2817864
            ],
            [
              7.3650776,
              49.2815195
            ],
            [
              7.3650356,
              49.2813215
            ],
            [
              7.3655715,
              49.2802916
            ],
            [
              7.3656045,
              49.2801386
            ],
            [
              7.3655455,
              49.2796507
            ],
            [
              7.3652816,
              49.2786668
            ],
            [
              7.3651676,
              49.2781858
            ],
            [
              7.3664283,
              49.2755847
            ],
            [
              7.3676204,
              49.2731249
            ],
            [
              7.3443603,
              49.2511678
            ]
          ]
        ]
      }
    },
    {
      "type": "Feature",
      "properties": {
        "name": "Bubenhausen",
        "city": "Zweibrücken",
        "osm_id": 6015224,
        "osm_type": "relation",
        "display": "Bubenhausen, Zweibrücken, Rheinland-Pfalz, Deutschland"
      },
      "geometry": {
        "type": "Polygon",
        "coordinates": [
          [
            [
              7.3239687,
              49.2447988
            ],
            [
              7.3247403,
              49.2441266
            ],
            [
              7.3250967,
              49.2436377
            ],
            [
              7.3259574,
              49.242763
            ],
            [
              7.3264289,
              49.2422948
            ],
            [
              7.3266942,
              49.2420801
            ],
            [
              7.3275648,
              49.2415475
            ],
            [
              7.3302698,
              49.2422941
            ],
            [
              7.3302928,
              49.2421023
            ],
            [
              7.3303443,
              49.2419065
            ],
            [
              7.3303992,
              49.2417465
            ],
            [
              7.3304814,
              49.2415754
            ],
            [
              7.3306941,
              49.2412468
            ],
            [
              7.331159,
              49.2406555
            ],
            [
              7.3323103,
              49.2394715
            ],
            [
              7.3311656,
              49.2391049
            ],
            [
              7.3312358,
              49.2390219
            ],
            [
              7.3296601,
              49.2385265
            ],
            [
              7.3298548,
              49.2379476
            ],
            [
              7.3299408,
              49.2376358
            ],
            [
              7.3346507,
              49.2376778
            ],
            [
              7.3351012,
              49.2375588
            ],
            [
              7.3371881,
              49.2370614
            ],
            [
              7.3586483,
              49.2425253
            ],
            [
              7.3560332,
              49.2464615
            ],
            [
              7.3443603,
              49.2511678
            ],
            [
              7.327411,
              49.2574951
            ],
            [
              7.3288218,
              49.2559613
            ],
            [
              7.3285119,
              49.2557133
            ],
            [
              7.3281139,
              49.2553813
            ],
            [
              7.327571,
              49.2538135
            ],
            [
              7.3272581,
              49.2529706
            ],
            [
              7.3270411,
              49.2523947
            ],
            [
              7.3267112,
              49.2518717
            ],
            [
              7.3265162,
              49.2515328
            ],
            [
              7.3264302,
              49.2514598
            ],
            [
              7.3260892,
              49.2511048
            ],
            [
              7.3260982,
              49.2510058
            ],
            [
              7.3253954,
              49.249659
            ],
            [
              7.3247614,
              49.2482481
            ],
            [
              7.3245345,
              49.2480502
            ],
            [
              7.3271964,
              49.2449348
            ],
            [
              7.3259771,
              49.2446799
            ],
            [
              7.325442,
              49.2445855
            ],
            [
              7.3249333,
              49.2445883
            ],
            [
              7.3243807,
              49.2446685
            ],
            [
              7.3239687,
              49.2447988
            ]
          ]
        ]
      }
    },
    {
      "type": "Feature",
      "properties": {
        "name": "Ernstweiler",
        "city": "Zweibrücken",
        "osm_id": 6606426,
        "osm_type": "relation",
        "display": "Ernstweiler, Zweibrücken, Rheinland-Pfalz, Deutschland"
      },
      "geometry": {
        "type": "Polygon",
        "coordinates": [
          [
            [
              7.3263732,
              49.258464
            ],
            [
              7.327411,
              49.2574951
            ],
            [
              7.3443603,
              49.2511678
            ],
            [
              7.3676204,
              49.2731249
            ],
            [
              7.3664283,
              49.2755847
            ],
            [
              7.3651676,
              49.2781858
            ],
            [
              7.3629909,
              49.2786128
            ],
            [
              7.3609592,
              49.2790557
            ],
            [
              7.3597414,
              49.2792957
            ],
            [
              7.3590445,
              49.2797876
            ],
            [
              7.3575997,
              49.2806505
            ],
            [
              7.355616,
              49.2818324
            ],
            [
              7.355249,
              49.2820734
            ],
            [
              7.3548196,
              49.2823188
            ],
            [
              7.3550742,
              49.2826908
            ],
            [
              7.3552408,
              49.2829268
            ],
            [
              7.3554193,
              49.2831797
            ],
            [
              7.3555881,
              49.2834327
            ],
            [
              7.3557435,
              49.2836607
            ],
            [
              7.3557552,
              49.2836947
            ],
            [
              7.355307,
              49.2835937
            ],
            [
              7.3546691,
              49.2833892
            ],
            [
              7.3534503,
              49.2830803
            ],
            [
              7.3524814,
              49.2828593
            ],
            [
              7.3517685,
              49.2826833
            ],
            [
              7.3508206,
              49.2824203
            ],
            [
              7.3502559,
              49.28226
            ],
            [
              7.3499858,
              49.2821834
            ],
            [
              7.3492329,
              49.2819124
            ],
            [
              7.3486199,
              49.2816224
            ],
            [
              7.348267,
              49.2814434
            ],
            [
              7.3476211,
              49.2812225
            ],
            [
              7.3470992,
              49.2812185
            ],
            [
              7.3466832,
              49.2812335
            ],
            [
              7.3462233,
              49.2813865
            ],
            [
              7.3455174,
              49.2815844
            ],
            [
              7.3448725,
              49.2817104
            ],
            [
              7.3445395,
              49.2817064
            ],
            [
              7.3442466,
              49.2817374
            ],
            [
              7.3439376,
              49.2817144
            ],
            [
              7.3434857,
              49.2816804
            ],
            [
              7.3426108,
              49.2814854
            ],
            [
              7.3418359,
              49.2812985
            ],
            [
              7.3405881,
              49.2810125
            ],
            [
              7.3397402,
              49.2806305
            ],
            [
              7.3387354,
              49.2802116
            ],
            [
              7.3381334,
              49.2798716
            ],
            [
              7.3375645,
              49.2794677
            ],
            [
              7.3369726,
              49.2790327
            ],
            [
              7.3358678,
              49.2785368
            ],
            [
              7.3348149,
              49.2782158
            ],
            [
              7.3349289,
              49.2777818
            ],
            [
              7.3349959,
              49.2775489
            ],
            [
              7.3352679,
              49.2770219
            ],
            [
              7.3357498,
              49.276343
            ],
            [
              7.3364907,
              49.276153
            ],
            [
              7.3369696,
              49.276019
            ],
            [
              7.3382524,
              49.2753401
            ],
            [
              7.3388434,
              49.2752251
            ],
            [
              7.3395123,
              49.2750082
            ],
            [
              7.3408481,
              49.2743522
            ],
            [
              7.341193,
              49.2742342
            ],
            [
              7.341341,
              49.2741993
            ],
            [
              7.3425748,
              49.2742452
            ],
            [
              7.3433017,
              49.2742792
            ],
            [
              7.3435417,
              49.2742263
            ],
            [
              7.3443096,
              49.2738903
            ],
            [
              7.3450435,
              49.2735323
            ],
            [
              7.3451255,
              49.2733903
            ],
            [
              7.3451875,
              49.2727234
            ],
            [
              7.3451055,
              49.2717585
            ],
            [
              7.3448975,
              49.2711786
            ],
            [
              7.3447355,
              49.2708766
            ],
            [
              7.3446006,
              49.2707046
            ],
            [
              7.3435527,
              49.2697588
            ],
            [
              7.3429768,
              49.2689698
            ],
            [
              7.3426098,
              49.2684469
            ],
            [
              7.3420989,
              49.267657
            ],
            [
              7.341671,
              49.2669551
            ],
            [
              7.341339,
              49.2666001
            ],
            [
              7.3407541,
              49.2660822
            ],
            [
              7.3397073,
              49.2651243
            ],
            [
              7.3396053,
              49.2649903
            ],
            [
              7.3394593,
              49.2647503
            ],
            [
              7.3394013,
              49.2645213
            ],
            [
              7.3393053,
              49.2643154
            ],
            [
              7.3392433,
              49.2641474
            ],
            [
              7.3390544,
              49.2639874
            ],
            [
              7.3387557,
              49.2637482
            ],
            [
              7.3379487,
              49.263396
            ],
            [
              7.3374404,
              49.2630991
            ],
            [
              7.3370377,
              49.2627371
            ],
            [
              7.336609,
              49.2625149
            ],
            [
              7.3358494,
              49.2622151
            ],
            [
              7.3356367,
              49.2621415
            ],
            [
              7.3353587,
              49.2620424
            ],
            [
              7.3352283,
              49.2619914
            ],
            [
              7.3350426,
              49.2619186
            ],
            [
              7.3348667,
              49.2618381
            ],
            [
              7.3347106,
              49.2617665
            ],
            [
              7.3344544,
              49.2616492
            ],
            [
              7.3340235,
              49.2615004
            ],
            [
              7.3334367,
              49.2613139
            ],
            [
              7.3331541,
              49.2611979
            ],
            [
              7.3329027,
              49.2610858
            ],
            [
              7.3328734,
              49.2610727
            ],
            [
              7.3328505,
              49.2610625
            ],
            [
              7.3327801,
              49.2610322
            ],
            [
              7.3327016,
              49.2610011
            ],
            [
              7.3323629,
              49.2608406
            ],
            [
              7.3322573,
              49.2608019
            ],
            [
              7.3322023,
              49.2607502
            ],
            [
              7.3310887,
              49.2603778
            ],
            [
              7.3305176,
              49.2606608
            ],
            [
              7.330184,
              49.2608677
            ],
            [
              7.3291508,
              49.2601458
            ],
            [
              7.3282219,
              49.2595969
            ],
            [
              7.3272381,
              49.2589249
            ],
            [
              7.3269611,
              49.25878
            ],
            [
              7.3263732,
              49.258464
            ]
          ]
        ]
      }
    },
    {
      "type": "Feature",
      "properties": {
        "name": "Ixheim",
        "city": "Zweibrücken",
        "osm_id": 6616239,
        "osm_type": "relation",
        "display": "Ixheim, Zweibrücken, Rheinland-Pfalz, Deutschland"
      },
      "geometry": {
        "type": "Polygon",
        "coordinates": [
          [
            [
              7.3331165,
              49.2360246
            ],
            [
              7.3349188,
              49.2301539
            ],
            [
              7.3469351,
              49.2226427
            ],
            [
              7.3487216,
              49.2186203
            ],
            [
              7.3495156,
              49.2179195
            ],
            [
              7.3508533,
              49.210421
            ],
            [
              7.3533865,
              49.2118173
            ],
            [
              7.3541064,
              49.2115243
            ],
            [
              7.3556761,
              49.2135721
            ],
            [
              7.3571069,
              49.2153729
            ],
            [
              7.3602655,
              49.2171127
            ],
            [
              7.3618762,
              49.2179556
            ],
            [
              7.3625561,
              49.2183635
            ],
            [
              7.3626741,
              49.2183255
            ],
            [
              7.3625981,
              49.2181656
            ],
            [
              7.3619912,
              49.2175476
            ],
            [
              7.3628691,
              49.2167537
            ],
            [
              7.3630821,
              49.2164678
            ],
            [
              7.3631551,
              49.2160978
            ],
            [
              7.3643889,
              49.2155329
            ],
            [
              7.363832,
              49.2148079
            ],
            [
              7.3642059,
              49.214682
            ],
            [
              7.3660427,
              49.214076
            ],
            [
              7.3684778,
              49.2192746
            ],
            [
              7.3710536,
              49.2247728
            ],
            [
              7.3831557,
              49.2305462
            ],
            [
              7.3809241,
              49.239233
            ],
            [
              7.3586483,
              49.2425253
            ],
            [
              7.3371881,
              49.2370614
            ],
            [
              7.3351012,
              49.2375588
            ],
            [
              7.3331165,
              49.2360246
            ]
          ]
        ]
      }
    },
    {
      "type": "Feature",
      "properties": {
        "name": "Mittelbach",
        "city": "Zweibrücken",
        "osm_id": 6662882,
        "osm_type": "relation",
        "display": "Mittelbach, Mittelbach-Hengstbach, Zweibrücken, Rheinland-Pfalz, Deutschland"
      },
      "geometry": {
        "type": "Polygon",
        "coordinates": [
          [
            [
              7.310089,
              49.2227884
            ],
            [
              7.328546,
              49.2158591
            ],
            [
              7.3365283,
              49.2091869
            ],
            [
              7.3326338,
              49.2054272
            ],
            [
              7.3371758,
              49.2044861
            ],
            [
              7.3416242,
              49.2036122
            ],
            [
              7.3422721,
              49.2031542
            ],
            [
              7.3441158,
              49.2020633
            ],
            [
              7.3449457,
              49.2015984
            ],
            [
              7.3455066,
              49.2013614
            ],
            [
              7.3465605,
              49.2010835
            ],
            [
              7.3463385,
              49.2019834
            ],
            [
              7.3463345,
              49.2023263
            ],
            [
              7.3463285,
              49.2027313
            ],
            [
              7.3435079,
              49.2041731
            ],
            [
              7.3448237,
              49.2059279
            ],
            [
              7.3444438,
              49.2064239
            ],
            [
              7.3446627,
              49.2065838
            ],
            [
              7.3471484,
              49.2083806
            ],
            [
              7.3514018,
              49.2059699
            ],
            [
              7.3520097,
              49.2065079
            ],
            [
              7.3522377,
              49.2067708
            ],
            [
              7.3525283,
              49.2072581
            ],
            [
              7.3525496,
              49.2072938
            ],
            [
              7.3526946,
              49.2077857
            ],
            [
              7.3527046,
              49.2080907
            ],
            [
              7.3526286,
              49.2085406
            ],
            [
              7.3524466,
              49.2091166
            ],
            [
              7.3508104,
              49.2098846
            ],
            [
              7.3503079,
              49.2101204
            ],
            [
              7.3508533,
              49.210421
            ],
            [
              7.3495156,
              49.2179195
            ],
            [
              7.3487216,
              49.2186203
            ],
            [
              7.3469351,
              49.2226427
            ],
            [
              7.3349188,
              49.2301539
            ],
            [
              7.3331165,
              49.2360246
            ],
            [
              7.3351012,
              49.2375588
            ],
            [
              7.3346507,
              49.2376778
            ],
            [
              7.3299408,
              49.2376358
            ],
            [
              7.3298548,
              49.2379476
            ],
            [
              7.3295009,
              49.2378809
            ],
            [
              7.3301211,
              49.2363277
            ],
            [
              7.3251772,
              49.2325148
            ],
            [
              7.3175564,
              49.2295967
            ],
            [
              7.3164302,
              49.2291884
            ],
            [
              7.3135475,
              49.2272823
            ],
            [
              7.3142778,
              49.2267287
            ],
            [
              7.3128902,
              49.2256466
            ],
            [
              7.310089,
              49.2227884
            ]
          ]
        ]
      }
    },
    {
      "type": "Feature",
      "properties": {
        "name": "Mörsbach",
        "city": "Zweibrücken",
        "osm_id": 4268496,
        "osm_type": "relation",
        "display": "Mörsbach, Zweibrücken, Rheinland-Pfalz, Deutschland"
      },
      "geometry": {
        "type": "Polygon",
        "coordinates": [
          [
            [
              7.376603,
              49.2832173
            ],
            [
              7.3922538,
              49.2840439
            ],
            [
              7.4074045,
              49.2883138
            ],
            [
              7.4073965,
              49.2885387
            ],
            [
              7.4070556,
              49.2890887
            ],
            [
              7.4068526,
              49.2892446
            ],
            [
              7.4065907,
              49.2898126
            ],
            [
              7.4062177,
              49.2900576
            ],
            [
              7.4059358,
              49.2905985
            ],
            [
              7.4058458,
              49.2908465
            ],
            [
              7.4058788,
              49.2910714
            ],
            [
              7.4059887,
              49.2914194
            ],
            [
              7.4059737,
              49.2918953
            ],
            [
              7.4058738,
              49.2923953
            ],
            [
              7.4059647,
              49.2927273
            ],
            [
              7.4060417,
              49.2928232
            ],
            [
              7.4063607,
              49.2929712
            ],
            [
              7.4065347,
              49.2932002
            ],
            [
              7.4066846,
              49.2935742
            ],
            [
              7.4068776,
              49.2938411
            ],
            [
              7.4070526,
              49.2940551
            ],
            [
              7.4073085,
              49.2942681
            ],
            [
              7.4074765,
              49.294707
            ],
            [
              7.4076315,
              49.2954929
            ],
            [
              7.4078495,
              49.2961839
            ],
            [
              7.4078785,
              49.2965538
            ],
            [
              7.4078305,
              49.2970608
            ],
            [
              7.4077485,
              49.2979387
            ],
            [
              7.4076515,
              49.2984306
            ],
            [
              7.4074045,
              49.2989566
            ],
            [
              7.4074395,
              49.2991555
            ],
            [
              7.4075385,
              49.2993005
            ],
            [
              7.4090883,
              49.3010203
            ],
            [
              7.4097932,
              49.3017992
            ],
            [
              7.4104631,
              49.3023292
            ],
            [
              7.411069,
              49.3028061
            ],
            [
              7.410908,
              49.3031801
            ],
            [
              7.410864,
              49.3032831
            ],
            [
              7.4104871,
              49.304156
            ],
            [
              7.4103371,
              49.3045029
            ],
            [
              7.4096662,
              49.3062157
            ],
            [
              7.4087093,
              49.3079676
            ],
            [
              7.4081145,
              49.3099156
            ],
            [
              7.4073585,
              49.3109842
            ],
            [
              7.4062126,
              49.313037
            ],
            [
              7.4058747,
              49.3135749
            ],
            [
              7.4057827,
              49.3140099
            ],
            [
              7.4055837,
              49.3163896
            ],
            [
              7.4047998,
              49.3169125
            ],
            [
              7.4042049,
              49.3162946
            ],
            [
              7.403685,
              49.3156807
            ],
            [
              7.403432,
              49.3155167
            ],
            [
              7.4027651,
              49.3151387
            ],
            [
              7.4021622,
              49.3151007
            ],
            [
              7.4015163,
              49.3149058
            ],
            [
              7.4005724,
              49.3145398
            ],
            [
              7.3983888,
              49.313033
            ],
            [
              7.3958851,
              49.3151467
            ],
            [
              7.3953482,
              49.3163936
            ],
            [
              7.3944283,
              49.3163216
            ],
            [
              7.3944153,
              49.3161686
            ],
            [
              7.3944043,
              49.3158446
            ],
            [
              7.3943243,
              49.3155927
            ],
            [
              7.3941214,
              49.3154477
            ],
            [
              7.3938024,
              49.3152837
            ],
            [
              7.3937574,
              49.3151467
            ],
            [
              7.3937934,
              49.3150667
            ],
            [
              7.3939634,
              49.3150627
            ],
            [
              7.3942343,
              49.3150817
            ],
            [
              7.3949372,
              49.3152187
            ],
            [
              7.3952112,
              49.3152147
            ],
            [
              7.3953052,
              49.3151657
            ],
            [
              7.3953072,
              49.3150477
            ],
            [
              7.3950702,
              49.3148568
            ],
            [
              7.3937054,
              49.3139829
            ],
            [
              7.3931825,
              49.3136129
            ],
            [
              7.3924146,
              49.3132309
            ],
            [
              7.3915307,
              49.312804
            ],
            [
              7.3911468,
              49.312556
            ],
            [
              7.3909878,
              49.312468
            ],
            [
              7.3904019,
              49.312224
            ],
            [
              7.390018,
              49.3119651
            ],
            [
              7.390053,
              49.3114271
            ],
            [
              7.3901609,
              49.3111832
            ],
            [
              7.3916457,
              49.3102103
            ],
            [
              7.3919817,
              49.3097793
            ],
            [
              7.3920887,
              49.3095314
            ],
            [
              7.3920497,
              49.3093024
            ],
            [
              7.3909008,
              49.3094514
            ],
            [
              7.390072,
              49.3095963
            ],
            [
              7.389425,
              49.3097183
            ],
            [
              7.3889791,
              49.3098633
            ],
            [
              7.3884362,
              49.3100953
            ],
            [
              7.3879873,
              49.3102633
            ],
            [
              7.3873803,
              49.3103553
            ],
            [
              7.3871454,
              49.3103363
            ],
            [
              7.3866404,
              49.3102483
            ],
            [
              7.3858716,
              49.3100383
            ],
            [
              7.3850017,
              49.3098093
            ],
            [
              7.3845847,
              49.3097983
            ],
            [
              7.3836879,
              49.3098473
            ],
            [
              7.3836699,
              49.3095613
            ],
            [
              7.3833363,
              49.3087042
            ],
            [
              7.3830473,
              49.3084275
            ],
            [
              7.3830434,
              49.3082626
            ],
            [
              7.3829333,
              49.3079752
            ],
            [
              7.382568,
              49.3077415
            ],
            [
              7.3821831,
              49.3074826
            ],
            [
              7.3816872,
              49.3072766
            ],
            [
              7.3807513,
              49.3068226
            ],
            [
              7.3805543,
              49.3064837
            ],
            [
              7.3805393,
              49.3063037
            ],
            [
              7.3804633,
              49.3060637
            ],
            [
              7.3804223,
              49.3058498
            ],
            [
              7.3805303,
              49.3053158
            ],
            [
              7.3809603,
              49.304019
            ],
            [
              7.3809983,
              49.30371
            ],
            [
              7.3803694,
              49.3025731
            ],
            [
              7.3798264,
              49.3016882
            ],
            [
              7.3794745,
              49.3015202
            ],
            [
              7.3795617,
              49.3004272
            ],
            [
              7.3795715,
              49.3002994
            ],
            [
              7.3797215,
              49.2990975
            ],
            [
              7.3797785,
              49.2989605
            ],
            [
              7.3802474,
              49.2981636
            ],
            [
              7.3809513,
              49.2970307
            ],
            [
              7.3810793,
              49.2967368
            ],
            [
              7.3814142,
              49.2960649
            ],
            [
              7.3815192,
              49.2958559
            ],
            [
              7.3818372,
              49.2954319
            ],
            [
              7.3823301,
              49.295138
            ],
            [
              7.38286,
              49.294829
            ],
            [
              7.383072,
              49.294646
            ],
            [
              7.3841808,
              49.294402
            ],
            [
              7.3855476,
              49.2941081
            ],
            [
              7.3866185,
              49.2938761
            ],
            [
              7.3871274,
              49.2937691
            ],
            [
              7.3867885,
              49.2933572
            ],
            [
              7.3860836,
              49.2927162
            ],
            [
              7.3854867,
              49.2920943
            ],
            [
              7.3851257,
              49.2917623
            ],
            [
              7.3846828,
              49.2913084
            ],
            [
              7.3843768,
              49.2909534
            ],
            [
              7.3840519,
              49.2906335
            ],
            [
              7.383106,
              49.2896336
            ],
            [
              7.3818612,
              49.2883447
            ],
            [
              7.3806894,
              49.2872148
            ],
            [
              7.3804014,
              49.2868989
            ],
            [
              7.3793816,
              49.285903
            ],
            [
              7.3786077,
              49.2852051
            ],
            [
              7.3776788,
              49.2843652
            ],
            [
              7.3774408,
              49.2841292
            ],
            [
              7.3772229,
              49.2839042
            ],
            [
              7.3771929,
              49.2836562
            ],
            [
              7.376603,
              49.2832173
            ]
          ]
        ]
      }
    },
    {
      "type": "Feature",
      "properties": {
        "name": "Niederauerbach",
        "city": "Zweibrücken",
        "osm_id": 6606423,
        "osm_type": "relation",
        "display": "Niederauerbach, Zweibrücken, Rheinland-Pfalz, Deutschland"
      },
      "geometry": {
        "type": "Polygon",
        "coordinates": [
          [
            [
              7.376029,
              49.2827133
            ],
            [
              7.383499,
              49.2678047
            ],
            [
              7.3833918,
              49.2552715
            ],
            [
              7.3975298,
              49.2532477
            ],
            [
              7.3975325,
              49.2530621
            ],
            [
              7.3977631,
              49.2529273
            ],
            [
              7.3985115,
              49.2530604
            ],
            [
              7.3997748,
              49.253393
            ],
            [
              7.400499,
              49.2536644
            ],
            [
              7.4097143,
              49.2572122
            ],
            [
              7.4101752,
              49.2574182
            ],
            [
              7.4110291,
              49.2577162
            ],
            [
              7.4112971,
              49.2578042
            ],
            [
              7.41179,
              49.2580552
            ],
            [
              7.4124929,
              49.2584451
            ],
            [
              7.4129858,
              49.2587081
            ],
            [
              7.4134688,
              49.2588301
            ],
            [
              7.4138297,
              49.2588761
            ],
            [
              7.4151445,
              49.2588151
            ],
            [
              7.4153975,
              49.259257
            ],
            [
              7.4155415,
              49.259299
            ],
            [
              7.4157035,
              49.259326
            ],
            [
              7.4160524,
              49.259265
            ],
            [
              7.4164144,
              49.259036
            ],
            [
              7.4171273,
              49.259543
            ],
            [
              7.4172382,
              49.259524
            ],
            [
              7.4175512,
              49.259448
            ],
            [
              7.4181461,
              49.259261
            ],
            [
              7.418593,
              49.259108
            ],
            [
              7.419046,
              49.2588451
            ],
            [
              7.4193749,
              49.259116
            ],
            [
              7.4204758,
              49.2601119
            ],
            [
              7.4209757,
              49.2606919
            ],
            [
              7.4214676,
              49.2612408
            ],
            [
              7.4215286,
              49.2627366
            ],
            [
              7.4215386,
              49.2629806
            ],
            [
              7.4222485,
              49.2632736
            ],
            [
              7.4241652,
              49.2640405
            ],
            [
              7.4252711,
              49.2645324
            ],
            [
              7.4251341,
              49.2646814
            ],
            [
              7.4198913,
              49.2673845
            ],
            [
              7.4092054,
              49.2667404
            ],
            [
              7.4059009,
              49.2711089
            ],
            [
              7.4063301,
              49.2771848
            ],
            [
              7.4122523,
              49.2777728
            ],
            [
              7.4154281,
              49.2795086
            ],
            [
              7.4154281,
              49.2822522
            ],
            [
              7.4103111,
              49.2844912
            ],
            [
              7.4099592,
              49.2846862
            ],
            [
              7.4098349,
              49.2848566
            ],
            [
              7.4097892,
              49.2849191
            ],
            [
              7.4091693,
              49.286075
            ],
            [
              7.4088789,
              49.2865203
            ],
            [
              7.4085174,
              49.2865819
            ],
            [
              7.4083344,
              49.2866199
            ],
            [
              7.4082494,
              49.2867229
            ],
            [
              7.4080965,
              49.2870399
            ],
            [
              7.4079035,
              49.2873679
            ],
            [
              7.4078585,
              49.2874978
            ],
            [
              7.4078395,
              49.2880128
            ],
            [
              7.4077555,
              49.2881308
            ],
            [
              7.4074045,
              49.2883138
            ],
            [
              7.3922538,
              49.2840439
            ],
            [
              7.376603,
              49.2832173
            ],
            [
              7.376029,
              49.2827133
            ]
          ]
        ]
      }
    },
    {
      "type": "Feature",
      "properties": {
        "name": "Oberauerbach",
        "city": "Zweibrücken",
        "osm_id": 6606422,
        "osm_type": "relation",
        "display": "Oberauerbach, Zweibrücken, Rheinland-Pfalz, Deutschland"
      },
      "geometry": {
        "type": "Polygon",
        "coordinates": [
          [
            [
              7.4059009,
              49.2711089
            ],
            [
              7.4092054,
              49.2667404
            ],
            [
              7.4198913,
              49.2673845
            ],
            [
              7.4251341,
              49.2646814
            ],
            [
              7.4268898,
              49.2653993
            ],
            [
              7.4281957,
              49.2659363
            ],
            [
              7.428352,
              49.2659856
            ],
            [
              7.4284186,
              49.2660053
            ],
            [
              7.4299384,
              49.2664512
            ],
            [
              7.4323221,
              49.2670282
            ],
            [
              7.432485,
              49.2670312
            ],
            [
              7.4331669,
              49.2669092
            ],
            [
              7.432751,
              49.2671462
            ],
            [
              7.433023,
              49.2673021
            ],
            [
              7.4331289,
              49.2673521
            ],
            [
              7.4332709,
              49.2674171
            ],
            [
              7.4336989,
              49.2675621
            ],
            [
              7.4341098,
              49.2673941
            ],
            [
              7.4348147,
              49.2671842
            ],
            [
              7.4351657,
              49.2679591
            ],
            [
              7.4351966,
              49.2680541
            ],
            [
              7.4352436,
              49.2681611
            ],
            [
              7.4354996,
              49.268432
            ],
            [
              7.4359885,
              49.268779
            ],
            [
              7.4363355,
              49.269027
            ],
            [
              7.4368504,
              49.2697899
            ],
            [
              7.4369224,
              49.2700908
            ],
            [
              7.4373123,
              49.2699689
            ],
            [
              7.4388761,
              49.2697289
            ],
            [
              7.439691,
              49.2697859
            ],
            [
              7.4404249,
              49.2698469
            ],
            [
              7.4407898,
              49.2698199
            ],
            [
              7.4415757,
              49.2697709
            ],
            [
              7.4422196,
              49.2696679
            ],
            [
              7.4430955,
              49.2696329
            ],
            [
              7.4447353,
              49.2693199
            ],
            [
              7.4455392,
              49.2692819
            ],
            [
              7.446522,
              49.269137
            ],
            [
              7.4471069,
              49.269107
            ],
            [
              7.4484738,
              49.269114
            ],
            [
              7.4486507,
              49.2698579
            ],
            [
              7.4453652,
              49.2723876
            ],
            [
              7.4431695,
              49.2744364
            ],
            [
              7.4421636,
              49.2754772
            ],
            [
              7.4429515,
              49.2766831
            ],
            [
              7.4433185,
              49.27719
            ],
            [
              7.4433615,
              49.277694
            ],
            [
              7.4438114,
              49.277568
            ],
            [
              7.4441063,
              49.277797
            ],
            [
              7.4435994,
              49.277869
            ],
            [
              7.4437444,
              49.2783349
            ],
            [
              7.4433405,
              49.2783539
            ],
            [
              7.4422286,
              49.2782999
            ],
            [
              7.4417027,
              49.2783039
            ],
            [
              7.4409878,
              49.2784409
            ],
            [
              7.4388271,
              49.2789258
            ],
            [
              7.4385601,
              49.2789868
            ],
            [
              7.4371153,
              49.2792038
            ],
            [
              7.4358375,
              49.2793188
            ],
            [
              7.4331039,
              49.2793038
            ],
            [
              7.432475,
              49.2793338
            ],
            [
              7.4320071,
              49.2794098
            ],
            [
              7.42987,
              49.2799103
            ],
            [
              7.4292905,
              49.2800967
            ],
            [
              7.4290025,
              49.2802497
            ],
            [
              7.4285416,
              49.2806956
            ],
            [
              7.4284766,
              49.2808676
            ],
            [
              7.4284996,
              49.2811916
            ],
            [
              7.4288325,
              49.2818365
            ],
            [
              7.4289585,
              49.2820845
            ],
            [
              7.4288495,
              49.2821605
            ],
            [
              7.4279866,
              49.2829084
            ],
            [
              7.4264208,
              49.2846972
            ],
            [
              7.4259989,
              49.2850371
            ],
            [
              7.425687,
              49.2852921
            ],
            [
              7.42501,
              49.2857201
            ],
            [
              7.4246741,
              49.285876
            ],
            [
              7.4246341,
              49.2858822
            ],
            [
              7.4242062,
              49.285949
            ],
            [
              7.4233343,
              49.285987
            ],
            [
              7.4220015,
              49.285945
            ],
            [
              7.4201827,
              49.285838
            ],
            [
              7.4192399,
              49.2867649
            ],
            [
              7.4191089,
              49.2870399
            ],
            [
              7.4188119,
              49.2880388
            ],
            [
              7.4165243,
              49.2874399
            ],
            [
              7.4157224,
              49.2872039
            ],
            [
              7.4149365,
              49.2870859
            ],
            [
              7.4145765,
              49.2869859
            ],
            [
              7.4141386,
              49.2867689
            ],
            [
              7.4120099,
              49.2854831
            ],
            [
              7.411243,
              49.2850221
            ],
            [
              7.411041,
              49.2849071
            ],
            [
              7.4103111,
              49.2844912
            ],
            [
              7.4154281,
              49.2822522
            ],
            [
              7.4154281,
              49.2795086
            ],
            [
              7.4122523,
              49.2777728
            ],
            [
              7.4063301,
              49.2771848
            ],
            [
              7.4059009,
              49.2711089
            ]
          ]
        ]
      }
    },
    {
      "type": "Feature",
      "properties": {
        "name": "Rimschweiler",
        "city": "Zweibrücken",
        "osm_id": 6662881,
        "osm_type": "relation",
        "display": "Rimschweiler, Zweibrücken, Rheinland-Pfalz, Deutschland"
      },
      "geometry": {
        "type": "Polygon",
        "coordinates": [
          [
            [
              7.3659707,
              49.2132631
            ],
            [
              7.3660207,
              49.2128022
            ],
            [
              7.3662816,
              49.2118173
            ],
            [
              7.3664746,
              49.2114893
            ],
            [
              7.3666876,
              49.2111883
            ],
            [
              7.3679054,
              49.2104904
            ],
            [
              7.3681804,
              49.2101775
            ],
            [
              7.3684173,
              49.2102305
            ],
            [
              7.3687613,
              49.2103075
            ],
            [
              7.3690033,
              49.2103604
            ],
            [
              7.3695252,
              49.2105284
            ],
            [
              7.370446,
              49.2108184
            ],
            [
              7.37089,
              49.2108644
            ],
            [
              7.3724728,
              49.2107414
            ],
            [
              7.3737316,
              49.2106164
            ],
            [
              7.3750334,
              49.2104484
            ],
            [
              7.3757353,
              49.2112264
            ],
            [
              7.37766,
              49.2106044
            ],
            [
              7.3783769,
              49.2103525
            ],
            [
              7.3787439,
              49.2102915
            ],
            [
              7.3793308,
              49.2102845
            ],
            [
              7.3798347,
              49.2103455
            ],
            [
              7.3802357,
              49.2104554
            ],
            [
              7.3827,
              49.2115188
            ],
            [
              7.3832525,
              49.2117214
            ],
            [
              7.3865747,
              49.2129389
            ],
            [
              7.3877253,
              49.2134203
            ],
            [
              7.3886394,
              49.2139121
            ],
            [
              7.3891764,
              49.2136301
            ],
            [
              7.3897513,
              49.2133851
            ],
            [
              7.3904272,
              49.2131302
            ],
            [
              7.3910201,
              49.2129922
            ],
            [
              7.3932358,
              49.2127602
            ],
            [
              7.3941237,
              49.2127712
            ],
            [
              7.3945076,
              49.2128052
            ],
            [
              7.3949256,
              49.2130112
            ],
            [
              7.3951015,
              49.2131982
            ],
            [
              7.3950695,
              49.2133781
            ],
            [
              7.3947636,
              49.2136141
            ],
            [
              7.3939767,
              49.2141221
            ],
            [
              7.3930848,
              49.21461
            ],
            [
              7.3942576,
              49.214854
            ],
            [
              7.3946786,
              49.2149
            ],
            [
              7.3957154,
              49.214805
            ],
            [
              7.3965663,
              49.214782
            ],
            [
              7.3973546,
              49.214813
            ],
            [
              7.3979831,
              49.214774
            ],
            [
              7.3984311,
              49.214702
            ],
            [
              7.398549,
              49.214705
            ],
            [
              7.399032,
              49.214747
            ],
            [
              7.3994909,
              49.214736
            ],
            [
              7.4001847,
              49.2149927
            ],
            [
              7.4008906,
              49.2158341
            ],
            [
              7.401564,
              49.2168008
            ],
            [
              7.4017286,
              49.2171427
            ],
            [
              7.4018287,
              49.2177913
            ],
            [
              7.4019865,
              49.2182282
            ],
            [
              7.4020383,
              49.2182402
            ],
            [
              7.4034103,
              49.2185696
            ],
            [
              7.4064659,
              49.2194055
            ],
            [
              7.4070128,
              49.2192415
            ],
            [
              7.4076597,
              49.2190805
            ],
            [
              7.4082906,
              49.2194695
            ],
            [
              7.4093565,
              49.2201184
            ],
            [
              7.4100934,
              49.2205424
            ],
            [
              7.4107313,
              49.2205344
            ],
            [
              7.4110442,
              49.2204614
            ],
            [
              7.4123151,
              49.2200684
            ],
            [
              7.4148157,
              49.2193635
            ],
            [
              7.4154866,
              49.2193935
            ],
            [
              7.4175623,
              49.2194965
            ],
            [
              7.4180802,
              49.2193555
            ],
            [
              7.4183952,
              49.2192715
            ],
            [
              7.4187441,
              49.2191955
            ],
            [
              7.4190901,
              49.2191955
            ],
            [
              7.419511,
              49.2191685
            ],
            [
              7.41958,
              49.2189316
            ],
            [
              7.419928,
              49.2183216
            ],
            [
              7.4200026,
              49.2182203
            ],
            [
              7.4204249,
              49.2176467
            ],
            [
              7.4217597,
              49.2181116
            ],
            [
              7.4225526,
              49.2183716
            ],
            [
              7.4234555,
              49.2190275
            ],
            [
              7.4235855,
              49.2207823
            ],
            [
              7.4236824,
              49.2219802
            ],
            [
              7.4237634,
              49.2229951
            ],
            [
              7.4239614,
              49.224143
            ],
            [
              7.4241764,
              49.2252109
            ],
            [
              7.4243423,
              49.2260238
            ],
            [
              7.4244936,
              49.2260809
            ],
            [
              7.426313,
              49.2267677
            ],
            [
              7.426587,
              49.2268937
            ],
            [
              7.426849,
              49.2270576
            ],
            [
              7.4286897,
              49.2284305
            ],
            [
              7.4294383,
              49.2288872
            ],
            [
              7.4272675,
              49.2294235
            ],
            [
              7.4252292,
              49.2298003
            ],
            [
              7.4247423,
              49.2297273
            ],
            [
              7.4244773,
              49.2295904
            ],
            [
              7.4241353,
              49.2295444
            ],
            [
              7.4238834,
              49.2295144
            ],
            [
              7.4236634,
              49.2295174
            ],
            [
              7.4228685,
              49.2295944
            ],
            [
              7.4223556,
              49.2296783
            ],
            [
              7.4220596,
              49.2297243
            ],
            [
              7.419322,
              49.2295794
            ],
            [
              7.4172103,
              49.2294494
            ],
            [
              7.4166124,
              49.2294344
            ],
            [
              7.4164104,
              49.2294644
            ],
            [
              7.4160615,
              49.2295024
            ],
            [
              7.4155296,
              49.2295564
            ],
            [
              7.4149407,
              49.2296853
            ],
            [
              7.4147997,
              49.2298953
            ],
            [
              7.4147137,
              49.2301053
            ],
            [
              7.412511,
              49.2304293
            ],
            [
              7.4119501,
              49.2305322
            ],
            [
              7.4106223,
              49.2308152
            ],
            [
              7.4089915,
              49.2312612
            ],
            [
              7.4071298,
              49.2317911
            ],
            [
              7.4064059,
              49.2320241
            ],
            [
              7.405738,
              49.23223
            ],
            [
              7.4049931,
              49.232509
            ],
            [
              7.4046211,
              49.232627
            ],
            [
              7.4040702,
              49.232993
            ],
            [
              7.4031673,
              49.2334589
            ],
            [
              7.4021428,
              49.2336231
            ],
            [
              7.3983478,
              49.2342312
            ],
            [
              7.390943,
              49.229767
            ],
            [
              7.3831557,
              49.2305462
            ],
            [
              7.3710536,
              49.2247728
            ],
            [
              7.3684778,
              49.2192746
            ],
            [
              7.3660427,
              49.214076
            ],
            [
              7.3659707,
              49.2132631
            ]
          ]
        ]
      }
    },
    {
      "type": "Feature",
      "properties": {
        "name": "Wattweiler",
        "city": "Zweibrücken",
        "osm_id": 4774957,
        "osm_type": "relation",
        "display": "Wattweiler, Zweibrücken, Rheinland-Pfalz, Deutschland"
      },
      "geometry": {
        "type": "Polygon",
        "coordinates": [
          [
            [
              7.288695,
              49.2362895
            ],
            [
              7.2921914,
              49.2353451
            ],
            [
              7.2932663,
              49.2350451
            ],
            [
              7.2943253,
              49.2347266
            ],
            [
              7.2926721,
              49.2333058
            ],
            [
              7.2926091,
              49.2332528
            ],
            [
              7.2917992,
              49.2325769
            ],
            [
              7.2913233,
              49.2321419
            ],
            [
              7.2911633,
              49.2318789
            ],
            [
              7.2906004,
              49.231242
            ],
            [
              7.2892977,
              49.2306077
            ],
            [
              7.2898712,
              49.2301147
            ],
            [
              7.290517,
              49.2295158
            ],
            [
              7.2905926,
              49.2294731
            ],
            [
              7.2915535,
              49.2285356
            ],
            [
              7.2924187,
              49.2278736
            ],
            [
              7.2936729,
              49.2270845
            ],
            [
              7.2939979,
              49.2268205
            ],
            [
              7.2942609,
              49.2266495
            ],
            [
              7.2962488,
              49.226043
            ],
            [
              7.2963256,
              49.2260196
            ],
            [
              7.3,
              49.2243908
            ],
            [
              7.3019568,
              49.2235209
            ],
            [
              7.3030316,
              49.2229989
            ],
            [
              7.3034267,
              49.2227466
            ],
            [
              7.3040304,
              49.2221488
            ],
            [
              7.302679,
              49.222111
            ],
            [
              7.3026098,
              49.2209818
            ],
            [
              7.3027405,
              49.2202672
            ],
            [
              7.302537,
              49.2187789
            ],
            [
              7.3021909,
              49.2178903
            ],
            [
              7.3029762,
              49.2175871
            ],
            [
              7.3028156,
              49.2166011
            ],
            [
              7.3027402,
              49.2165387
            ],
            [
              7.3028032,
              49.2165233
            ],
            [
              7.3037249,
              49.2172747
            ],
            [
              7.304787,
              49.2199535
            ],
            [
              7.3051035,
              49.2214163
            ],
            [
              7.310089,
              49.2227884
            ],
            [
              7.3128902,
              49.2256466
            ],
            [
              7.3142778,
              49.2267287
            ],
            [
              7.3135475,
              49.2272823
            ],
            [
              7.3164302,
              49.2291884
            ],
            [
              7.3175564,
              49.2295967
            ],
            [
              7.3251772,
              49.2325148
            ],
            [
              7.3301211,
              49.2363277
            ],
            [
              7.3295009,
              49.2378809
            ],
            [
              7.3298548,
              49.2379476
            ],
            [
              7.3296601,
              49.2385265
            ],
            [
              7.3312358,
              49.2390219
            ],
            [
              7.3311656,
              49.2391049
            ],
            [
              7.3323103,
              49.2394715
            ],
            [
              7.331159,
              49.2406555
            ],
            [
              7.3306941,
              49.2412468
            ],
            [
              7.3304814,
              49.2415754
            ],
            [
              7.3303992,
              49.2417465
            ],
            [
              7.3303443,
              49.2419065
            ],
            [
              7.3302928,
              49.2421023
            ],
            [
              7.3302698,
              49.2422941
            ],
            [
              7.3275648,
              49.2415475
            ],
            [
              7.3266942,
              49.2420801
            ],
            [
              7.3264289,
              49.2422948
            ],
            [
              7.3259574,
              49.242763
            ],
            [
              7.3250967,
              49.2436377
            ],
            [
              7.3247403,
              49.2441266
            ],
            [
              7.3239687,
              49.2447988
            ],
            [
              7.3243807,
              49.2446685
            ],
            [
              7.3249333,
              49.2445883
            ],
            [
              7.325442,
              49.2445855
            ],
            [
              7.3259771,
              49.2446799
            ],
            [
              7.3271964,
              49.2449348
            ],
            [
              7.3245345,
              49.2480502
            ],
            [
              7.3240675,
              49.2478702
            ],
            [
              7.3235316,
              49.2477372
            ],
            [
              7.3232867,
              49.2476452
            ],
            [
              7.3228057,
              49.2474202
            ],
            [
              7.3220278,
              49.2479692
            ],
            [
              7.321005,
              49.2487291
            ],
            [
              7.3199289,
              49.2493843
            ],
            [
              7.3197105,
              49.2497114
            ],
            [
              7.3186212,
              49.2503124
            ],
            [
              7.3182961,
              49.2506785
            ],
            [
              7.317585,
              49.2508408
            ],
            [
              7.3163427,
              49.2513174
            ],
            [
              7.3157336,
              49.2517681
            ],
            [
              7.31554,
              49.2519116
            ],
            [
              7.3151729,
              49.252424
            ],
            [
              7.3146302,
              49.2529967
            ],
            [
              7.314394,
              49.253246
            ],
            [
              7.3138938,
              49.2537682
            ],
            [
              7.313391,
              49.2542807
            ],
            [
              7.3130532,
              49.254288
            ],
            [
              7.3126405,
              49.2544398
            ],
            [
              7.3122609,
              49.2547325
            ],
            [
              7.3120815,
              49.2552722
            ],
            [
              7.3120709,
              49.2558759
            ],
            [
              7.3115932,
              49.2571325
            ],
            [
              7.3109456,
              49.2569834
            ],
            [
              7.3100792,
              49.2568209
            ],
            [
              7.3097811,
              49.25734
            ],
            [
              7.3096986,
              49.2573315
            ],
            [
              7.309202,
              49.2573033
            ],
            [
              7.3089255,
              49.2572287
            ],
            [
              7.3089275,
              49.2570538
            ],
            [
              7.3073435,
              49.25677
            ],
            [
              7.3073953,
              49.256472
            ],
            [
              7.3063472,
              49.2561614
            ],
            [
              7.3068324,
              49.2549593
            ],
            [
              7.305619,
              49.2540456
            ],
            [
              7.3047529,
              49.2534228
            ],
            [
              7.3045672,
              49.2530807
            ],
            [
              7.3044156,
              49.2527507
            ],
            [
              7.3049147,
              49.2521217
            ],
            [
              7.3035886,
              49.2513629
            ],
            [
              7.3030084,
              49.2510348
            ],
            [
              7.303081,
              49.2503266
            ],
            [
              7.3031296,
              49.249623
            ],
            [
              7.3031749,
              49.2491999
            ],
            [
              7.3032012,
              49.2488889
            ],
            [
              7.3031994,
              49.2485688
            ],
            [
              7.3032472,
              49.2482682
            ],
            [
              7.3036551,
              49.247144
            ],
            [
              7.303915,
              49.2461823
            ],
            [
              7.3040231,
              49.2458553
            ],
            [
              7.304175,
              49.2454995
            ],
            [
              7.3035253,
              49.2452665
            ],
            [
              7.3032793,
              49.2450334
            ],
            [
              7.3030575,
              49.2448795
            ],
            [
              7.3023337,
              49.2442196
            ],
            [
              7.3020047,
              49.2438876
            ],
            [
              7.3016098,
              49.2434876
            ],
            [
              7.3005506,
              49.2432264
            ],
            [
              7.2996959,
              49.2429003
            ],
            [
              7.2987494,
              49.2424919
            ],
            [
              7.2986683,
              49.242502
            ],
            [
              7.2976242,
              49.2418466
            ],
            [
              7.2963698,
              49.2409507
            ],
            [
              7.2958727,
              49.240588
            ],
            [
              7.2955407,
              49.2403478
            ],
            [
              7.295111,
              49.2400395
            ],
            [
              7.2935126,
              49.2397105
            ],
            [
              7.2920521,
              49.2396151
            ],
            [
              7.2917302,
              49.2393901
            ],
            [
              7.2912004,
              49.2392737
            ],
            [
              7.2905666,
              49.2390299
            ],
            [
              7.289796,
              49.2384868
            ],
            [
              7.2892979,
              49.2381773
            ],
            [
              7.2891799,
              49.237975
            ],
            [
              7.2902164,
              49.2374948
            ],
            [
              7.2913528,
              49.2372838
            ],
            [
              7.2910543,
              49.2369294
            ],
            [
              7.2909758,
              49.2367627
            ],
            [
              7.2905553,
              49.2366445
            ],
            [
              7.2893831,
              49.2364484
            ],
            [
              7.288695,
              49.2362895
            ]
          ]
        ]
      }
    }
  ]
}